Store Company ID,Company Name,Address 1,City,State,Zip,Country,Phone,company_name
1000831092,D'Angelo Grilled Sandwiches,1261 Park St,STOUGHTON,MA,02072-3730,United States of America,7812973507.0,dangelo_grilled_sandwiches
1000884270,D'Angelo Grilled Sandwiches,875 William T Morrissey Blvd,DORCHESTER,MA,02122-3331,United States of America,6178250253.0,dangelo_grilled_sandwiches
1000964781,Papa John's Pizza,850 Washington St,WEYMOUTH,MA,02189-1542,United States of America,7813373131.0,papa_johns_pizza
1000843398,D'Angelo Grilled Sandwiches,200 Brookline Ave,BOSTON,MA,02215-3907,United States of America,6172473441.0,dangelo_grilled_sandwiches
1000937481,Papa John's Pizza,165 Market St,ROCKLAND,MA,02370-2633,United States of America,7818717771.0,papa_johns_pizza
1000873287,D'Angelo Grilled Sandwiches,59 Mount Auburn St,WATERTOWN,MA,02472-3924,United States of America,6179232950.0,dangelo_grilled_sandwiches
1000946735,Papa John's Pizza,29 Alden Rd,FAIRHAVEN,MA,02719-4638,United States of America,5089938200.0,papa_johns_pizza
1000946464,Papa John's Pizza,2819 Acushnet Ave,NEW BEDFORD,MA,02745-3410,United States of America,5089954788.0,papa_johns_pizza
1000848662,Papa Gino's Pizzeria,235 Amherst St,NASHUA,NH,03063-1701,United States of America,6038822232.0,papa_ginos_pizzeria
1000928749,Papa John's Pizza,1015 Elm St,MANCHESTER,NH,03101-1843,United States of America,6036457676.0,papa_johns_pizza
1000939283,Papa John's Pizza,185 Ocean St,SOUTH PORTLAND,ME,04106-3600,United States of America,2077677272.0,papa_johns_pizza
1000873627,Fox's Pizza Den,6 Lower Blvd,NEW LONDON,CT,06320-4331,United States of America,8604433697.0,foxs_pizza_den
1000906968,Villa Pizza,888 Bridgeport Ave,SHELTON,CT,06484-4625,United States of America,2039291155.0,villa_pizza
2000182986,Papa John's Pizza,3394 Whitney Ave,HAMDEN,CT,06518-1909,United States of America,2032817272.0,papa_johns_pizza
1000900878,Villa Pizza,411 Barnum Avenue Cutoff,STRATFORD,CT,06614-5100,United States of America,2033772033.0,villa_pizza
2000144292,Chuck E. Cheese's,20 Backus Ave,DANBURY,CT,06810-7416,United States of America,2037987600.0,chuck_e_cheeses
2000183116,Papa John's Pizza,455 Bloomfield Ave,CALDWELL,NJ,07006-5423,United States of America,9732263100.0,papa_johns_pizza
1000878043,Godfather's Pizza,701 E Edgar Rd,LINDEN,NJ,07036-2405,United States of America,9088623497.0,godfathers_pizza
2000023982,Papa John's Pizza,61 E Mount Pleasant Ave,LIVINGSTON,NJ,07039-3003,United States of America,9739927492.0,papa_johns_pizza
1000951325,Papa John's Pizza,381 S Orange Ave,NEWARK,NJ,07103-1925,United States of America,9733539200.0,papa_johns_pizza
2000183127,Papa John's Pizza,440 Forest Ave,PARAMUS,NJ,07652-4763,United States of America,2012628300.0,papa_johns_pizza
2000037561,Papa John's Pizza,1430 State Route 36,HAZLET,NJ,07730-1736,United States of America,7323359100.0,papa_johns_pizza
2000183122,Papa John's Pizza,3440 US Highway 9,HOWELL,NJ,07731-3343,United States of America,7329017272.0,papa_johns_pizza
1000938556,Papa John's Pizza,176 US Highway 46,ROCKAWAY,NJ,07866-4047,United States of America,9736257272.0,papa_johns_pizza
1000951227,Papa John's Pizza,38 State Route 10 W,SUCCASUNNA,NJ,07876-1752,United States of America,9735842777.0,papa_johns_pizza
1000966149,Papa John's Pizza,920 W Route 70,EVESHAM,NJ,08053-1648,United States of America,8565963700.0,papa_johns_pizza
1000946791,Papa John's Pizza,2900 Route 130 N,CINNAMINSON,NJ,08077-3085,United States of America,8563039300.0,papa_johns_pizza
2000023917,Papa John's Pizza,178 S New York Rd,GALLOWAY,NJ,08205-9647,United States of America,6094047778.0,papa_johns_pizza
1000881500,Godfather's Pizza,8 Bennetts Mills Rd,JACKSON,NJ,08527-4510,United States of America,7329289909.0,godfathers_pizza
2000037546,Papa John's Pizza,10 Beaverson Blvd,BRICK,NJ,08723-7801,United States of America,7329207272.0,papa_johns_pizza
1000908120,South Philly Steaks & Fries,1201 Hooper Ave,TOMS RIVER,NJ,08753-3330,United States of America,7325051450.0,south_philly_steaks_&_fries
1000892170,Villa Pizza,1425 Frontier Rd,BRIDGEWATER,NJ,08807-2903,United States of America,7323569716.0,villa_pizza
1000839914,Godfather's Pizza,1746 State Route 31,CLINTON,NJ,08809-2005,United States of America,9087136119.0,godfathers_pizza
1000853807,Godfather's Pizza,2800 US Highway 1,NORTH BRUNSWICK,NJ,08902-4315,United States of America,7329403705.0,godfathers_pizza
1000942118,Papa John's Pizza,213 W 28th St,NEW YORK,NY,10001-5918,United States of America,2125637272.0,papa_johns_pizza
2000023928,Papa John's Pizza,432 2nd Ave,NEW YORK,NY,10010-4002,United States of America,2124817272.0,papa_johns_pizza
2000041194,California Pizza Kitchen,201 E 60th St,NEW YORK,NY,10022-1401,United States of America,2127557773.0,california_pizza_kitchen
2000183156,Papa John's Pizza,329 Malcolm X Blvd,NEW YORK,NY,10027-3703,United States of America,2122807272.0,papa_johns_pizza
1000950033,Papa John's Pizza,3477 Broadway,NEW YORK,NY,10031-5628,United States of America,2123687272.0,papa_johns_pizza
2000196680,CiCi's Pizza,1776 E Gun Hill Rd,BRONX,NY,10469-6011,United States of America,7186712575.0,cicis_pizza
1000878186,D'Angelo Grilled Sandwiches,702 Massachusetts Tpke,LUDLOW,MA,1056,United States of America,4135899321.0,dangelo_grilled_sandwiches
1000940906,Papa John's Pizza,201 Tarrytown Rd,WHITE PLAINS,NY,10607-1613,United States of America,9144287272.0,papa_johns_pizza
1000863848,Godfather's Pizza,411 Main St,PALMER,MA,1069,United States of America,4132839244.0,godfathers_pizza
1000944119,Papa John's Pizza,242 Sheridan Blvd,INWOOD,NY,11096-1223,United States of America,5163715500.0,papa_johns_pizza
2000037405,Papa John's Pizza,604 Grand St,BROOKLYN,NY,11211-4802,United States of America,7183887272.0,papa_johns_pizza
1000957701,Papa John's Pizza,5620 Metropolitan Ave,RIDGEWOOD,NY,11385-1927,United States of America,7183667272.0,papa_johns_pizza
2000041191,California Pizza Kitchen,200 Hofstra University,HEMPSTEAD,NY,11549-2000,United States of America,5164636595.0,california_pizza_kitchen
1000927785,Papa John's Pizza,1 Railroad Plaza,BAY SHORE,NY,11706,United States of America,6319692300.0,papa_johns_pizza
1000938064,Papa John's Pizza,1708 Sunrise Hwy,COPIAGUE,NY,11726-1528,United States of America,6318427272.0,papa_johns_pizza
2000041462,California Pizza Kitchen,319 Stony Brk,STONY BROOK,NY,11794-0001,United States of America,6316322921.0,california_pizza_kitchen
2000133544,Papa John's Pizza,1525 Route 9,CLIFTON PARK,NY,12065,United States of America,5183837272.0,papa_johns_pizza
2000183140,Papa John's Pizza,402 Albany Shaker Rd,ALBANY,NY,12211-1955,United States of America,5184827272.0,papa_johns_pizza
2000133539,Papa John's Pizza,1410 Altamont Ave,SCHENECTADY,NY,12303,United States of America,5183557272.0,papa_johns_pizza
1000867734,Godfather's Pizza,2599 Route 9 & Snook Rd,FISHKILL,NY,12524,United States of America,8458972590.0,godfathers_pizza
1000868262,Godfather's Pizza,491 State Route 299,HIGHLAND,NY,12528-2834,United States of America,8456912090.0,godfathers_pizza
2000183158,Papa John's Pizza,870 State Route 9,QUEENSBURY,NY,12804,United States of America,5187457272.0,papa_johns_pizza
2000183152,Papa John's Pizza,1311 Saratoga Rd,GANSEVOORT,NY,12831-1562,United States of America,5189267272.0,papa_johns_pizza
1000951483,Papa John's Pizza,386 State Route 3,PLATTSBURGH,NY,12901-6516,United States of America,5183245666.0,papa_johns_pizza
1000929899,Papa John's Pizza,1081 Route 17C,OWEGO,NY,13827,United States of America,6076877007.0,papa_johns_pizza
2000183151,Papa John's Pizza,57 Liberty St,FREDONIA,NY,14063-2003,United States of America,7167537942.0,papa_johns_pizza
1000846480,Godfather's Pizza,2180 Penfield Rd,PENFIELD,NY,14526-1748,United States of America,5853770810.0,godfathers_pizza
1000943104,Papa John's Pizza,2255 Ridge Rd E,IRONDEQUOIT,NY,14622,United States of America,5854675000.0,papa_johns_pizza
1000848443,Godfather's Pizza,2328 Chili Ave,GATES,NY,14624-3326,United States of America,5852476750.0,godfathers_pizza
1000833051,Fox's Pizza Den,1350 Wildwood Rd,GIBSONIA,PA,15044-7451,United States of America,4124862588.0,foxs_pizza_den
1000953220,Papa John's Pizza,423 Adams St,ROCHESTER,PA,15074-1910,United States of America,7247755959.0,papa_johns_pizza
1000836262,Fox's Pizza Den,1515 Washington Blvd,MCKEESPORT,PA,15133-3725,United States of America,4126730060.0,foxs_pizza_den
2000060560,Vocelli Pizza,4500 Butler St,PITTSBURGH,PA,15201-3069,United States of America,4126833434.0,vocelli_pizza
1000839801,Fox's Pizza Den,1736 S Braddock Ave,PITTSBURGH,PA,15218,United States of America,4122473697.0,foxs_pizza_den
2000144480,Fox's Pizza Den,184 W Chestnut St,WASHINGTON,PA,15301-4423,United States of America,7242222268.0,foxs_pizza_den
2000060590,Vocelli Pizza,107 E Roy Furman Hwy,WAYNESBURG,PA,15370-8154,United States of America,7246279992.0,vocelli_pizza
1000888240,Fox's Pizza Den,15 Sherman St,OHIOPYLE,PA,15470,United States of America,7243291111.0,foxs_pizza_den
1000935383,Papa John's Pizza,1456 N Center Ave,SOMERSET,PA,15501-1632,United States of America,8144440404.0,papa_johns_pizza
1000960232,Papa John's Pizza,161 N Richard St,BEDFORD,PA,15522-1017,United States of America,8146242412.0,papa_johns_pizza
1000850111,Fox's Pizza Den,25 Center St,MEYERSDALE,PA,15552-1101,United States of America,8146345019.0,foxs_pizza_den
2000060533,Vocelli Pizza,108 4th St,IRWIN,PA,15642-3576,United States of America,7248649990.0,vocelli_pizza
1000863685,Fox's Pizza Den,410 Central Ave,JOHNSTOWN,PA,15902-2501,United States of America,8145320532.0,foxs_pizza_den
1000902303,Villa Pizza,500 Galleria Dr,JOHNSTOWN,PA,15904-8920,United States of America,8142620348.0,villa_pizza
1000844511,Fox's Pizza Den,20300 Route 19,CRANBERRY TOWNSHIP,PA,16066-6126,United States of America,7247723697.0,foxs_pizza_den
2000060527,Vocelli Pizza,17 Pine Grove Sq,GROVE CITY,PA,16127-4447,United States of America,7244587433.0,vocelli_pizza
2000183174,Papa John's Pizza,162 S Jefferson St,KITTANNING,PA,16201-2420,United States of America,7245457272.0,papa_johns_pizza
2000060511,Vocelli Pizza,2823 W 26th St,ERIE,PA,16506-3065,United States of America,8148388884.0,vocelli_pizza
2000060481,Vocelli Pizza,3301 6th Ave,ALTOONA,PA,16602-1839,United States of America,8149441608.0,vocelli_pizza
1000840182,Fox's Pizza Den,177 Glimcher Dr,DUNCANSVILLE,PA,16635-9415,United States of America,8146953530.0,foxs_pizza_den
1000865419,Fox's Pizza Den,434 Gateway Ave,CHAMBERSBURG,PA,17201-7351,United States of America,7172626369.0,foxs_pizza_den
2000183173,Papa John's Pizza,14 S Carlisle St,GREENCASTLE,PA,17225-1574,United States of America,7175977272.0,papa_johns_pizza
1000937667,Papa John's Pizza,1675 E Main St,WAYNESBORO,PA,17268-1874,United States of America,7177621110.0,papa_johns_pizza
1000940556,Papa John's Pizza,200 Kennedy Blvd,PITTSTON,PA,18640-1814,United States of America,5706022200.0,papa_johns_pizza
1000941763,Papa John's Pizza,2100 Market St,PHILADELPHIA,PA,19103-3103,United States of America,2159720505.0,papa_johns_pizza
2000144478,Fox's Pizza Den,1810 Wilmington Pike,GLEN MILLS,PA,19342-8180,United States of America,6105581107.0,foxs_pizza_den
2000074180,California Pizza Kitchen,381 W Dekalb Pike,KING OF PRUSSIA,PA,19406-2302,United States of America,6109921018.0,california_pizza_kitchen
1000834493,Godfather's Pizza,14233 Kutztown Rd,FLEETWOOD,PA,19522-9274,United States of America,6109441384.0,godfathers_pizza
1000944210,Papa John's Pizza,2431 Pulaski Hwy,NEWARK,DE,19702-3905,United States of America,3027382600.0,papa_johns_pizza
2000025001,CiCi's Pizza,1150 Capitol Trl,NEWARK,DE,19711-3955,United States of America,3023682424.0,cicis_pizza
1000965236,Papa John's Pizza,8800 Commerce Ct,MANASSAS,VA,20110-5289,United States of America,7032574664.0,papa_johns_pizza
1000822434,D'Angelo Grilled Sandwiches,10 Franklin Village Dr,FRANKLIN,MA,2038,United States of America,5085203150.0,dangelo_grilled_sandwiches
1000829078,D'Angelo Grilled Sandwiches,12 Whiting St,HINGHAM,MA,2043,United States of America,7817494460.0,dangelo_grilled_sandwiches
2000144468,Fox's Pizza Den,9204 Baltimore Ave,COLLEGE PARK,MD,20740-1316,United States of America,3014743697.0,foxs_pizza_den
1000958067,Papa John's Pizza,5735 Deale Churchton Rd,DEALE,MD,20751-9728,United States of America,4108679518.0,papa_johns_pizza
2000060521,Vocelli Pizza,115 E Diamond Ave,GAITHERSBURG,MD,20877-3013,United States of America,3019908866.0,vocelli_pizza
1000931759,Papa John's Pizza,12 Mayo Rd,EDGEWATER,MD,21037-1426,United States of America,4107987272.0,papa_johns_pizza
2000060503,Vocelli Pizza,7290 Cradlerock Way,COLUMBIA,MD,21045-5062,United States of America,4103095821.0,vocelli_pizza
2000060524,Vocelli Pizza,7954 Baltimore Annapolis Blvd,GLEN BURNIE,MD,21060-8186,United States of America,4108630050.0,vocelli_pizza
1000876083,CiCi's Pizza,6473 Baltimore National Pike,BALTIMORE,MD,21228-3904,United States of America,4107191001.0,cicis_pizza
2000198807,Villa Fresh Italian Kitchen,BWI Airport,BALTIMORE,MD,21240,United States of America,1085048463.0,villa_fresh_italian_kitchen
2000198808,Villa Fresh Italian Kitchen,BWI Airport,BALTIMORE,MD,21240,United States of America,1085048464.0,villa_fresh_italian_kitchen
1000844902,Fox's Pizza Den,206 Greene St,CUMBERLAND,MD,21502-2838,United States of America,3017593697.0,foxs_pizza_den
1000868417,D'Angelo Grilled Sandwiches,494 Quincy Ave,BRAINTREE,MA,2184,United States of America,7818497858.0,dangelo_grilled_sandwiches
2000183213,Papa John's Pizza,731 Colonial Ave,COLONIAL BEACH,VA,22443-2011,United States of America,8042244040.0,papa_johns_pizza
1000880080,CiCi's Pizza,7500 Jackson Arch Dr,MECHANICSVILLE,VA,23111-4458,United States of America,8047302424.0,cicis_pizza
2000183223,Papa John's Pizza,2104 W Laburnum Ave,RICHMOND,VA,23227-4357,United States of America,8043557272.0,papa_johns_pizza
1000890442,Villa Pizza,11800 W Broad St,RICHMOND,VA,23233-7927,United States of America,8043643370.0,villa_pizza
1000836333,D'Angelo Grilled Sandwiches,152 Samoset St,PLYMOUTH,MA,2360,United States of America,5088300102.0,dangelo_grilled_sandwiches
2000183218,Papa John's Pizza,744 Thimble Shoals Blvd,NEWPORT NEWS,VA,23606,United States of America,7575955869.0,papa_johns_pizza
2000051252,Marco's Pizza,3322 W Mercury Blvd,HAMPTON,VA,23666-3858,United States of America,7578640912.0,marcos_pizza
1000843465,CiCi's Pizza,200 Marshall Dr,CHRISTIANSBURG,VA,24073-1093,United States of America,5403810068.0,cicis_pizza
1000902551,Villa Pizza,510 Gate City Hwy,BRISTOL,VA,24201-2307,United States of America,2766698997.0,villa_pizza
2000037141,Papa John's Pizza,183 Ridgeview Rd SW,WISE,VA,24293-4619,United States of America,2766797272.0,papa_johns_pizza
2000144487,Fox's Pizza Den,417 S Main St,AMHERST,VA,24521,United States of America,4349461369.0,foxs_pizza_den
1000888400,Fox's Pizza Den,Rte 10 Box 72,LASHMEET,WV,24733,United States of America,3044678222.0,foxs_pizza_den
1000888259,Fox's Pizza Den,PO Box 639,PINEVILLE,WV,24874,United States of America,3047326666.0,foxs_pizza_den
1000888326,Fox's Pizza Den,Rte 10 N,WOLF PEN,WV,24874,United States of America,3047326666.0,foxs_pizza_den
2000060541,Vocelli Pizza,1430 Edwin Miller Blvd,MARTINSBURG,WV,25404,United States of America,3045966777.0,vocelli_pizza
1000956039,Papa John's Pizza,110 Nick Savas Dr,LOGAN,WV,25601-3468,United States of America,3047528858.0,papa_johns_pizza
1000843727,Godfather's Pizza,2001 Robert C Byrd Dr,BECKLEY,WV,25801,United States of America,3042557657.0,godfathers_pizza
1000854473,Godfather's Pizza,2964 Flat Top Rd,GHENT,WV,25843,United States of America,3047875768.0,godfathers_pizza
1000863838,Fox's Pizza Den,411 Guyandotte Ave,MULLENS,WV,25882-1337,United States of America,3042948000.0,foxs_pizza_den
1000877656,Fox's Pizza Den,6946 Webster Rd,COWEN,WV,26206,United States of America,3042265039.0,foxs_pizza_den
1000823536,Fox's Pizza Den,101 N Washington Ave,ELKINS,WV,26241-3684,United States of America,3046378200.0,foxs_pizza_den
1000869066,Fox's Pizza Den,38 Cheat Valley Hwy,PARSONS,WV,26287-8002,United States of America,3044784020.0,foxs_pizza_den
2000060491,Vocelli Pizza,124 Thompson Dr,BRIDGEPORT,WV,26330-1644,United States of America,3048482800.0,vocelli_pizza
1000866439,Fox's Pizza Den,451 US Highway 33 E,WESTON,WV,26452-7050,United States of America,3042694040.0,foxs_pizza_den
2000144490,Fox's Pizza Den,3031 Webster Rd,SUMMERSVILLE,WV,26651-1041,United States of America,3048723939.0,foxs_pizza_den
2000183227,Papa John's Pizza,1026 Wal St,SUMMERSVILLE,WV,26651-2101,United States of America,3048727992.0,papa_johns_pizza
1000852757,Fox's Pizza Den,275 E Main St,WARDENSVILLE,WV,26851,United States of America,3048744203.0,foxs_pizza_den
2000046199,Donatos Pizza,6246 Towncenter Dr,CLEMMONS,NC,27012-9376,United States of America,3367123300.0,donatos_pizza
2000046200,Donatos Pizza,5312 Village Way Dr,WINSTON SALEM,NC,27106,United States of America,3369240520.0,donatos_pizza
2000046168,Donatos Pizza,1183 University Dr,BURLINGTON,NC,27215-8315,United States of America,3365841399.0,donatos_pizza
2000003112,CiCi's Pizza,5824 Samet Dr,HIGH POINT,NC,27265-3658,United States of America,3368411006.0,cicis_pizza
2000024237,Hungry Howie's Pizza & Subs,6999 Old U S Hwy 52,WELCOME,NC,27295,United States of America,3367313300.0,hungry_howies_pizza_&_subs
2000002304,Godfather's Pizza,4344 S NC Highway 150,LEXINGTON,NC,27295-5376,United States of America,3368535340.0,godfathers_pizza
1000893121,Hungry Howie's Pizza & Subs,1608 W Friendly Ave,GREENSBORO,NC,27403-1209,United States of America,3363339393.0,hungry_howies_pizza_&_subs
2000037798,Hungry Howie's Pizza & Subs,5710 High Point Rd,GREENSBORO,NC,27407,United States of America,3363333340.0,hungry_howies_pizza_&_subs
1000867102,CiCi's Pizza,4648 W Market St,GREENSBORO,NC,27407-1285,United States of America,3362974008.0,cicis_pizza
1000877309,CiCi's Pizza,683 Cary Towne Blvd,CARY,NC,27511-4200,United States of America,9194699988.0,cicis_pizza
1000885309,CiCi's Pizza,905 Town Centre Blvd,CLAYTON,NC,27520-2181,United States of America,9193590175.0,cicis_pizza
2000046239,Donatos Pizza,610 Jetton St,DAVIDSON,NC,28036-9319,United States of America,7044394777.0,donatos_pizza
1000834442,CiCi's Pizza,14205 Reese Blvd,HUNTERSVILLE,NC,28078,United States of America,7049921661.0,cicis_pizza
2000046238,Donatos Pizza,10109 Northcross Center Ct,HUNTERSVILLE,NC,28078,United States of America,7047661500.0,donatos_pizza
2000046316,Donatos Pizza,6640 Suit E Old Monroe Dr,INDIAN TRAIL,NC,28079,United States of America,7042260099.0,donatos_pizza
2000046312,Donatos Pizza,3122 Fincher Farm Rd,MATTHEWS,NC,28105-5467,United States of America,7047084727.0,donatos_pizza
2000046240,Donatos Pizza,119 Morrison Plantation Pkwy,MOORESVILLE,NC,28117-8238,United States of America,7047997000.0,donatos_pizza
2000046340,Donatos Pizza,1526 Providence Rd S,WAXHAW,NC,28173-7035,United States of America,7042431400.0,donatos_pizza
2000046241,Donatos Pizza,718 W Trade St,CHARLOTTE,NC,28202,United States of America,7047144743.0,donatos_pizza
1000850028,Fox's Pizza Den,249 Mt Holly Huntersville Rd,CHARLOTTE,NC,28214,United States of America,7048226263.0,foxs_pizza_den
2000001184,Fox's Pizza Den,249 Huntersville Rd,MOUNT HOLLY,NC,28214,United States of America,7048226263.0,foxs_pizza_den
2000046313,Donatos Pizza,8912 Pineville Matthews Rd,CHARLOTTE,NC,28226,United States of America,7045425280.0,donatos_pizza
2000046242,Donatos Pizza,3130 Driwood Ct,CHARLOTTE,NC,28269-8414,United States of America,7046886400.0,donatos_pizza
2000046311,Donatos Pizza,10020 Monroe Road,CHARLOTTE,NC,28270,United States of America,7047084770.0,donatos_pizza
1000867799,Godfather's Pizza,4802 Reilly Rd,FORT BRAGG,NC,28307,United States of America,9104970419.0,godfathers_pizza
1000861557,CiCi's Pizza,3811 Ramsey St,FAYETTEVILLE,NC,28311-7640,United States of America,9103234000.0,cicis_pizza
2000195598,Godfather's Pizza,1930 N Poplar St,SOUTHERN PINES,NC,28387,United States of America,9102462221.0,godfathers_pizza
2000046243,Donatos Pizza,958 2nd St NE,HICKORY,NC,28601-3842,United States of America,8284852006.0,donatos_pizza
1000914644,Pizza Pro,201 Main St N,BETHUNE,SC,29009-9726,United States of America,8433346259.0,pizza_pro
1000895253,South Philly Steaks & Fries,205 W Blackstock Rd,SPARTANBURG,SC,29301-3201,United States of America,8645871057.0,south_philly_steaks_&_fries
2000183183,Papa John's Pizza,1479 Tobias Gadson Blvd,CHARLESTON,SC,29407-4794,United States of America,8434020710.0,papa_johns_pizza
2000046314,Donatos Pizza,9931 Charlotte Hwy,INDIAN LAND,SC,29707-7134,United States of America,8035471104.0,donatos_pizza
2000046315,Donatos Pizza,1143 Stonecrest Blvd,FORT MILL,SC,29708-6558,United States of America,8035789001.0,donatos_pizza
2000046330,Donatos Pizza,305 Herlong Ave,ROCK HILL,SC,29732-3269,United States of America,8039819111.0,donatos_pizza
1000857782,CiCi's Pizza,3255 Lawrenceville Suwanee Rd,SUWANEE,GA,30024-6575,United States of America,6784829117.0,cicis_pizza
1000876385,CiCi's Pizza,655 Atlanta Rd,CUMMING,GA,30040-2770,United States of America,7708860055.0,cicis_pizza
2000144455,Fox's Pizza Den,4743 Atlanta Hwy,LOGANVILLE,GA,30052-2686,United States of America,7704663626.0,foxs_pizza_den
1000830021,CiCi's Pizza,12186 Highway 92,WOODSTOCK,GA,30188-5106,United States of America,7705926885.0,cicis_pizza
1000958291,Papa John's Pizza,584 Crosstown Dr,PEACHTREE CITY,GA,30269-2916,United States of America,7784879779.0,papa_johns_pizza
1000902278,Villa Pizza,50 Lower Alabama St SW,ATLANTA,GA,30303-7604,United States of America,4045840102.0,villa_pizza
2000183003,Papa John's Pizza,302 E 1st St,VIDALIA,GA,30474-4628,United States of America,9125388787.0,papa_johns_pizza
1000850199,CiCi's Pizza,250 John W Morrow Jr Pkwy,GAINESVILLE,GA,30501,United States of America,7705349400.0,cicis_pizza
2000144453,Fox's Pizza Den,1850 Epps Bridge Pkwy,ATHENS,GA,30606-6105,United States of America,7068507240.0,foxs_pizza_den
1000928040,Papa John's Pizza,100 N Houston Lake Blvd,CENTERVILLE,GA,31028-1718,United States of America,4789539538.0,papa_johns_pizza
2000030800,Pizza Hut,5667 GA Highway 21 S,RINCON,GA,31326-9416,United States of America,,pizza_hut
1000890431,Hungry Howie's Pizza & Subs,118 Northside Dr,VALDOSTA,GA,31602-1747,United States of America,2292426936.0,hungry_howies_pizza_&_subs
2000183588,Marco's Pizza,704 W 4th St,ADEL,GA,31620,United States of America,,marcos_pizza
1000892575,Hungry Howie's Pizza & Subs,15028 US Highway 19 S,THOMASVILLE,GA,31757-4819,United States of America,2292275700.0,hungry_howies_pizza_&_subs
1000878304,Fox's Pizza Den,7042 Moon Rd,COLUMBUS,GA,31909-4970,United States of America,7066538500.0,foxs_pizza_den
1000865527,Fox's Pizza Den,4360 Palm Valley Rd,PONTE VEDRA BEACH,FL,32082-3835,United States of America,9042851292.0,foxs_pizza_den
1000900645,Hungry Howie's Pizza & Subs,4010 US Highway 1 S,SAINT AUGUSTINE,FL,32086-4702,United States of America,9047941091.0,hungry_howies_pizza_&_subs
1000901005,Hungry Howie's Pizza & Subs,4162 Herschel St,JACKSONVILLE,FL,32210-2244,United States of America,9043840092.0,hungry_howies_pizza_&_subs
1000932478,Papa John's Pizza,843 N Tyndall Pkwy,CALLAWAY,FL,32404,United States of America,8507694545.0,papa_johns_pizza
1000869657,CiCi's Pizza,5070 Highway 90,PACE,FL,32571-1504,United States of America,8509943993.0,cicis_pizza
1000834086,Godfather's Pizza,1405 NW 23rd Ave,GAINESVILLE,FL,32605-3016,United States of America,3523770000.0,godfathers_pizza
1000890319,Hungry Howie's Pizza & Subs,2800 NW 11th Dr,CHIEFLAND,FL,32626,United States of America,3524934934.0,hungry_howies_pizza_&_subs
2000023831,Hungry Howie's Pizza & Subs,16340 SE Highway 19,CROSS CITY,FL,32628-3560,United States of America,3524980498.0,hungry_howies_pizza_&_subs
1000873206,CiCi's Pizza,5864 Red Bug Lake Rd,WINTER SPRINGS,FL,32708-5011,United States of America,4076953555.0,cicis_pizza
1000907709,Hungry Howie's Pizza & Subs,968 W State Road 434,LONGWOOD,FL,32750,United States of America,3212506666.0,hungry_howies_pizza_&_subs
1000828281,CiCi's Pizza,1155 W State Road 434,LONGWOOD,FL,32750-4965,United States of America,4073392424.0,cicis_pizza
1000952081,Papa John's Pizza,4000 Central Florida Blvd,ORLANDO,FL,32816-8005,United States of America,4073815500.0,papa_johns_pizza
1000883867,CiCi's Pizza,8586 Palm Pkwy,ORLANDO,FL,32836-6432,United States of America,4072387711.0,cicis_pizza
1000896872,Villa Pizza,250 E Palm Dr,FLORIDA CITY,FL,33034,United States of America,3052472515.0,villa_pizza
2000060504,Vocelli Pizza,4618 N University Dr,CORAL SPRINGS,FL,33067-4601,United States of America,9543447742.0,vocelli_pizza
1000970333,Green Leaf's Grill,9469 W Atlantic Blvd,CORAL SPRINGS,FL,33071-6945,United States of America,9543457448.0,green_leafs_grill
1000836065,Godfather's Pizza,1508 79th Street Cswy,NORTH BAY VLG,FL,33141-4131,United States of America,3058683747.0,godfathers_pizza
1000892335,Villa Pizza,1455 NW 107th Ave,DORAL,FL,33172-2715,United States of America,3054366618.0,villa_pizza
2000159900,Hungry Howie's Pizza & Subs,4370 N Federal Hwy,FORT LAUDERDALE,FL,33308-5208,United States of America,9544938885.0,hungry_howies_pizza_&_subs
2000060593,Vocelli Pizza,123 Weston Rd,WESTON,FL,33326-1111,United States of America,9546599661.0,vocelli_pizza
2000183002,Papa John's Pizza,216 US Highway 1,WEST PALM BEACH,FL,33403-3552,United States of America,5618444689.0,papa_johns_pizza
1000903721,Villa Fresh Italian Kitchen,6000 Glades Rd,BOCA RATON,FL,33431,United States of America,5613470704.0,villa_fresh_italian_kitchen
1000890107,Hungry Howie's Pizza & Subs,113 N Francisco St,CLEWISTON,FL,33440,United States of America,8639831116.0,hungry_howies_pizza_&_subs
2000134448,Pizza Pro,,GUY,AR,33570,United States of America,,pizza_pro
2000134450,Pizza Pro,1204 Salem Rd,SALEM,AR,33570,United States of America,,pizza_pro
2000134459,Pizza Pro,4888 Hwy 367,MORO,AR,33570,United States of America,,pizza_pro
2000134460,Pizza Pro,5th & Church St,ATKINS,AR,33570,United States of America,,pizza_pro
2000134486,Pizza Pro,535 Goddard Ave,IGNACIO,CO,33570,United States of America,,pizza_pro
2000134521,Pizza Pro,317 N Main St,RUSKIN,FL,33570,United States of America,,pizza_pro
2000134522,Pizza Pro,400 S Van Horn Dr,VAN HORN,TX,33570,United States of America,,pizza_pro
2000003101,CiCi's Pizza,12883 Citrus Park Dr,TAMPA,FL,33625,United States of America,8137929600.0,cicis_pizza
1000886302,Godfather's Pizza,9355 4th St N,SAINT PETERSBURG,FL,33702-3133,United States of America,7272179104.0,godfathers_pizza
2000182557,Sbarro,2269 Tyrone Sq,ST PETERSBURG,FL,33710-3950,United States of America,7273849166.0,sbarro
1000849690,CiCi's Pizza,2440 State Road 580,CLEARWATER,FL,33761-2900,United States of America,7277257200.0,cicis_pizza
1000895640,Hungry Howie's Pizza & Subs,5211 US Highway 17 N,BOWLING GREEN,FL,33834,United States of America,8633753199.0,hungry_howies_pizza_&_subs
1000890830,Hungry Howie's Pizza & Subs,12205 S Cleveland Ave,FORT MYERS,FL,33907-3746,United States of America,2399397787.0,hungry_howies_pizza_&_subs
1000885634,CiCi's Pizza,9131 College Pkwy,FORT MYERS,FL,33919-4827,United States of America,2392676543.0,cicis_pizza
1000843820,CiCi's Pizza,20041 S Tamiami Trl,ESTERO,FL,33928-2115,United States of America,2394985202.0,cicis_pizza
1000890093,Hungry Howie's Pizza & Subs,1127 Del Prado Blvd S,CAPE CORAL,FL,33990,United States of America,2395738222.0,hungry_howies_pizza_&_subs
2000155309,Jet's Pizza,3666 Tamiami Trl N,NAPLES,FL,34103-3711,United States of America,,jets_pizza
1000947694,Sbarro,303 301 Blvd W,BRADENTON,FL,34205,United States of America,9417508861.0,sbarro
1000964239,Sbarro,8201 S Tamiami Trl,SARASOTA,FL,34238,United States of America,9419237487.0,sbarro
1000890177,Hungry Howie's Pizza & Subs,11371 N Williams St,DUNNELLON,FL,34432-8362,United States of America,3524895661.0,hungry_howies_pizza_&_subs
2000037364,Hungry Howie's Pizza & Subs,1650 Highway 41 N,INVERNESS,FL,34450-2409,United States of America,3523076107.0,hungry_howies_pizza_&_subs
1000861832,Godfather's Pizza,38611 US Highway 19 N,TARPON SPRINGS,FL,34689-9406,United States of America,7279426678.0,godfathers_pizza
1000857874,Godfather's Pizza,3270 Vineland Rd,KISSIMMEE,FL,34746-4893,United States of America,4073909362.0,godfathers_pizza
1000911235,Pizza Pro,131 Ace Pl,HELENA,AL,35080-7150,United States of America,2056211776.0,pizza_pro
2000182945,Papa John's Pizza,2829 18th St S,HOMEWOOD,AL,35209-2509,United States of America,2058717272.0,papa_johns_pizza
2000195565,Godfather's Pizza,4480 County Road 44,LEESBURG,AL,35983-4818,United States of America,2565267492.0,godfathers_pizza
2000147050,Hungry Howie's Pizza & Subs,27955 Us Highway 98,DAPHNE,AL,36526-4727,United States of America,2516213866.0,hungry_howies_pizza_&_subs
1000896299,Hungry Howie's Pizza & Subs,2302 Saint Stephens Rd,MOBILE,AL,36617-3615,United States of America,2514709905.0,hungry_howies_pizza_&_subs
1000880348,CiCi's Pizza,76 Dover Crossing Rd,CLARKSVILLE,TN,37042-4111,United States of America,9319052424.0,cicis_pizza
1000854115,Fox's Pizza Den,2910 S Church St,MURFREESBORO,TN,37127-7149,United States of America,6158900111.0,foxs_pizza_den
2000001198,Fox's Pizza Den,2042 Lascassas Pike,MURFREESBORO,TN,37130-2035,United States of America,6154944805.0,foxs_pizza_den
2000001199,Fox's Pizza Den,11469 Old Nashville Hwy,SMYRNA,TN,37167-3538,United States of America,6154599300.0,foxs_pizza_den
1000878037,Godfather's Pizza,701 Dickerson Pike,NASHVILLE,TN,37207-5610,United States of America,6152548328.0,godfathers_pizza
1000843063,CiCi's Pizza,198 Marketplace Dr,JOHNSON CITY,TN,37604-8935,United States of America,4232822115.0,cicis_pizza
1000821934,Pizza Hut,Townsend Sq,TOWNSEND,TN,37882,United States of America,8654486676.0,pizza_hut
2000200070,Papa Murphy's Take 'N' Bake Pizza,4801 Kingston Pike,KNOXVILLE,TN,37919-5110,United States of America,8659099920.0,papa_murphys_take_n_bake_pizza
1000880586,Fox's Pizza Den,7664 S Northshore Dr,KNOXVILLE,TN,37919-8003,United States of America,8655395393.0,foxs_pizza_den
1000954053,Sbarro,4465 Poplar Ave,MEMPHIS,TN,38117-3768,United States of America,9017669805.0,sbarro
1000857848,Chuck E. Cheese's,3268 Austin Peay Hwy,MEMPHIS,TN,38128-6502,United States of America,9013860072.0,chuck_e_cheeses
2000003063,Pizza Pro,6755 E Shelby Dr,MEMPHIS,TN,38141-7846,United States of America,9013699900.0,pizza_pro
1000829454,CiCi's Pizza,1202 S James Campbell Blvd,COLUMBIA,TN,38401,United States of America,9313816485.0,cicis_pizza
1000862552,D'Angelo Grilled Sandwiches,4 Plaistow Rd,PLAISTOW,NH,3865,United States of America,6033825033.0,dangelo_grilled_sandwiches
1000910283,Pizza Pro,119 Highway 6 W,TUPELO,MS,38801-7894,United States of America,6628426226.0,pizza_pro
2000183094,Papa John's Pizza,135 Highway 61 S,NATCHEZ,MS,39120-5216,United States of America,6014458500.0,papa_johns_pizza
1000896323,Hungry Howie's Pizza & Subs,2309 Pass Rd,GULFPORT,MS,39501-4908,United States of America,2288634343.0,hungry_howies_pizza_&_subs
1000827494,CiCi's Pizza,11240 Highway 49,GULFPORT,MS,39503-4132,United States of America,2285393302.0,cicis_pizza
1000887845,Godfather's Pizza,2013 Eisenhower Ave,FORT KNOX,KY,40121,United States of America,5029427485.0,godfathers_pizza
1000906820,Hungry Howie's Pizza & Subs,865 S Dixie Blvd,RADCLIFF,KY,40160-1232,United States of America,2703510909.0,hungry_howies_pizza_&_subs
1000955804,Sbarro,5000 Shelbyville Rd,LOUISVILLE,KY,40207-3386,United States of America,5028973944.0,sbarro
2000183054,Papa John's Pizza,158 Appalachian Plz,SOUTH WILLIAMSON,KY,41503,United States of America,6062371010.0,papa_johns_pizza
1000902572,Villa Pizza,5101 Hinkleville Rd,PADUCAH,KY,42001-9067,United States of America,2704159459.0,villa_pizza
1000852297,Godfather's Pizza,2701 Fort Campbell Blvd,HOPKINSVILLE,KY,42240-4940,United States of America,2708870909.0,godfathers_pizza
1000945174,Papa John's Pizza,26 S Green St,HENDERSON,KY,42420-3537,United States of America,2708264444.0,papa_johns_pizza
1000878321,CiCi's Pizza,7048 Perimeter Loop Rd,DUBLIN,OH,43016,United States of America,6143369975.0,cicis_pizza
1000878780,CiCi's Pizza,714 N State St,WESTERVILLE,OH,43082-9084,United States of America,6149013346.0,cicis_pizza
1000934930,Papa John's Pizza,1420 Circleville Plaza Dr,CIRCLEVILLE,OH,43113-2269,United States of America,7404773000.0,papa_johns_pizza
1000898104,Hungry Howie's Pizza & Subs,1428 N High St,COLUMBUS,OH,43201-2405,United States of America,6147849999.0,hungry_howies_pizza_&_subs
1000949143,Papa John's Pizza,33 E Hudson St,COLUMBUS,OH,43202-2609,United States of America,6147841919.0,papa_johns_pizza
1000901683,Hungry Howie's Pizza & Subs,4541 E Main St,WHITEHALL,OH,43213-3038,United States of America,6142396666.0,hungry_howies_pizza_&_subs
1000871578,CiCi's Pizza,5432 Westpointe Plaza Dr,COLUMBUS,OH,43228-9130,United States of America,6147778930.0,cicis_pizza
1000957882,Papa John's Pizza,5656 Kathy Run Ln,COLUMBUS,OH,43229-6827,United States of America,6145231171.0,papa_johns_pizza
1000832758,CiCi's Pizza,1335 Stoneridge Dr,GAHANNA,OH,43230-8701,United States of America,6143372864.0,cicis_pizza
1000829505,Godfather's Pizza,1204 Delaware Ave,MARION,OH,43302-6420,United States of America,7403873800.0,godfathers_pizza
2000046331,Donatos Pizza,1391 Conant St,MAUMEE,OH,43537-1609,United States of America,4197944600.0,donatos_pizza
2000046270,Donatos Pizza,901 N Leavitt Rd,AMHERST,OH,44001-1136,United States of America,4409895800.0,donatos_pizza
2000046271,Donatos Pizza,32950 Walker Rd,AVON LAKE,OH,44012-1437,United States of America,4409335447.0,donatos_pizza
2000046308,Donatos Pizza,6655 Center St,MENTOR,OH,44060-4113,United States of America,4402052101.0,donatos_pizza
2000046269,Donatos Pizza,26170 Lorain Rd,NORTH OLMSTED,OH,44070,United States of America,4406860000.0,donatos_pizza
2000046216,Donatos Pizza,8940 Wilcox Dr,TWINSBURG,OH,44087-1945,United States of America,3309630081.0,donatos_pizza
2000046268,Donatos Pizza,21805 Center Ridge Rd,ROCKY RIVER,OH,44116-3920,United States of America,4403567102.0,donatos_pizza
2000046245,Donatos Pizza,2245 Lee Rd,CLEVELAND HEIGHTS,OH,44118-3435,United States of America,2169201111.0,donatos_pizza
2000046267,Donatos Pizza,5217 Mayfield Rd,LYNDHURST,OH,44124-2407,United States of America,4406843333.0,donatos_pizza
2000046218,Donatos Pizza,10300 W Sprague Rd,PARMA,OH,44130-7588,United States of America,4408854811.0,donatos_pizza
1000894203,Hungry Howie's Pizza & Subs,1832 Pearl Rd,BRUNSWICK,OH,44212-3252,United States of America,3302251616.0,hungry_howies_pizza_&_subs
1000901032,Hungry Howie's Pizza & Subs,4180 Kent Rd,STOW,OH,44224-4344,United States of America,3306882712.0,hungry_howies_pizza_&_subs
2000046217,Donatos Pizza,960 Court St,MEDINA,OH,44256,United States of America,3307210066.0,donatos_pizza
2000046210,Donatos Pizza,594 South Ave,TALLMADGE,OH,44278-2826,United States of America,3306304361.0,donatos_pizza
1000948554,Papa John's Pizza,3175 Belmont Ave,YOUNGSTOWN,OH,44505-1839,United States of America,3307595500.0,papa_johns_pizza
1000934452,Papa John's Pizza,1393 Boardman Canfield Rd,YOUNGSTOWN,OH,44512,United States of America,3307584333.0,papa_johns_pizza
2000046213,Donatos Pizza,4898 Portage St NW,NORTH CANTON,OH,44720-7247,United States of America,3304997877.0,donatos_pizza
1000902099,Hungry Howie's Pizza & Subs,4887 Portage St NW,NORTH CANTON,OH,44720-8422,United States of America,3303051318.0,hungry_howies_pizza_&_subs
2000046182,Donatos Pizza,85 Amberwood Pkwy,ASHLAND,OH,44805,United States of America,4192891951.0,donatos_pizza
1000929730,Papa John's Pizza,10701 Harrison Ave,HARRISON,OH,45030-1297,United States of America,5132021888.0,papa_johns_pizza
2000033341,Papa Murphy's Take 'N' Bake Pizza,6647 S State Route 48,MAINEVILLE,OH,45039-9758,United States of America,5135838500.0,papa_murphys_take_n_bake_pizza
2000046193,Donatos Pizza,810 Kemper Commons Cir,CINCINNATI,OH,45246,United States of America,5133463990.0,donatos_pizza
1000837525,Fox's Pizza Den,1600 W Main St,TROY,OH,45373-2895,United States of America,9373353697.0,foxs_pizza_den
1000900763,Papa Murphy's Take 'N' Bake Pizza,4052 Wilmington Pike,KETTERING,OH,45440-1604,United States of America,9372997272.0,papa_murphys_take_n_bake_pizza
1000894620,Papa Murphy's Take 'N' Bake Pizza,1930 N Bechtle Ave,SPRINGFIELD,OH,45504-1590,United States of America,9376290000.0,papa_murphys_take_n_bake_pizza
1000958956,Papa John's Pizza,602 Park Ave,IRONTON,OH,45638-1541,United States of America,7405341002.0,papa_johns_pizza
1000896102,Hungry Howie's Pizza & Subs,235 W Union St,ATHENS,OH,45701-2380,United States of America,7405944694.0,hungry_howies_pizza_&_subs
2000183620,Marco's Pizza,231 Elida Rd,DELPHOS,OH,45833-9174,United States of America,4196929999.0,marcos_pizza
1000959859,Papa John's Pizza,635 W Ervin Rd,VAN WERT,OH,45891-2418,United States of America,4192326688.0,papa_johns_pizza
2000046289,Donatos Pizza,7126 E 116th St,FISHERS,IN,46038-1729,United States of America,3175787050.0,donatos_pizza
2000136228,Marco's Pizza,13875 Trade Center Dr,FISHERS,IN,46038-4547,United States of America,3177709200.0,marcos_pizza
2000046291,Donatos Pizza,17423 Carey Rd,WESTFIELD,IN,46074-9439,United States of America,3178961720.0,donatos_pizza
2000195554,Godfather's Pizza,11700 N US Highway 31,EDINBURGH,IN,46124-9000,United States of America,8125269002.0,godfathers_pizza
2000195553,Godfather's Pizza,410 N Monroe St,MOORESVILLE,IN,46158-1582,United States of America,3178348090.0,godfathers_pizza
2000241898,Marco's Pizza,7301 W 10th St,INDIANAPOLIS,IN,46214,United States of America,3172099158.0,marcos_pizza
2000046176,Donatos Pizza,985 N Arlington Ave,INDIANAPOLIS,IN,46219-4510,United States of America,3173512000.0,donatos_pizza
2000046178,Donatos Pizza,3530 Mann Rd,INDIANAPOLIS,IN,46221-2338,United States of America,3172277626.0,donatos_pizza
2000195555,Godfather's Pizza,5389 Rockville Rd,INDIANAPOLIS,IN,46224-9137,United States of America,3172470209.0,godfathers_pizza
2000046293,Donatos Pizza,1305 E 86th St,INDIANAPOLIS,IN,46240-1909,United States of America,3172518300.0,donatos_pizza
1000858571,Godfather's Pizza,336 Dunes Plz,MICHIGAN CITY,IN,46360-7342,United States of America,2198745288.0,godfathers_pizza
2000144458,Fox's Pizza Den,2596 Portage Mall,PORTAGE,IN,46368-3006,United States of America,2197643699.0,foxs_pizza_den
1000898771,Papa Murphy's Take 'N' Bake Pizza,316 W Cleveland Rd,GRANGER,IN,46530-7003,United States of America,5742720072.0,papa_murphys_take_n_bake_pizza
1000810820,Pizza Hut,209 E Ireland Rd,SOUTH BEND,IN,46614-2653,United States of America,,pizza_hut
1000932187,Papa John's Pizza,121 W North St,KENDALLVILLE,IN,46755-1131,United States of America,2609277272.0,papa_johns_pizza
2000015177,Papa Murphy's Take 'N' Bake Pizza,4222 Bell Rd,NEWBURGH,IN,47630-2541,United States of America,8128537272.0,papa_murphys_take_n_bake_pizza
1000872391,CiCi's Pizza,5625 Pearl Dr,EVANSVILLE,IN,47712-8106,United States of America,8129620034.0,cicis_pizza
2000049241,Jet's Pizza,515 S Parker St,MARINE CITY,MI,48039,United States of America,8107650760.0,jets_pizza
1000895729,Hungry Howie's Pizza & Subs,2145 W Stadium Blvd,ANN ARBOR,MI,48103-4543,United States of America,7349945464.0,hungry_howies_pizza_&_subs
1000902900,Villa Pizza,530 S State St,ANN ARBOR,MI,48109-1308,United States of America,7346228233.0,villa_pizza
2000183610,Marco's Pizza,2041 Middlebelt Rd,GARDEN CITY,MI,48135-2819,United States of America,7349565627.0,marcos_pizza
1000969263,Hungry Howie's Pizza & Subs,2614 Washtenaw Rd,YPSILANTI,MI,48197-1505,United States of America,7344341010.0,hungry_howies_pizza_&_subs
1000899090,Hungry Howie's Pizza & Subs,3290 South Blvd,BLOOMFIELD HILLS,MI,48304-1154,United States of America,2488524300.0,hungry_howies_pizza_&_subs
1000928455,Papa John's Pizza,1009 E Grand River Ave,HOWELL,MI,48843-1717,United States of America,5175407272.0,papa_johns_pizza
1000900743,Hungry Howie's Pizza & Subs,405 E Main St,OWOSSO,MI,48867-3138,United States of America,9897290999.0,hungry_howies_pizza_&_subs
1000891587,Hungry Howie's Pizza & Subs,1328 E Grand River Ave,PORTLAND,MI,48875-1630,United States of America,5176476020.0,hungry_howies_pizza_&_subs
2000051307,Marco's Pizza,4801 W Saginaw Hwy,LANSING,MI,48917-2623,United States of America,5173233311.0,marcos_pizza
1000901832,Hungry Howie's Pizza & Subs,4669 Alpine Ave NW,COMSTOCK PARK,MI,49321,United States of America,6166470500.0,hungry_howies_pizza_&_subs
1000962693,Papa John's Pizza,7509 Cottonwood Dr,JENISON,MI,49428-8355,United States of America,6166677272.0,papa_johns_pizza
1000894659,Hungry Howie's Pizza & Subs,1941 N Mitchell St,CADILLAC,MI,49601-1139,United States of America,2317797000.0,hungry_howies_pizza_&_subs
1000902562,Hungry Howie's Pizza & Subs,510 W 14th St,TRAVERSE CITY,MI,49684-4051,United States of America,2319297976.0,hungry_howies_pizza_&_subs
1000896188,Hungry Howie's Pizza & Subs,2261 US Highway 23 S,ALPENA,MI,49707-4565,United States of America,9893581040.0,hungry_howies_pizza_&_subs
1000882537,Godfather's Pizza,816 Greene St,ADEL,IA,50003-1744,United States of America,5159933406.0,godfathers_pizza
2000002269,Godfather's Pizza,419 Lincoln Way,AMES,IA,50010-3319,United States of America,5152320046.0,godfathers_pizza
2000195574,Godfather's Pizza,1328 S Marshall St,BOONE,IA,50036-5307,United States of America,5154321200.0,godfathers_pizza
1000843516,Godfather's Pizza,200 S Jefferson Way,INDIANOLA,IA,50125-2643,United States of America,5159618801.0,godfathers_pizza
1000835964,Godfather's Pizza,1504 N Lincoln St,KNOXVILLE,IA,50138-3427,United States of America,6418288866.0,godfathers_pizza
2000195527,Godfather's Pizza,50 Lafrentz,MARSHALLTOWN,IA,50158,United States of America,6417524444.0,godfathers_pizza
1000823369,Godfather's Pizza,1009 N 1st St,WINTERSET,IA,50273-1286,United States of America,5154629441.0,godfathers_pizza
2000057219,The Pizza Ranch,210 W Main St,LAKE MILLS,IA,50450-1406,United States of America,6415923400.0,the_pizza_ranch
1000888025,Godfather's Pizza,1323 Highway 169 N,ALGONA,IA,50511-1006,United States of America,5152953507.0,godfathers_pizza
2000002278,Godfather's Pizza,211 Highway 10,LAURENS,IA,50554-1305,United States of America,7128412274.0,godfathers_pizza
1000824169,Godfather's Pizza,1016 W Bremer Ave,WAVERLY,IA,50677-2931,United States of America,3193526626.0,godfathers_pizza
1000842723,Godfather's Pizza,1946 Schukei Rd,WATERLOO,IA,50702-4347,United States of America,3192333000.0,godfathers_pizza
1000823583,Godfather's Pizza,101 Sergeant Square Dr,SERGEANT BLUFF,IA,51054-8538,United States of America,7129431200.0,godfathers_pizza
1000904909,Papa Murphy's Take 'N' Bake Pizza,700 11th St SW,SPENCER,IA,51301-5563,United States of America,7125807282.0,papa_murphys_take_n_bake_pizza
1000850443,Godfather's Pizza,2506 4th Ave S,DENISON,IA,51442-2307,United States of America,7122639313.0,godfathers_pizza
1000858755,Godfather's Pizza,34 Pearl St,COUNCIL BLUFFS,IA,51503-0817,United States of America,7123289566.0,godfathers_pizza
1000871054,Godfather's Pizza,531 Highway 1 W,IOWA CITY,IA,52246-4217,United States of America,3193543312.0,godfathers_pizza
1000838964,Chuck E. Cheese's,170 Collins Rd NE,CEDAR RAPIDS,IA,52402-3229,United States of America,3193731228.0,chuck_e_cheeses
1000848308,CiCi's Pizza,2315 Edgewood Rd SW,CEDAR RAPIDS,IA,52404-3391,United States of America,3193966666.0,cicis_pizza
2000057222,The Pizza Ranch,1005 N 18th St,CENTERVILLE,IA,52544,United States of America,6418563430.0,the_pizza_ranch
1000841289,Godfather's Pizza,1841 Lincoln Way,CLINTON,IA,52732-7014,United States of America,5632426020.0,godfathers_pizza
2000195539,Godfather's Pizza,1101 N Columbus St,WEST LIBERTY,IA,52776-1004,United States of America,3196273714.0,godfathers_pizza
1000812760,Pizza Hut,2727 S Business Dr,SHEBOYGAN,WI,53081-6515,United States of America,,pizza_hut
1000897590,Villa Fresh Italian Kitchen,275 W Wisconsin Ave,MILWAUKEE,WI,53203-3312,United States of America,4142246410.0,villa_fresh_italian_kitchen
2000030863,Pizza Hut,719 E Hwy 14,RICHLAND CENTER,WI,53581,United States of America,,pizza_hut
2000195560,Godfather's Pizza,421 State Highway 73,NEKOOSA,WI,54457-8202,United States of America,7158187080.0,godfathers_pizza
1000835572,Godfather's Pizza,14983 County Hwy S,CHIPPEWA FALLS,WI,54729-5198,United States of America,7157236757.0,godfathers_pizza
1000853235,Godfather's Pizza,2802 Banks Ave,SUPERIOR,WI,54880-5354,United States of America,7153924753.0,godfathers_pizza
2000037374,Hungry Howie's Pizza & Subs,3414 W College Ave,APPLETON,WI,54914-3918,United States of America,9208302007.0,hungry_howies_pizza_&_subs
1000930946,Papa John's Pizza,1130 S Commercial St,NEENAH,WI,54956-4153,United States of America,9207205646.0,papa_johns_pizza
1000898417,Papa Murphy's Take 'N' Bake Pizza,9034 Cahill Ave,INVER GROVE HEIGHTS,MN,55076-3543,United States of America,6515521300.0,papa_murphys_take_n_bake_pizza
2000200012,Papa Murphy's Take 'N' Bake Pizza,119 Village Center Dr,NORTH OAKS,MN,55127-3007,United States of America,6514261310.0,papa_murphys_take_n_bake_pizza
1000931153,Papa John's Pizza,11456 Marketplace Dr N,CHAMPLIN,MN,55316,United States of America,7637129000.0,papa_johns_pizza
1000830749,Godfather's Pizza,12490 Champlin Dr,CHAMPLIN,MN,55316-1905,United States of America,7637121995.0,godfathers_pizza
1000830838,Godfather's Pizza,125 Woodland Rd,DELANO,MN,55328,United States of America,7639726807.0,godfathers_pizza
2000057156,The Pizza Ranch,1338 Babcock Blvd E,DELANO,MN,55328-2809,United States of America,7639725992.0,the_pizza_ranch
2000057272,The Pizza Ranch,2408 9th St E,GLENCOE,MN,55336-3352,United States of America,3208645321.0,the_pizza_ranch
1000879241,Godfather's Pizza,725 Baltimore Ave SW,HUTCHINSON,MN,55350-3753,United States of America,3205872864.0,godfathers_pizza
2000041133,California Pizza Kitchen,12489 Elm Creek Blvd N,MAPLE GROVE,MN,55369-7091,United States of America,7634244890.0,california_pizza_kitchen
2000057157,The Pizza Ranch,224 W 1st St,WACONIA,MN,55387-1301,United States of America,9524423321.0,the_pizza_ranch
1000881996,Godfather's Pizza,8040 Highway 55,GOLDEN VALLEY,MN,55427-4712,United States of America,7635429780.0,godfathers_pizza
2000041168,California Pizza Kitchen,1690 Southdale Ctr,EDINA,MN,55435-7015,United States of America,9529243000.0,california_pizza_kitchen
1000963885,Papa John's Pizza,8065 Brooklyn Blvd,BROOKLYN PARK,MN,55445-2406,United States of America,7633917978.0,papa_johns_pizza
2000030477,Pizza Hut,1504 13th St S,VIRGINIA,MN,55792-3365,United States of America,,pizza_hut
1000885395,Godfather's Pizza,909 37th St NW,ROCHESTER,MN,55901-1330,United States of America,5072876535.0,godfathers_pizza
1000836399,Godfather's Pizza,1521 Tullamore St,MANKATO,MN,56001-4816,United States of America,5073887765.0,godfathers_pizza
1000828243,Godfather's Pizza,1153 Highway 15 S,FAIRMONT,MN,56031-4460,United States of America,5072384337.0,godfathers_pizza
2000057186,The Pizza Ranch,950 Main St,EDGERTON,MN,56128-1272,United States of America,5074423811.0,the_pizza_ranch
2000057278,The Pizza Ranch,114 9th St S,OLIVIA,MN,56277-1328,United States of America,3205232270.0,the_pizza_ranch
2000057211,The Pizza Ranch,205 2nd St NW,ORTONVILLE,MN,56278-1410,United States of America,3208393006.0,the_pizza_ranch
1000852547,Godfather's Pizza,27th Ave S & W Division St,SAINT CLOUD,MN,56301,United States of America,3202537441.0,godfathers_pizza
1000835857,Godfather's Pizza,1501 Northway Dr,SAINT CLOUD,MN,56303,United States of America,3202583446.0,godfathers_pizza
1000821779,Pizza Hut,Hwy 59 S,THIEF RIVER FALLS,MN,56701,United States of America,2186811306.0,pizza_hut
1000856805,Godfather's Pizza,315 Willow St,HARRISBURG,SD,57032,United States of America,6057671527.0,godfathers_pizza
2000195511,Godfather's Pizza,Interstate 29 & Highway 50,VERMILLION,SD,57069,United States of America,6056242062.0,godfathers_pizza
1000827436,Fox's Pizza Den,1122 E Cherry St,VERMILLION,SD,57069-1631,United States of America,6056249100.0,foxs_pizza_den
1000848504,Godfather's Pizza,2331 E 10th St,SIOUX FALLS,SD,57103-1914,United States of America,6053385225.0,godfathers_pizza
1000900579,Villa Pizza,4001 W 41St St,SIOUX FALLS,SD,57106,United States of America,6053625989.0,villa_pizza
1000946497,Papa John's Pizza,2825 1st Ave,SPEARFISH,SD,57783-3261,United States of America,6056427272.0,papa_johns_pizza
2000057168,The Pizza Ranch,16 Caledonia,HILLSBORO,ND,58045,United States of America,7016362325.0,the_pizza_ranch
1000872979,Godfather's Pizza,5800 Burnt Boat Dr,BISMARCK,ND,58503,United States of America,7012551770.0,godfathers_pizza
2000024052,Papa John's Pizza,400 Central Street,HAZEN,ND,58545,United States of America,8883334000.0,papa_johns_pizza
2000183230,Papa John's Pizza,482 Orchard St,ANTIOCH,IL,60002-1237,United States of America,8473957272.0,papa_johns_pizza
1000944617,Papa John's Pizza,2500 Martin Luther King Jr Dr,NORTH CHICAGO,IL,60064-2330,United States of America,8477858002.0,papa_johns_pizza
1000897143,Papa Murphy's Take 'N' Bake Pizza,2587 Sycamore Rd,DEKALB,IL,60115-2092,United States of America,8157487272.0,papa_murphys_take_n_bake_pizza
1000931334,Papa John's Pizza,116 N York St,ELMHURST,IL,60126,United States of America,6305308282.0,papa_johns_pizza
1000931502,Papa John's Pizza,1175 Bloomingdale Rd,GLENDALE HEIGHTS,IL,60139-3402,United States of America,6307528888.0,papa_johns_pizza
1000929174,Papa John's Pizza,1035 W North Ave,VILLA PARK,IL,60181-1341,United States of America,6304957272.0,papa_johns_pizza
1000832817,CiCi's Pizza,1340 Butterfield Rd,DOWNERS GROVE,IL,60515-1006,United States of America,6304241520.0,cicis_pizza
2000024000,Papa John's Pizza,623 S La Grange Rd,LA GRANGE,IL,60525-6724,United States of America,7083544300.0,papa_johns_pizza
1000891667,Papa Murphy's Take 'N' Bake Pizza,13400 S Route 59,PLAINFIELD,IL,60585-5828,United States of America,8156096278.0,papa_murphys_take_n_bake_pizza
2000183025,Papa John's Pizza,5915 S Kedzie Ave,CHICAGO,IL,60629-3214,United States of America,7737787272.0,papa_johns_pizza
2000183022,Papa John's Pizza,4507 W Lawrence Ave,CHICAGO,IL,60630,United States of America,7732837272.0,papa_johns_pizza
2000183024,Papa John's Pizza,5857 S Archer Ave,CHICAGO,IL,60638-1619,United States of America,7735817272.0,papa_johns_pizza
2000183027,Papa John's Pizza,5103 W Cermak Rd,CICERO,IL,60804-2902,United States of America,7087807800.0,papa_johns_pizza
1000936970,Papa John's Pizza,1601 Harrison Ave,ROCKFORD,IL,61104-7255,United States of America,8153997272.0,papa_johns_pizza
1000890172,Papa Murphy's Take 'N' Bake Pizza,1137 N Alpine Rd,ROCKFORD,IL,61107-3613,United States of America,8153987222.0,papa_murphys_take_n_bake_pizza
1000966324,Papa John's Pizza,930 Shooting Park Rd,PERU,IL,61354-1874,United States of America,8152237700.0,papa_johns_pizza
1000837631,Fox's Pizza Den,16023 Manchester Rd,ELLISVILLE,MO,63011-2103,United States of America,6365273888.0,foxs_pizza_den
1000947524,Papa John's Pizza,301 De Baliviere Ave,SAINT LOUIS,MO,63112-1803,United States of America,3143677272.0,papa_johns_pizza
1000890310,Villa Fresh Italian Kitchen,1156 Saint Lous Galleria,SAINT LOUIS,MO,63117,United States of America,3147266644.0,villa_fresh_italian_kitchen
1000957514,Papa John's Pizza,551 W Karsch Blvd,FARMINGTON,MO,63640-3312,United States of America,5737564777.0,papa_johns_pizza
1000920148,Pizza Pro,401 1st St,MARBLE HILL,MO,63764,United States of America,5732380080.0,pizza_pro
1000899159,Papa Murphy's Take 'N' Bake Pizza,331 N Main St,SIKESTON,MO,63801-2170,United States of America,5734719992.0,papa_murphys_take_n_bake_pizza
1000878339,Godfather's Pizza,705 NW State Route 7,BLUE SPRINGS,MO,64014,United States of America,8162295455.0,godfathers_pizza
1000871156,Chuck E. Cheese's,533 S Broad St,MERIDEN,CT,6450,United States of America,2036399909.0,chuck_e_cheeses
1000832633,Godfather's Pizza,1329 S Belt Hwy,SAINT JOSEPH,MO,64507-2228,United States of America,8162334430.0,godfathers_pizza
2000002296,Godfather's Pizza,29505 Old Highway 7,GARDEN CITY,MO,64747-8375,United States of America,8167736266.0,godfathers_pizza
1000893642,Papa Murphy's Take 'N' Bake Pizza,1715 S Madison St,WEBB CITY,MO,64870-2916,United States of America,4176730707.0,papa_murphys_take_n_bake_pizza
2000037395,Papa John's Pizza,747 S Jefferson Ave,LEBANON,MO,65536-3666,United States of America,4175888844.0,papa_johns_pizza
2000002298,Godfather's Pizza,Hwy 63 & Hwy 32,LICKING,MO,65542,United States of America,5736743324.0,godfathers_pizza
1000927514,Pizza Pro,RR 1 Box 78,MOUNTAIN GROVE,MO,65711-9523,United States of America,4179482777.0,pizza_pro
1000838824,Fox's Pizza Den,1668 US Highway 60 E,REPUBLIC,MO,65738-9483,United States of America,4177324337.0,foxs_pizza_den
1000908659,Pizza Pro,101 W US Highway 54,WEAUBLEAU,MO,65774,United States of America,4174281515.0,pizza_pro
1000927512,Pizza Pro,RR 1 Box 1069,THAYER,MO,65791-9712,United States of America,4172642669.0,pizza_pro
1000933144,Papa John's Pizza,1282 E Republic Rd,SPRINGFIELD,MO,65804-7209,United States of America,4178897272.0,papa_johns_pizza
1000965410,Papa John's Pizza,8915 Johnson Dr,MERRIAM,KS,66202-2153,United States of America,9132681515.0,papa_johns_pizza
2000241919,Marco's Pizza,7060 W 135th St,OVERLAND PARK,KS,66223-4843,United States of America,9138971600.0,marcos_pizza
1000856361,CiCi's Pizza,3109 S Seneca St,WICHITA,KS,67217-3234,United States of America,3162603360.0,cicis_pizza
1000876241,CiCi's Pizza,6505 E 37th St N,WICHITA,KS,67226-3233,United States of America,3166832559.0,cicis_pizza
2000030519,Pizza Hut,1705 N Buckeye,ABILENE,KS,67410,United States of America,,pizza_hut
2000195496,Godfather's Pizza,409 W Frontier Pkwy,OBERLIN,KS,67749-1434,United States of America,7854752609.0,godfathers_pizza
1000835959,Godfather's Pizza,1504 Galvin Rd S,BELLEVUE,NE,68005-3668,United States of America,4022925850.0,godfathers_pizza
1000826049,Godfather's Pizza,109 Rock Bluff Rd,PLATTSMOUTH,NE,68048-9289,United States of America,4022352525.0,godfathers_pizza
1000875474,Godfather's Pizza,6305 Ames Ave,OMAHA,NE,68104-2067,United States of America,4024514220.0,godfathers_pizza
1000883135,Godfather's Pizza,8320 Northwoods Dr,LINCOLN,NE,68505,United States of America,4023277000.0,godfathers_pizza
1000861053,Godfather's Pizza,3720 N 27th St,LINCOLN,NE,68521-4164,United States of America,4024767676.0,godfathers_pizza
1000948844,Papa John's Pizza,3216 W Esplanade Ave S,METAIRIE,LA,70002,United States of America,5048357400.0,papa_johns_pizza
1000940148,Papa John's Pizza,1955 Ormond Blvd,DESTREHAN,LA,70047-3814,United States of America,9857649494.0,papa_johns_pizza
1000842941,CiCi's Pizza,1963 Barataria Blvd,MARRERO,LA,70072-4225,United States of America,5043402424.0,cicis_pizza
2000200003,Papa Murphy's Take 'N' Bake Pizza,4070 Nelson Rd,LAKE CHARLES,LA,70605,United States of America,3374771977.0,papa_murphys_take_n_bake_pizza
1000952995,Papa John's Pizza,419 S Range Ave,DENHAM SPRINGS,LA,70726,United States of America,2256657272.0,papa_johns_pizza
2000015139,Papa Murphy's Take 'N' Bake Pizza,114 Airline Highway,GONZALES,LA,70737,United States of America,2256470700.0,papa_murphys_take_n_bake_pizza
2000144447,Fox's Pizza Den,6473 Highway 44,GONZALES,LA,70737,United States of America,2252646079.0,foxs_pizza_den
2000001178,Fox's Pizza Den,18564 Magnolia Bridge Rd,GREENWELL SPRINGS,LA,70739-4643,United States of America,2252613036.0,foxs_pizza_den
2000147057,Hungry Howie's Pizza & Subs,13787 Old Hammond Hwy,BATON ROUGE,LA,70816,United States of America,2252724694.0,hungry_howies_pizza_&_subs
2000147058,Hungry Howie's Pizza & Subs,14041 Coursey Blvd,BATON ROUGE,LA,70817-1312,United States of America,2257532500.0,hungry_howies_pizza_&_subs
2000023987,Papa John's Pizza,219 South Ave,WESTFIELD,NJ,7090,United States of America,9082327272.0,papa_johns_pizza
2000003049,Pizza Pro,12300 Mansfield Rd,KEITHVILLE,LA,71047-6511,United States of America,3189254770.0,pizza_pro
2000144461,Fox's Pizza Den,445 E Water St,FARMERVILLE,LA,71241-3040,United States of America,3183687770.0,foxs_pizza_den
2000183070,Papa John's Pizza,112 Blanchard St,WEST MONROE,LA,71291-7398,United States of America,3183876612.0,papa_johns_pizza
1000859101,CiCi's Pizza,3426 Cypress St,WEST MONROE,LA,71291-7905,United States of America,3183963441.0,cicis_pizza
1000918572,Pizza Pro,3220 Highway 71 S,LECOMPTE,LA,71346,United States of America,3187769004.0,pizza_pro
1000924698,Pizza Pro,7105 Highway 165,COLUMBIA,LA,71418,United States of America,3186492409.0,pizza_pro
1000913715,Pizza Pro,1800 Nolan Trce,LEESVILLE,LA,71446-3848,United States of America,3182385607.0,pizza_pro
1000912420,Pizza Pro,151 N Plum St,BEARDEN,AR,71720,United States of America,8707253599.0,pizza_pro
1000922076,Pizza Pro,506 E Main St,GURDON,AR,71743-1244,United States of America,8703535220.0,pizza_pro
1000908916,Pizza Pro,103 S Arkansas Ave,DIERKS,AR,71833,United States of America,8702862860.0,pizza_pro
1000921254,Pizza Pro,4545 N Highway 7,HOT SPRINGS VILLAGE,AR,71909-9600,United States of America,5019846141.0,pizza_pro
1000949257,Papa John's Pizza,3302 Central Ave,HOT SPRINGS,AR,71913-6139,United States of America,5016257272.0,papa_johns_pizza
2000134469,Pizza Pro,180 Valley St,CADDO VALLEY,AR,71923-9680,United States of America,,pizza_pro
1000922029,Pizza Pro,504 Highway 71 S,MENA,AR,71953-4157,United States of America,4792430055.0,pizza_pro
1000917757,Pizza Pro,300 E 13th St,MURFREESBORO,AR,71958-9541,United States of America,8702853295.0,pizza_pro
2000015161,Papa Murphy's Take 'N' Bake Pizza,2050 John Harden Dr,JACKSONVILLE,AR,72076-2731,United States of America,5019822253.0,papa_murphys_take_n_bake_pizza
2000134475,Pizza Pro,10623 Highway 89 S,LONOKE,AR,72086-8333,United States of America,,pizza_pro
2000241923,Marco's Pizza,102 N Spring St,SEARCY,AR,72143-7713,United States of America,3374240644.0,marcos_pizza
1000909458,Pizza Pro,1097 Main St,VILONIA,AR,72173,United States of America,5017962737.0,pizza_pro
2000134478,Pizza Pro,771 Highway 36,VILONIA,AR,72173-9742,United States of America,,pizza_pro
1000911837,Pizza Pro,14074 Highway 31 N,WARD,AR,72176-8892,United States of America,5018436788.0,pizza_pro
2000030430,Pizza Hut,1275 W Keiser Ave,OSCEOLA,AR,72370-2918,United States of America,,pizza_hut
1000908537,Pizza Pro,10055 Highway 62 W,VIOLA,AR,72583,United States of America,8704583048.0,pizza_pro
1000924892,Pizza Pro,728 W Main St,GASSVILLE,AR,72635-8525,United States of America,8704352100.0,pizza_pro
1000914634,Pizza Pro,201 E Court St,JASPER,AR,72641,United States of America,8704462475.0,pizza_pro
1000912831,Pizza Pro,1600 S College St,MOUNTAIN HOME,AR,72653-5326,United States of America,8705086192.0,pizza_pro
1000926198,Pizza Pro,859 Cannie Baker Rd,MOUNTAIN HOME,AR,72653-5495,United States of America,8704243620.0,pizza_pro
2000183228,Papa John's Pizza,1021 W Dickson St,FAYETTEVILLE,AR,72701,United States of America,4795758704.0,papa_johns_pizza
1000807325,Pizza Hut,1310 E Main,RUSSELLVILLE,AR,72801,United States of America,4798905555.0,pizza_hut
2000199912,Papa Murphy's Take 'N' Bake Pizza,7613 Rogers Ave,FORT SMITH,AR,72903,United States of America,4794524700.0,papa_murphys_take_n_bake_pizza
1000913765,Pizza Pro,1804 E Main St,BOONEVILLE,AR,72927,United States of America,4796753922.0,pizza_pro
1000860339,CiCi's Pizza,3604 W Owen K Garriott Rd,ENID,OK,73703-4911,United States of America,5802373000.0,cicis_pizza
1000953444,Papa John's Pizza,430 W Wekiwa,SAND SPRINGS,OK,74063,United States of America,9182457878.0,papa_johns_pizza
2000200050,Papa Murphy's Take 'N' Bake Pizza,8011 S Sheridan Rd,TULSA,OK,74133,United States of America,9189334430.0,papa_murphys_take_n_bake_pizza
1000959264,Papa John's Pizza,6105 S Mingo Rd,TULSA,OK,74133-6300,United States of America,9182527272.0,papa_johns_pizza
1000955457,Papa John's Pizza,4932 E 91st St,TULSA,OK,74137-3568,United States of America,9185237272.0,papa_johns_pizza
2000183129,Papa John's Pizza,615 State Rt 23,POMPTON PLAINS,NJ,7444,United States of America,9736167272.0,papa_johns_pizza
1000851860,CiCi's Pizza,2650 Midway Rd,CARROLLTON,TX,75006-2378,United States of America,9729310321.0,cicis_pizza
1000928846,Papa John's Pizza,102 N MacArthur Blvd,COPPELL,TX,75019-3103,United States of America,9723939998.0,papa_johns_pizza
2000200106,Papa Murphy's Take 'N' Bake Pizza,5000 Rowlett Rd,ROWLETT,TX,75088,United States of America,2142275559.0,papa_murphys_take_n_bake_pizza
1000908652,Pizza Pro,101 W Fate Main Place,FATE,TX,75132,United States of America,9727226010.0,pizza_pro
1000871528,CiCi's Pizza,5420 Lemmon Ave,DALLAS,TX,75209-6222,United States of America,2144430299.0,cicis_pizza
2000144483,Fox's Pizza Den,410 W Kiest Blvd,DALLAS,TX,75224-3404,United States of America,,foxs_pizza_den
1000888898,Hungry Howie's Pizza & Subs,1009 S Jackson St,JACKSONVILLE,TX,75766-3055,United States of America,9035890500.0,hungry_howies_pizza_&_subs
1000824412,CiCi's Pizza,1030 E Highway 377,GRANBURY,TX,76048-1457,United States of America,8175796565.0,cicis_pizza
1000955373,Papa John's Pizza,4900 Camp Bowie Blvd,FORT WORTH,TX,76107-4153,United States of America,8177388100.0,papa_johns_pizza
2000224969,Papa Murphy's Take 'N' Bake Pizza,4614 SW Loop 820,FT WORTH,TX,76109-4418,United States of America,8175707077.0,papa_murphys_take_n_bake_pizza
1000918419,Pizza Pro,319 W Highway 82,LINDSAY,TX,76250,United States of America,9406122032.0,pizza_pro
1000908647,Pizza Pro,101 Sparks St,POOLVILLE,TX,76487-1934,United States of America,8175965475.0,pizza_pro
1000958403,Papa John's Pizza,5900 Bosque Blvd,WACO,TX,76710-4386,United States of America,2547410242.0,papa_johns_pizza
1000938184,Papa John's Pizza,1717 S Valley Mills Dr,WACO,TX,76711-2114,United States of America,2547537272.0,papa_johns_pizza
2000224972,Papa Murphy's Take 'N' Bake Pizza,8588 Westheimer Rd,HOUSTON,TX,77063-4212,United States of America,7137803800.0,papa_murphys_take_n_bake_pizza
1000835165,Chuck E. Cheese's,14637 Memorial Dr,HOUSTON,TX,77079-7519,United States of America,2815317066.0,chuck_e_cheeses
1000830677,CiCi's Pizza,12430 State Highway 249,HOUSTON,TX,77086-3339,United States of America,2814058047.0,cicis_pizza
1000893973,Bananas Ultimate Juice Bar,180 State Route 35,EATONTOWN,NJ,7724,United States of America,7323801840.0,bananas_ultimate_juice_bar
2000183120,Papa John's Pizza,179 South St,FREEHOLD,NJ,7728,United States of America,7326777942.0,papa_johns_pizza
2000134524,Pizza Pro,Highway 321 & Highway 105 E,CLEVELAND,TX,77327,United States of America,2815922008.0,pizza_pro
2000196695,CiCi's Pizza,3707 College Park Dr,THE WOODLANDS,TX,77384-4866,United States of America,9362732600.0,cicis_pizza
2000134527,Pizza Pro,13179 Texas Highway 35 N,VAN VLECK,TX,77482-6509,United States of America,,pizza_pro
2000003067,Pizza Pro,42845 Hwy 105,BATSON,TX,77659,United States of America,9362628335.0,pizza_pro
1000868104,CiCi's Pizza,488 S Highway 123 Byp,SEGUIN,TX,78155-1479,United States of America,8303860678.0,cicis_pizza
2000015147,Papa Murphy's Take 'N' Bake Pizza,1346 E Court St,SEGUIN,TX,78155-5131,United States of America,8303797272.0,papa_murphys_take_n_bake_pizza
1000843774,CiCi's Pizza,2002 SE Loop 410,SAN ANTONIO,TX,78220,United States of America,2106480300.0,cicis_pizza
2000200107,Papa Murphy's Take 'N' Bake Pizza,1115 SW Military Dr,SAN ANTONIO,TX,78221,United States of America,2109247272.0,papa_murphys_take_n_bake_pizza
1000821013,Pizza Hut,9055 Marbach Rd,SAN ANTONIO,TX,78245-1830,United States of America,2107984800.0,pizza_hut
2000033331,Papa Murphy's Take 'N' Bake Pizza,5238 De Zavala Rd,SAN ANTONIO,TX,78249-1732,United States of America,2105580408.0,papa_murphys_take_n_bake_pizza
1000909209,Pizza Pro,106 Wood Ave,WOODSBORO,TX,78393,United States of America,3615434123.0,pizza_pro
1000902334,Hungry Howie's Pizza & Subs,5000 N 23rd St,MCALLEN,TX,78504-4014,United States of America,9569721122.0,hungry_howies_pizza_&_subs
2000023356,Hungry Howie's Pizza & Subs,313 S Sugar Rd,EDINBURG,TX,78539-2805,United States of America,9562879911.0,hungry_howies_pizza_&_subs
1000901440,Villa Pizza,4401 N Interstate 35,ROUND ROCK,TX,78664-2685,United States of America,5126847174.0,villa_pizza
1000932424,Papa John's Pizza,1224 S Lamar Blvd,AUSTIN,TX,78704-2369,United States of America,5124435454.0,papa_johns_pizza
1000869270,Chuck E. Cheese's,502 W Ben White Blvd,AUSTIN,TX,78704-7030,United States of America,5124419681.0,chuck_e_cheeses
1000949200,Papa John's Pizza,3300 Bee Caves Rd,WEST LAKE HILLS,TX,78746,United States of America,5123477272.0,papa_johns_pizza
1000913042,Pizza Pro,1631 17th St,ANSON,TX,79501-6003,United States of America,3258232466.0,pizza_pro
1000921491,Brick Oven Pizza Company,4714 S 14th St,ABILENE,TX,79605-4733,United States of America,3256916550.0,brick_oven_pizza_company
1000930489,Papa John's Pizza,11083 E Mississippi Ave,AURORA,CO,80012-3104,United States of America,7208577272.0,papa_johns_pizza
1000841559,CiCi's Pizza,18648 E Hampden Ave,AURORA,CO,80013-3500,United States of America,3036173222.0,cicis_pizza
1000953324,Papa John's Pizza,4250 W Colfax Ave,DENVER,CO,80204-1407,United States of America,3035346262.0,papa_johns_pizza
2000183229,Papa John's Pizza,2000 S Federal Blvd,DENVER,CO,80219-5430,United States of America,,papa_johns_pizza
1000852920,Fox's Pizza Den,2772 S Wadsworth Blvd,DENVER,CO,80227-3408,United States of America,3039883697.0,foxs_pizza_den
1000856237,CiCi's Pizza,3100 S Sheridan Blvd,DENVER,CO,80227-5536,United States of America,3039960919.0,cicis_pizza
2000182980,Papa John's Pizza,5135 Chambers Rd,DENVER,CO,80239,United States of America,3033078080.0,papa_johns_pizza
1000939699,Papa John's Pizza,1901 Youngfield St,GOLDEN,CO,80401-3595,United States of America,3039627272.0,papa_johns_pizza
1000888687,Villa Pizza,100 Oval,FORT COLLINS,CO,80523-0001,United States of America,9704079290.0,villa_pizza
2000051340,Marco's Pizza,1630 S Lemay Ave,FORT COLLINS,CO,80525,United States of America,9704494080.0,marcos_pizza
2000225200,Nick 'N' Willy's,1433 Denver Ave,LOVELAND,CO,80538-5226,United States of America,9706131007.0,nick_n_willys
1000936543,Papa John's Pizza,1555 Main St,WINDSOR,CO,80550-5999,United States of America,9706740072.0,papa_johns_pizza
2000183131,Papa John's Pizza,2900 Route 130 N,CINNAMINSON,NJ,8077,United States of America,8563038473.0,papa_johns_pizza
1000937640,Papa John's Pizza,5556 S Academy Blvd,COLORADO SPRINGS,CO,80906,United States of America,7195767272.0,papa_johns_pizza
1000938510,Papa John's Pizza,1751 S Pueblo Blvd,PUEBLO,CO,81005-2103,United States of America,7195647200.0,papa_johns_pizza
1000857612,Godfather's Pizza,3236 E Grand Ave,LARAMIE,WY,82070,United States of America,3077428293.0,godfathers_pizza
1000899550,Villa Pizza,350 N Milwaukee St,BOISE,ID,83704-9155,United States of America,2083221722.0,villa_pizza
1000943123,Papa John's Pizza,226 W Ironwood Dr,COEUR D ALENE,ID,83814-2678,United States of America,2086769292.0,papa_johns_pizza
1000889303,Villa Pizza,10450 S State St,SANDY,UT,84070-3138,United States of America,8014951217.0,villa_pizza
2000223807,Pie Five Pizza,3158 E 6200 S,HOLLADAY,UT,84121,United States of America,8012811354.0,pie_five_pizza
1000957679,Papa John's Pizza,5586 S Redwood Rd,TAYLORSVILLE,UT,84123-5321,United States of America,8019656262.0,papa_johns_pizza
1000943672,Papa John's Pizza,2340 W Bell Rd,PHOENIX,AZ,85023-3207,United States of America,6022881065.0,papa_johns_pizza
2000041289,California Pizza Kitchen,3400 E Sky Harbor Blvd,PHOENIX,AZ,85034,United States of America,6022751721.0,california_pizza_kitchen
2000023943,Papa John's Pizza,4205 W Anthem Way,ANTHEM,AZ,85086-0445,United States of America,6235512548.0,papa_johns_pizza
2000053026,Peter Piper Pizza,1833 N Power Rd,MESA,AZ,85205,United States of America,4806411940.0,peter_piper_pizza
2000046290,Donatos Pizza,1701 Warner Rd,CHANDLER,AZ,85224,United States of America,6028890001.0,donatos_pizza
1000845132,Fox's Pizza Den,2081 N Arizona Ave,CHANDLER,AZ,85225-3448,United States of America,4808993697.0,foxs_pizza_den
2000182956,Papa John's Pizza,8912 E Pinnacle Peak Rd,SCOTTSDALE,AZ,85255-3649,United States of America,4804734943.0,papa_johns_pizza
1000929514,Papa John's Pizza,10575 W Indian School Rd,AVONDALE,AZ,85392,United States of America,6238725441.0,papa_johns_pizza
1000955562,Papa John's Pizza,4990 S Campbell Ave,TUCSON,AZ,85706-1508,United States of America,5208073434.0,papa_johns_pizza
1000903529,Villa Pizza,5870 E Broadway Blvd,TUCSON,AZ,85711-3923,United States of America,5205140300.0,villa_pizza
1000836577,Fox's Pizza Den,15318 N Oracle Rd,TUCSON,AZ,85739,United States of America,5206153697.0,foxs_pizza_den
2000183138,Papa John's Pizza,731 E State St,TRENTON,NJ,8609,United States of America,6095847777.0,papa_johns_pizza
1000887837,Godfather's Pizza,E Arnold Blvd,MC GUIRE AFB,NJ,8641,United States of America,6097232019.0,godfathers_pizza
1000934670,Papa John's Pizza,1402 Main St NW,LOS LUNAS,NM,87031-6183,United States of America,5058654141.0,papa_johns_pizza
1000968576,Bananas Ultimate Juice Bar,1201 Hooper Ave,TOMS RIVER,NJ,8753,United States of America,7323490222.0,bananas_ultimate_juice_bar
1000828136,Fox's Pizza Den,1340 E Lohman Ave,LAS CRUCES,NM,88001-3159,United States of America,5755213697.0,foxs_pizza_den
2000183118,Papa John's Pizza,100 Reaville Rd,FLEMINGTON,NJ,8822,United States of America,9082377272.0,papa_johns_pizza
1000895967,Papa Murphy's Take 'N' Bake Pizza,2208 N Turner St,HOBBS,NM,88240,United States of America,5753929300.0,papa_murphys_take_n_bake_pizza
2000183126,Papa John's Pizza,400 Spotswood Englishtown Rd,MONROE TWP,NJ,8831,United States of America,7322515740.0,papa_johns_pizza
1000904327,Villa Pizza,639 N Stephanie St,HENDERSON,NV,89014-2633,United States of America,7024587344.0,villa_pizza
1000906843,Villa Pizza,869 S Boulder Hwy,HENDERSON,NV,89015-8159,United States of America,7025658844.0,villa_pizza
1000935765,Papa John's Pizza,150 S Highway 160,PAHRUMP,NV,89048-2133,United States of America,7757272345.0,papa_johns_pizza
1000892050,Papa Murphy's Take 'N' Bake Pizza,141 S Frontage Rd,PAHRUMP,NV,89048-2159,United States of America,7757519292.0,papa_murphys_take_n_bake_pizza
2000198839,Villa Fresh Italian Kitchen,7300 Aliante Pkwy,NORTH LAS VEGAS,NV,89084,United States of America,7023990145.0,villa_fresh_italian_kitchen
1000899849,Villa Pizza,3620 W Sahara Ave,LAS VEGAS,NV,89102-5817,United States of America,7023680368.0,villa_pizza
1000907574,Villa Pizza,9495 Las Vegas Blvd S,LAS VEGAS,NV,89123-3311,United States of America,7022697297.0,villa_pizza
2000023857,Papa John's Pizza,1610 Robb Drive,RENO,NV,89523,United States of America,7757872999.0,papa_johns_pizza
2000195569,Godfather's Pizza,Mill St,RENO,NV,89557-0001,United States of America,7753272044.0,godfathers_pizza
2000198838,Villa Fresh Italian Kitchen,1664 N Virginia St,RENO,NV,89557-0001,United States of America,7756825855.0,villa_fresh_italian_kitchen
2000046201,Donatos Pizza,10869 Weyburn Ave,LOS ANGELES,CA,90024,United States of America,3105554444.0,donatos_pizza
1000962873,Papa John's Pizza,7603 Atlantic Ave,CUDAHY,CA,90201-5019,United States of America,3235601999.0,papa_johns_pizza
2000037361,Papa John's Pizza,10003 Hawthorne Blvd,INGLEWOOD,CA,90304-1515,United States of America,3104127400.0,papa_johns_pizza
1000963398,Papa John's Pizza,7932 Norwalk Blvd,WHITTIER,CA,90606-2196,United States of America,5629081705.0,papa_johns_pizza
1000946809,Papa John's Pizza,2900 W Beverly Blvd,MONTEBELLO,CA,90640-2262,United States of America,3238886082.0,papa_johns_pizza
1000889719,Hungry Howie's Pizza & Subs,1100 Huntington Dr,DUARTE,CA,91010-2451,United States of America,6265999991.0,hungry_howies_pizza_&_subs
2000030562,Pizza Hut,19417 3/4 Victory Blvd,RESEDA,CA,91335-6611,United States of America,,pizza_hut
1000943711,Papa John's Pizza,235 N Maclay Ave,SAN FERNANDO,CA,91340-2908,United States of America,8188377272.0,papa_johns_pizza
1000943610,Papa John's Pizza,23305 Mulholland Dr,WOODLAND HILLS,CA,91364-2730,United States of America,8182257800.0,papa_johns_pizza
1000907036,Hungry Howie's Pizza & Subs,8998 Foothill Blvd,RANCHO CUCAMONGA,CA,91730-6572,United States of America,9094766000.0,hungry_howies_pizza_&_subs
1000967128,Papa John's Pizza,315 N Indian Hill Blvd,MONTCLAIR,CA,91763,United States of America,9094824488.0,papa_johns_pizza
2000198845,Villa Fresh Italian Kitchen,5620 Paseo Del Norte,CARLSBAD,CA,92008,United States of America,7606020682.0,villa_fresh_italian_kitchen
1000949597,Papa John's Pizza,337 N El Camino Real,ENCINITAS,CA,92024,United States of America,7609423200.0,papa_johns_pizza
1000952809,Papa John's Pizza,4130 La Jolla Village Dr,LA JOLLA,CA,92037-1480,United States of America,8584589800.0,papa_johns_pizza
1000966567,Papa John's Pizza,9470 Cuyamaca St,SANTEE,CA,92071,United States of America,6193877272.0,papa_johns_pizza
1000953892,Papa John's Pizza,4415 University Ave,SAN DIEGO,CA,92105-1711,United States of America,6192437272.0,papa_johns_pizza
2000041129,California Pizza Kitchen,123 N Palm Canyon Dr,PALM SPRINGS,CA,92262-5527,United States of America,7603226075.0,california_pizza_kitchen
1000935172,Papa John's Pizza,14380 Main St,HESPERIA,CA,92345,United States of America,7609565239.0,papa_johns_pizza
1000853516,Fox's Pizza Den,28298 Greenspot Rd,HIGHLAND,CA,92346,United States of America,9098629200.0,foxs_pizza_den
1000900811,Villa Pizza,40820 Winchester Rd,TEMECULA,CA,92591-5526,United States of America,9512961150.0,villa_pizza
2000199943,Papa Murphy's Take 'N' Bake Pizza,33621 Del Obispo St,DANA POINT,CA,92629,United States of America,9494888253.0,papa_murphys_take_n_bake_pizza
1000940636,Papa John's Pizza,200 W Lincoln Ave,ANAHEIM,CA,92805-2903,United States of America,7145337272.0,papa_johns_pizza
1000943727,Papa John's Pizza,2350 Vineyard Ave,OXNARD,CA,93036,United States of America,8052787272.0,papa_johns_pizza
2000053456,"We Toss'em, They're Awesome",721 E Prosperity Ave,TULARE,CA,93274-2142,United States of America,5596841455.0,"we_tossem,_theyre_awesome"
2000030437,Pizza Hut,1304 E Prosperity Ave,TULARE,CA,93274-8052,United States of America,,pizza_hut
1000825230,Round Table Pizza,3971 S. Higuera St.,SAN LUIS OBISPO,CA,93405-2361,United States of America,8055415551.0,round_table_pizza
1000943775,Papa John's Pizza,236 W Grand Ave,GROVER BEACH,CA,93433-1939,United States of America,8054730858.0,papa_johns_pizza
2000199944,Papa Murphy's Take 'N' Bake Pizza,870 W El Monte Way,DINUBA,CA,93618,United States of America,5595951233.0,papa_murphys_take_n_bake_pizza
2000051621,Mountain Mike's Pizza,921 W Manning Ave,REEDLEY,CA,93654-2446,United States of America,5596430369.0,mountain_mikes_pizza
1000901123,Papa Murphy's Take 'N' Bake Pizza,4218 E Clinton Ave,FRESNO,CA,93703-2613,United States of America,5592523100.0,papa_murphys_take_n_bake_pizza
1000936621,Papa John's Pizza,1568 Constitution Blvd,SALINAS,CA,93905-3803,United States of America,8314497499.0,papa_johns_pizza
1000938321,Papa John's Pizza,1731 N Texas St,FAIRFIELD,CA,94533-3822,United States of America,7073997272.0,papa_johns_pizza
1000868780,Godfather's Pizza,500 Arnold Ave,TRAVIS AFB,CA,94535-2220,United States of America,7074373663.0,godfathers_pizza
1000950752,Papa John's Pizza,36488 Fremont Blvd,FREMONT,CA,94536-7436,United States of America,5106237272.0,papa_johns_pizza
1000837086,Round Table Pizza,157 Harder Rd,HAYWARD,CA,94544-2832,United States of America,5105817777.0,round_table_pizza
2000051660,Mountain Mike's Pizza,3614 Mt Diablo Blvd,LAFAYETTE,CA,94549-3737,United States of America,9252836363.0,mountain_mikes_pizza
2000157200,Mountain Mike's Pizza,2175 1st St,LIVERMORE,CA,94550-4543,United States of America,9253711300.0,mountain_mikes_pizza
1000879319,Godfather's Pizza,7275 Thornton Ave,NEWARK,CA,94560-3644,United States of America,5107922171.0,godfathers_pizza
2000241937,Marco's Pizza,6654 Koll Center Pkwy,PLEASANTON,CA,94566,United States of America,9254844440.0,marcos_pizza
2000023983,Papa John's Pizza,21001 San Ramon Valley Blvd,SAN RAMON,CA,94583-3458,United States of America,9258299800.0,papa_johns_pizza
1000947877,Papa John's Pizza,30593 Union City Blvd,UNION CITY,CA,94587-1515,United States of America,5104877272.0,papa_johns_pizza
1000875529,Round Table Pizza,6314 Commerce Blvd,ROHNERT PARK,CA,94928-2404,United States of America,7075847712.0,round_table_pizza
1000884577,Round Table Pizza,890 Petaluma Blvd N,PETALUMA,CA,94952-2109,United States of America,7077669999.0,round_table_pizza
1000836352,Round Table Pizza,1520 E Washington St,PETALUMA,CA,94954-3632,United States of America,7077621861.0,round_table_pizza
2000051619,Mountain Mike's Pizza,5229 Stevens Creek Blvd,SANTA CLARA,CA,95051-6664,United States of America,4089840564.0,mountain_mikes_pizza
2000051616,Mountain Mike's Pizza,1289 S 1st St,SAN JOSE,CA,95110,United States of America,4082924200.0,mountain_mikes_pizza
2000051692,Mountain Mike's Pizza,6477 Almaden Expy,SAN JOSE,CA,95120,United States of America,4082686630.0,mountain_mikes_pizza
2000037525,Papa John's Pizza,1331 Guerneville Rd,SANTA ROSA,CA,95403-4162,United States of America,7075425225.0,papa_johns_pizza
1000832201,Round Table Pizza,131 S Main St,SEBASTOPOL,CA,95472-4258,United States of America,7078232573.0,round_table_pizza
1000954950,Papa John's Pizza,4747 Manzanita Ave,CARMICHAEL,CA,95608-0822,United States of America,9164857272.0,papa_johns_pizza
1000966082,Papa John's Pizza,9171 Elk Grove Florin Rd,ELK GROVE,CA,95624-4051,United States of America,9166913181.0,papa_johns_pizza
1000953131,Papa John's Pizza,421 Blue Ravine Rd,FOLSOM,CA,95630-3821,United States of America,9169847474.0,papa_johns_pizza
1000966509,Papa John's Pizza,9427A Madison Ave,ORANGEVALE,CA,95662-4934,United States of America,9169893085.0,papa_johns_pizza
2000051644,Mountain Mike's Pizza,4131 S Shingle Rd,SHINGLE SPRINGS,CA,95682,United States of America,5306772222.0,mountain_mikes_pizza
1000940303,Papa John's Pizza,1989 Peabody Rd,VACAVILLE,CA,95687-6286,United States of America,7074557272.0,papa_johns_pizza
2000051681,Mountain Mike's Pizza,375 W Main St,WOODLAND,CA,95695,United States of America,5306617552.0,mountain_mikes_pizza
1000956390,Papa John's Pizza,5131 Foothills Blvd,ROSEVILLE,CA,95747-6527,United States of America,9167825646.0,papa_johns_pizza
1000942844,Papa John's Pizza,2221 Sunset Blvd,ROCKLIN,CA,95765,United States of America,9164358282.0,papa_johns_pizza
1000870154,Round Table Pizza,5140 Stockton Blvd,SACRAMENTO,CA,95820-5410,United States of America,9164516046.0,round_table_pizza
1000944256,Papa John's Pizza,2440 Fulton Ave,SACRAMENTO,CA,95825-0300,United States of America,9164897474.0,papa_johns_pizza
1000950345,Papa John's Pizza,3535 Elverta Rd,ANTELOPE,CA,95843-4721,United States of America,9163447200.0,papa_johns_pizza
2000051635,Mountain Mike's Pizza,1548 State Highway 99,GRIDLEY,CA,95948-3121,United States of America,5307979040.0,mountain_mikes_pizza
2000053442,"We Toss'em, They're Awesome",490 Main St,QUINCY,CA,95971-9376,United States of America,5302834545.0,"we_tossem,_theyre_awesome"
1000961922,Papa John's Pizza,7192 Kalanianaole Hwy,HONOLULU,HI,96825-1853,United States of America,8083945188.0,papa_johns_pizza
1000930629,Papa John's Pizza,1111 McCully St,HONOLULU,HI,96826,United States of America,8089837272.0,papa_johns_pizza
1000837362,Godfather's Pizza,15982 SW Tualatin Sherwood Rd,SHERWOOD,OR,97140-8690,United States of America,5036251600.0,godfathers_pizza
1000934671,Papa John's Pizza,1402 Mohawk Blvd,SPRINGFIELD,OR,97477-3352,United States of America,5417467272.0,papa_johns_pizza
1000962783,Papa John's Pizza,755 Ne Greenwood Ave,BEND,OR,97701,United States of America,5413857272.0,papa_johns_pizza
1000832039,Round Table Pizza,13038 SE Kent Kangley Rd,KENT,WA,98030-7965,United States of America,2536306900.0,round_table_pizza
2000030468,Pizza Hut,14638 Pacific Hwy,TUKWILA,WA,98168-4327,United States of America,,pizza_hut
2000023972,Papa John's Pizza,3100 Kitsap Way,BREMERTON,WA,98312,United States of America,3603776565.0,papa_johns_pizza
1000874082,Godfather's Pizza,6029 41st Division Dr,FORT LEWIS,WA,98433,United States of America,2539642267.0,godfathers_pizza
2000198830,Villa Fresh Italian Kitchen,1500 Terrell Mall,PULLMAN,WA,99163,United States of America,5093322700.0,villa_fresh_italian_kitchen
1000964696,Papa John's Pizza,845 NE Monroe St,PULLMAN,WA,99163-4042,United States of America,5093327272.0,papa_johns_pizza
1000878920,Godfather's Pizza,7176 Fighter Dr,ELMENDORF AFB,AK,99506-3564,United States of America,9077537200.0,godfathers_pizza
