Store Company ID,Company Name,Address 1,City,State,Zip,Country,Phone,company_name
2000303504,Villa Fresh Italian Kitchen,1 Premium Outlets Blvd,BARCELONETA,PR,00617-2694,United States of America,7879700076.0,villa_fresh_italian_kitchen
2000242830,Little Caesars Pizza,1170 Ave Emerito Estrada,SAN SEBASTIAN,PR,00685-3024,United States of America,7872808888.0,little_caesars_pizza
1000950817,Sbarro,367 Russell St,HADLEY,MA,01035-9463,United States of America,4135866034.0,sbarro
1000815789,Pizza Hut,424 Russell St,HADLEY,MA,01035-9579,United States of America,,pizza_hut
1000965010,Sbarro,864 Riverdale St,WEST SPRINGFIELD,MA,01089-4917,United States of America,,sbarro
1000927959,Sbarro,100 Commercial Rd,LEOMINSTER,MA,01453-3364,United States of America,9785344566.0,sbarro
1000943657,Sbarro,234 Route 15,STURBRIDGE,MA,01566-1141,United States of America,5083471456.0,sbarro
2000002692,D'Angelo Grilled Sandwiches,207 Mechanic St,BELLINGHAM,MA,02019-1619,United States of America,5089660780.0,dangelo_grilled_sandwiches
1000830822,Papa Gino's Pizzeria,125 Squire Rd,REVERE,MA,02151-1220,United States of America,7812894400.0,papa_ginos_pizzeria
2000216139,Domino's Pizza,63 Revere Beach Blvd,REVERE,MA,02151-3640,United States of America,7812891021.0,dominos_pizza
1000818351,Pizza Hut,627 Washington St,QUINCY,MA,02169-7332,United States of America,6174711710.0,pizza_hut
1000810846,Pizza Hut,21 Fairhaven Commons Way,FAIRHAVEN,MA,02719-4628,United States of America,5089999635.0,pizza_hut
1000968830,Papa John's Pizza,1672 Pleasant St,FALL RIVER,MA,02723-1929,United States of America,5086747500.0,papa_johns_pizza
1000810563,Pizza Hut,202 Connell Hwy,NEWPORT,RI,02840-1037,United States of America,4018461470.0,pizza_hut
1000813916,Pizza Hut,320 Warwick Ave,WARWICK,RI,02888-1300,United States of America,4017814777.0,pizza_hut
1000808920,Pizza Hut,162 Granite St,WESTERLY,RI,02891-2438,United States of America,,pizza_hut
1000809372,Pizza Hut,1730 Diamond Hill Rd,WOONSOCKET,RI,02895-1507,United States of America,4017667122.0,pizza_hut
2000182586,Sbarro,81 Providence Pl,PROVIDENCE,RI,02903-1752,United States of America,,sbarro
1000849973,D'Angelo Grilled Sandwiches,248 Academy Ave,PROVIDENCE,RI,02908-4454,United States of America,4018611900.0,dangelo_grilled_sandwiches
1000863000,D'Angelo Grilled Sandwiches,401 S Willow St,MANCHESTER,NH,03103-5730,United States of America,6036259980.0,dangelo_grilled_sandwiches
1000837752,Little Caesars Pizza,161 Court St,LACONIA,NH,03246-3685,United States of America,6035244111.0,little_caesars_pizza
2000003427,Sbarro,270 Loudon Rd,CONCORD,NH,03301-8025,United States of America,6032232350.0,sbarro
1000882595,D'Angelo Grilled Sandwiches,818 Roosevelt Trl,WINDHAM,ME,04062-5386,United States of America,2078930388.0,dangelo_grilled_sandwiches
1000815094,Pizza Hut,390 Gorham Rd,SOUTH PORTLAND,ME,04106-2326,United States of America,2077731947.0,pizza_hut
1000960479,Sbarro,663 Stillwater Ave,BANGOR,ME,04401-3686,United States of America,2079428806.0,sbarro
1000806251,Pizza Hut,1154 Putney Rd,BRATTLEBORO,VT,05301-9496,United States of America,8022546282.0,pizza_hut
1000936468,Sbarro,155 Dorset St,SOUTH BURLINGTON,VT,05403-6283,United States of America,8026581219.0,sbarro
1000967159,Sbarro,99 Redstone Rd,MANCHESTER,CT,06042-8754,United States of America,8066464555.0,sbarro
1000816871,Pizza Hut,504 Talcottville Rd,VERNON,CT,06066-4019,United States of America,8608718484.0,pizza_hut
1000861907,Chuck E. Cheese's,389 N Frontage Rd,NEW LONDON,CT,06320-2623,United States of America,8604442526.0,chuck_e_cheeses
1000818867,Pizza Hut,681 Long Hill Rd,GROTON,CT,06340-4270,United States of America,2036860338.0,pizza_hut
2000010085,Domino's Pizza,659 Voluntown Rd,GRISWOLD,CT,06351-2659,United States of America,8603763011.0,dominos_pizza
1000964767,Sbarro,850 Hartford Tpke,WATERFORD,CT,06385-4253,United States of America,8604403621.0,sbarro
1000818909,Pizza Hut,688 Boston Post Rd,OLD SAYBROOK,CT,06475-1520,United States of America,8603883437.0,pizza_hut
2000146783,Little Caesars Pizza,894 N Colony Rd,WALLINGFORD,CT,06492-2411,United States of America,2032652222.0,little_caesars_pizza
1000902501,Everything Yogurt Salad Cafe,5065 Main St,TRUMBULL,CT,06611-4202,United States of America,2033723461.0,everything_yogurt_salad_cafe
1000956159,Sbarro,5065 Main St,TRUMBULL,CT,06611-4211,United States of America,2033715050.0,sbarro
1000955494,Sbarro,495 Union St,WATERBURY,CT,06706-1283,United States of America,2037577720.0,sbarro
1000805565,Pizza Hut,1074 Main St,WATERTOWN,CT,06795-2919,United States of America,8602747501.0,pizza_hut
1000961140,Sbarro,7 Backus Ave,DANBURY,CT,06810-7426,United States of America,2037941827.0,sbarro
1000930747,Sbarro,112 Eisenhower Pkwy,LIVINGSTON,NJ,07039-4990,United States of America,9735351683.0,sbarro
1000812442,Pizza Hut,260 Valley St,SOUTH ORANGE,NJ,07079-2822,United States of America,,pizza_hut
2000003433,Sbarro,165 University Ave,NEWARK,NJ,07102-1915,United States of America,9735960596.0,sbarro
1000942503,Papa John's Pizza,22-06 Maple Ave,FAIR LAWN,NJ,07410-1526,United States of America,2017912700.0,papa_johns_pizza
2000198784,The Office Beer Bar & Grill,32 Chestnut St,RIDGEWOOD,NJ,07450-3804,United States of America,2016521070.0,the_office_beer_bar_&_grill
1000947352,Sbarro,300 Pompton Rd,WAYNE,NJ,07470-2103,United States of America,,sbarro
2000147299,CiCi's Pizza,4807 US Highway 9,HOWELL,NJ,07731-3749,United States of America,7323707090.0,cicis_pizza
1000816187,Pizza Hut,450 Union Hill Rd,MORGANVILLE,NJ,07751-1581,United States of America,7326179900.0,pizza_hut
1000808444,Pizza Hut,152 US Highway 46,ROCKAWAY,NJ,07866-4020,United States of America,9736255050.0,pizza_hut
1000833799,Little Caesars Pizza,140 State Route 10,RANDOLPH,NJ,07869-1542,United States of America,9733662996.0,little_caesars_pizza
2000198789,The Office Beer Bar & Grill,61 Union Pl,SUMMIT,NJ,07901-2563,United States of America,9085220550.0,the_office_beer_bar_&_grill
1000815443,Pizza Hut,406 Springfield Ave,BERKELEY HEIGHTS,NJ,07922-1107,United States of America,9085081177.0,pizza_hut
1000811739,Pizza Hut,233 Speedwell Ave,MORRIS PLAINS,NJ,07950-2308,United States of America,,pizza_hut
1000952071,Sbarro,400 W Route 38,MOORESTOWN,NJ,08057-3219,United States of America,8562347272.0,sbarro
1000821697,Pizza Hut,1852 Deptford Center Rd,DEPTFORD,NJ,08096-5626,United States of America,8564018510.0,pizza_hut
1000919733,Domino's Pizza,3800 New Jersey Ave,WILDWOOD,NJ,08260-1915,United States of America,6095222900.0,dominos_pizza
1000915891,Domino's Pizza,2001 Delsea Dr,FRANKLINVILLE,NJ,08322-2534,United States of America,8566941110.0,dominos_pizza
1000944091,Papa John's Pizza,2415 Pacific Ave,ATLANTIC CITY,NJ,08401-6634,United States of America,6094412070.0,papa_johns_pizza
1000812107,Pizza Hut,2458 US Highway 1,LAWRENCEVILLE,NJ,08648-4101,United States of America,6098838703.0,pizza_hut
2000198790,The Office Beer Bar & Grill,728 Thompson Ave,BOUND BROOK,NJ,08805-1164,United States of America,7324690066.0,the_office_beer_bar_&_grill
1000813750,Pizza Hut,313 Us Highway 202,FLEMINGTON,NJ,08822-1700,United States of America,9088068234.0,pizza_hut
2000183121,Papa John's Pizza,706 US Highway 206,HILLSBOROUGH,NJ,08844-1532,United States of America,9082817272.0,papa_johns_pizza
1000821828,Pizza Hut,1194 US Highway 22,PHILLIPSBURG,NJ,08865-4117,United States of America,9082131111.0,pizza_hut
1000808681,Pizza Hut,158 E Main St,SOMERVILLE,NJ,08876-2313,United States of America,9082316700.0,pizza_hut
1000947565,Papa John's Pizza,301 W 110th St,NEW YORK,NY,10026-4066,United States of America,2126657900.0,papa_johns_pizza
2000172929,Little Caesars Pizza,18 E 125th St,NEW YORK,NY,10035-1817,United States of America,2123607272.0,little_caesars_pizza
1000958070,Sbarro,574 5th Ave,NEW YORK,NY,10036,United States of America,2125750457.0,sbarro
1000804761,Pizza Hut,1 Penn Plz,NEW YORK,NY,10119-0120,United States of America,2126300312.0,pizza_hut
2000172943,Little Caesars Pizza,1743 Richmond Rd,STATEN ISLAND,NY,10306-2524,United States of America,7189794000.0,little_caesars_pizza
2000182559,Sbarro,2655 Richmond Ave,STATEN ISLAND,NY,10314-5868,United States of America,,sbarro
1000949580,Papa John's Pizza,3361 E Tremont Ave,BRONX,NY,10461-5711,United States of America,7185187272.0,papa_johns_pizza
2000003467,Sbarro,650 Lee Blvd,YORKTOWN HEIGHTS,NY,10598,United States of America,9149623175.0,sbarro
2000242726,Little Caesars Pizza,464 North Ave,NEW ROCHELLE,NY,10801-3411,United States of America,9147407459.0,little_caesars_pizza
1000970365,Everything Yogurt Salad Cafe,JFK International Airport,NANUET,NY,10954,United States of America,8454801255.0,everything_yogurt_salad_cafe
1000811246,Pizza Hut,22 Court St,BROOKLYN,NY,11201-4303,United States of America,7186240782.0,pizza_hut
1000946554,Papa John's Pizza,2838 Atlantic Ave,BROOKLYN,NY,11207-2621,United States of America,7186477600.0,papa_johns_pizza
2000183144,Papa John's Pizza,2115 Flatbush Ave,BROOKLYN,NY,11234-4336,United States of America,7183387070.0,papa_johns_pizza
1000948269,Papa John's Pizza,3114 Farrington St,FLUSHING,NY,11354-1906,United States of America,7184617272.0,papa_johns_pizza
1000959770,Papa John's Pizza,63112 Woodhaven Blvd,REGO PARK,NY,11374,United States of America,7183267272.0,papa_johns_pizza
1000931460,Papa John's Pizza,11702 Atlantic Ave,SOUTH RICHMOND HILL,NY,11419-1219,United States of America,7188477171.0,papa_johns_pizza
1000967399,Sbarro,Delta Terminal,JAMAICA,NY,11430,United States of America,7182447150.0,sbarro
1000907987,Everything Yogurt Salad Cafe,JFK International Airport,JAMAICA,NY,11499-0001,United States of America,7185536443.0,everything_yogurt_salad_cafe
2000242521,Sbarro,630 Old Country Rd,GARDEN CITY,NY,11530-3452,United States of America,5168730355.0,sbarro
1000950503,Papa John's Pizza,36 Glen Head Rd,GLEN HEAD,NY,11545-1458,United States of America,5166747272.0,papa_johns_pizza
1000949543,Papa John's Pizza,3354 Long Beach Rd,OCEANSIDE,NY,11572-5049,United States of America,5165444646.0,papa_johns_pizza
2000003463,Sbarro,2040 Green Acres Mall,VALLEY STREAM,NY,11581-1545,United States of America,,sbarro
1000961179,Sbarro,30 Deer Park Ave,NORTH BABYLON,NY,11703-1207,United States of America,6312549700.0,sbarro
1000845755,Chuck E. Cheese's,2115 Jericho Tpke,COMMACK,NY,11725-3007,United States of America,6318645434.0,chuck_e_cheeses
2000003446,Sbarro,737 W Jericho Tpke,HUNTINGTON,NY,11743-6150,United States of America,6314232999.0,sbarro
1000962195,Papa John's Pizza,730 E Jericho Tpke,HUNTINGTON STATION,NY,11746-7503,United States of America,6314257272.0,papa_johns_pizza
1000955040,Sbarro,479 Sunrise Mall,MASSAPEQUA,NY,11758,United States of America,5165410629.0,sbarro
1000958329,Sbarro,586 Veterans Hwy,HAUPPAUGE,NY,11788-2421,United States of America,6313604343.0,sbarro
2000182565,Sbarro,358 Broadway Mall,HICKSVILLE,NY,11801-2709,United States of America,5164331645.0,sbarro
1000818962,Pizza Hut,696 Merrill Rd,PITTSFIELD,MA,1201,United States of America,4134430288.0,pizza_hut
1000808697,Pizza Hut,159 Delaware Ave,DELMAR,NY,12054-1312,United States of America,5184751000.0,pizza_hut
1000817851,Pizza Hut,597 Columbia Tpke,EAST GREENBUSH,NY,12061-1602,United States of America,5184777575.0,pizza_hut
1000821881,Pizza Hut,Rte 146 & 146 A,CLIFTON PARK,NY,12065,United States of America,5183710333.0,pizza_hut
1000912627,Johnnie's New York Pizzeria,1549 Rt 9,HALFMOON,NY,12065,United States of America,5183710015.0,johnnies_new_york_pizzeria
1000918015,Domino's Pizza,534 Troy Rd,RENSSELAER,NY,12144,United States of America,5182869111.0,dominos_pizza
1000818252,Pizza Hut,62 Vandenburgh Ave,TROY,NY,12180-6030,United States of America,5182725532.0,pizza_hut
1000812438,Pizza Hut,260 5th Ave,TROY,NY,12182-3311,United States of America,5182331930.0,pizza_hut
1000809499,Pizza Hut,1767 Western Ave,ALBANY,NY,12203-4412,United States of America,5184560820.0,pizza_hut
1000813575,Pizza Hut,307 Saratoga Rd,SCOTIA,NY,12302-5027,United States of America,5183997351.0,pizza_hut
1000966311,Sbarro,93 W Campbell Rd,SCHENECTADY,NY,12306,United States of America,5183469354.0,sbarro
1000888304,Papa Gino's Pizzeria,370 Stockbridge Rd,LEE,MA,1238,United States of America,4132431380.0,papa_ginos_pizzeria
1000933387,Sbarro,1300 Ulster Ave,KINGSTON,NY,12401,United States of America,8453360001.0,sbarro
1000811798,Pizza Hut,235 Fairview Ave,HUDSON,NY,12534-1207,United States of America,5188284359.0,pizza_hut
1000808407,Pizza Hut,1515 Route 9,WAPPINGERS FALLS,NY,12590-4128,United States of America,8452970333.0,pizza_hut
1000968277,Sbarro,Weilbel Ave Route 50,WILTON,NY,12866,United States of America,,sbarro
1000811245,Pizza Hut,22 Congress St,SARATOGA SPRINGS,NY,12866-4103,United States of America,5185877666.0,pizza_hut
1000920565,Johnnie's New York Pizzeria,16 Old Gick Rd,SARATOGA SPRINGS,NY,12866-9452,United States of America,5182266024.0,johnnies_new_york_pizzeria
2000183148,Papa John's Pizza,1038 State Route 11,CHAMPLAIN,NY,12919-4567,United States of America,5182983865.0,papa_johns_pizza
2000196681,CiCi's Pizza,7785 Frontage Rd,CICERO,NY,13039,United States of America,3154584242.0,cicis_pizza
1000952526,Sbarro,4081 State Route 31,CLAY,NY,13041,United States of America,3156521667.0,sbarro
1000845074,Little Caesars Pizza,2078 State Route 481,FULTON,NY,13069,United States of America,3155989477.0,little_caesars_pizza
2000003460,Sbarro,311 Waverly Ave,SYRACUSE,NY,13210,United States of America,,sbarro
1000859382,Little Caesars Pizza,3469 Erie Blvd E,SYRACUSE,NY,13214-1635,United States of America,3154451117.0,little_caesars_pizza
1000813190,Pizza Hut,2956 E Genesee St,SYRACUSE,NY,13224-1614,United States of America,3154466200.0,pizza_hut
1000807674,Pizza Hut,138 N Genesee St,UTICA,NY,13502-2510,United States of America,3157351192.0,pizza_hut
2000023994,Papa John's Pizza,146 Arsenal St,WATERTOWN,NY,13601,United States of America,3157824550.0,papa_johns_pizza
1000928096,Sbarro,100 Saint Lawrence Ctr,MASSENA,NY,13662,United States of America,3157699851.0,sbarro
2000027478,Little Caesars Pizza,77 Main St,BINGHAMTON,NY,13905-2916,United States of America,6072170425.0,little_caesars_pizza
2000183149,Papa John's Pizza,4934 Transit Rd,DEPEW,NY,14043,United States of America,7166689323.0,papa_johns_pizza
1000811207,Pizza Hut,218 S Cascade Dr,SPRINGVILLE,NY,14141,United States of America,7165929584.0,pizza_hut
1000952832,Sbarro,414 Mckinley Mall,BUFFALO,NY,14219-2687,United States of America,7168241496.0,sbarro
2000183147,Papa John's Pizza,6733 Transit Rd,BUFFALO,NY,14221-7224,United States of America,7166347272.0,papa_johns_pizza
1000960931,Sbarro,687 Eastview Mall,VICTOR,NY,14564-1036,United States of America,5854253860.0,sbarro
1000942422,Papa John's Pizza,2186 Empire Blvd,WEBSTER,NY,14580-2000,United States of America,5857873333.0,papa_johns_pizza
1000919078,Domino's Pizza,343 Meigs St,ROCHESTER,NY,14607-2412,United States of America,5852441110.0,dominos_pizza
1000923881,Domino's Pizza,639 Lake Ave,ROCHESTER,NY,14613-2607,United States of America,5856473320.0,dominos_pizza
1000812774,Pizza Hut,2735 Monroe Ave,ROCHESTER,NY,14618-4115,United States of America,5854619780.0,pizza_hut
2000196131,CiCi's Pizza,1100 Jefferson Rd,ROCHESTER,NY,14623,United States of America,5854241270.0,cicis_pizza
1000953904,Sbarro,442 Greece Ridge Center Dr,ROCHESTER,NY,14626-2821,United States of America,5852255563.0,sbarro
1000819332,Pizza Hut,717 Foote Ave,JAMESTOWN,NY,14701-8227,United States of America,7166649491.0,pizza_hut
2000015875,Pizza Hut,729-731 Shenango Rd,BEAVER FALLS,PA,15010,United States of America,7248470700.0,pizza_hut
2000060489,Vocelli Pizza,5850 Library Rd,BETHEL PARK,PA,15102-3334,United States of America,4128544479.0,vocelli_pizza
1000820660,Pizza Hut,8609 University Blvd,CORAOPOLIS,PA,15108-4208,United States of America,4122644423.0,pizza_hut
1000821686,Pizza Hut,Forest Grove/McCoy,MCKEES ROCKS,PA,15136,United States of America,4127712788.0,pizza_hut
1000953874,Sbarro,441 Smithfield St,PITTSBURGH,PA,15222-2219,United States of America,4125662881.0,sbarro
2000003488,Sbarro,Pittsburg Airpt Midfield Term,PITTSBURGH,PA,15231,United States of America,4124725940.0,sbarro
1000816452,Pizza Hut,475 Mount Lebanon Blvd,PITTSBURGH,PA,15234-1502,United States of America,4123438800.0,pizza_hut
1000918332,Domino's Pizza,315 Jefferson Ave,WASHINGTON,PA,15301-4225,United States of America,7242282140.0,dominos_pizza
1000935859,Sbarro,1500 W Chestnut St,WASHINGTON,PA,15301-5864,United States of America,7242298766.0,sbarro
2000003483,Sbarro,24 Donegal Ave,CLAYSVILLE,PA,15323-1270,United States of America,7246637718.0,sbarro
2000242520,Sbarro,14738 E Pennsylvania Tpke,BEDFORD,PA,15522-8674,United States of America,8146231740.0,sbarro
2000025424,Domino's Pizza,16563 Lincoln Hwy,BREEZEWOOD,PA,15533,United States of America,8147357234.0,dominos_pizza
1000861357,Fox's Pizza Den,379 Hahntown Wendel Rd,NORTH HUNTINGDON,PA,15642-4378,United States of America,7248639802.0,foxs_pizza_den
1000888352,Fox's Pizza Den,Rte 62,EAST HICKORY,PA,16321,United States of America,8144630096.0,foxs_pizza_den
1000812003,Pizza Hut,2421 Asbury Rd,ERIE,PA,16506-1490,United States of America,,pizza_hut
2000015682,Pizza Hut,328 S Logan Blvd,ALTOONA,PA,16602-5616,United States of America,,pizza_hut
1000812492,Pizza Hut,2609 E College Ave,STATE COLLEGE,PA,16801-7512,United States of America,,pizza_hut
1000817462,Pizza Hut,550 W Front St,CLEARFIELD,PA,16830-3021,United States of America,8157651579.0,pizza_hut
1000813179,Pizza Hut,295 S Logan Blvd,BURNHAM,PA,17009-1825,United States of America,7172422779.0,pizza_hut
1000963483,Sbarro,8 Fisher Ave,JONESTOWN,PA,17038-8202,United States of America,7178650999.0,sbarro
2000003486,Sbarro,4600 Jonestown Rd,HARRISBURG,PA,17109-6214,United States of America,7175456499.0,sbarro
1000820223,Pizza Hut,811 Wayne Ave,CHAMBERSBURG,PA,17201-3801,United States of America,,pizza_hut
2000003117,CiCi's Pizza,351 Loucks Rd,YORK,PA,17404,United States of America,7176502424.0,cicis_pizza
1000934913,Sbarro,227 Park City Ctr,LANCASTER,PA,17601-2707,United States of America,7173926195.0,sbarro
1000808075,Pizza Hut,1448 W Chew St,ALLENTOWN,PA,18102,United States of America,6107767900.0,pizza_hut
2000216174,Domino's Pizza,6 W Butler Dr,DRUMS,PA,18222-2310,United States of America,5707884839.0,dominos_pizza
2000196683,CiCi's Pizza,314 Lincoln Ave,EAST STROUDSBURG,PA,18301-2800,United States of America,5704222424.0,cicis_pizza
1000968093,Sbarro,Rte 611 & Bridge St,STROUDSBURG,PA,18360,United States of America,5704769980.0,sbarro
1000806137,Pizza Hut,1135 N 9th St,STROUDSBURG,PA,18360-1101,United States of America,5704242527.0,pizza_hut
1000820908,Pizza Hut,900 S State St,CLARKS SUMMIT,PA,18411-1756,United States of America,5705871010.0,pizza_hut
2000012801,Little Caesars Pizza,650 Old Willow Ave,HONESDALE,PA,18431,United States of America,5702531362.0,little_caesars_pizza
1000819784,Pizza Hut,770 Kidder St,WILKES BARRE,PA,18702-6911,United States of America,5708261696.0,pizza_hut
1000819058,Pizza Hut,701 Sans Souci Pkwy,HANOVER TOWNSHIP,PA,18706-1330,United States of America,5708292431.0,pizza_hut
1000819489,Pizza Hut,73 Old Dublin Pike,DOYLESTOWN,PA,18901-2491,United States of America,,pizza_hut
1000813257,Pizza Hut,300 Baltimore Pike,CLIFTON HEIGHTS,PA,19018,United States of America,6102599400.0,pizza_hut
1000943325,Sbarro,2300 E Lincoln Hwy,LANGHORNE,PA,19047,United States of America,2157574091.0,sbarro
1000889482,Villa Pizza,1067 W Baltimore Pike,MEDIA,PA,19063-5152,United States of America,6106271990.0,villa_pizza
1000889483,South Philly Steaks & Fries,1067 W Baltimore Pike,MEDIA,PA,19063-5153,United States of America,6106272150.0,south_philly_steaks_&_fries
1000930560,Sbarro,111 S Independence Mall E,PHILADELPHIA,PA,19106-2521,United States of America,2159229772.0,sbarro
1000892487,Villa Pizza,15 N 11th St,PHILADELPHIA,PA,19107,United States of America,2159220410.0,villa_pizza
2000242528,Little Caesars Pizza,901 Market St,PHILADELPHIA,PA,19107,United States of America,2159252018.0,little_caesars_pizza
1000814530,Pizza Hut,3501 Aramingo Ave,PHILADELPHIA,PA,19134-4605,United States of America,2157438225.0,pizza_hut
2000183175,Papa John's Pizza,7586 Haverford Ave,PHILADELPHIA,PA,19151-2113,United States of America,2154737272.0,papa_johns_pizza
1000932423,Sbarro,1244 Franklin Mills Cir,PHILADELPHIA,PA,19154-3129,United States of America,2156327636.0,sbarro
1000816719,Pizza Hut,5 Paoli Plz,PAOLI,PA,19301-1303,United States of America,6102964300.0,pizza_hut
2000182560,Sbarro,270 Exton Square Mall,EXTON,PA,19341-2442,United States of America,,sbarro
1000947885,Sbarro,306 Montgomery Mall,NORTH WALES,PA,19454-3907,United States of America,2153624734.0,sbarro
1000883626,Fox's Pizza Den,850 Golden Dr,BLANDON,PA,19510,United States of America,6109441226.0,foxs_pizza_den
2000003484,Sbarro,298 Westbound Milepost,ELVERSON,PA,19520,United States of America,,sbarro
1000804991,Pizza Hut,1008 Kirkwood Hwy.,NEWARK,DE,19711-3920,United States of America,3023688200.0,pizza_hut
1000920010,Domino's Pizza,3966 Hwy 1,REHOBOTH BEACH,DE,19971,United States of America,3022273000.0,dominos_pizza
1000889728,Everything Yogurt Salad Cafe,1100 Pennsylvania Ave NW,WASHINGTON,DC,20004-2501,United States of America,2028422990.0,everything_yogurt_salad_cafe
1000811762,Pizza Hut,2338 Wisconsin Ave NW,WASHINGTON,DC,20007-1843,United States of America,,pizza_hut
1000809501,Pizza Hut,1769 Columbia Rd NW,WASHINGTON,DC,20009-2985,United States of America,2029861100.0,pizza_hut
1000807331,Pizza Hut,1310 U St NW,WASHINGTON,DC,20009-4445,United States of America,2029866100.0,pizza_hut
1000930539,Sbarro,111 Michigan Ave NW,WASHINGTON,DC,20010-2916,United States of America,7032710536.0,sbarro
1000969696,Everything Yogurt Salad Cafe,480 Lenfant Plz SW,WASHINGTON,DC,20024,United States of America,2028632860.0,everything_yogurt_salad_cafe
1000920198,Domino's Pizza,4015 S Capitol St SW,WASHINGTON,DC,20032-1331,United States of America,2025623030.0,dominos_pizza
1000906526,Everything Yogurt Salad Cafe,8300 Sudley Rd,MANASSAS,VA,20109-3493,United States of America,7033682601.0,everything_yogurt_salad_cafe
1000944041,Sbarro,241 Fort Evans Rd NE,LEESBURG,VA,20176-4094,United States of America,,sbarro
2000182553,Sbarro,2025 Concessions Pentagon,WASHINGTON,DC,20310,United States of America,,sbarro
2000003503,Sbarro,2024 Concessions Pentagon,WASHINGTON,DC,20310-2024,United States of America,,sbarro
2000003505,Sbarro,1244 Patterson Ave SE,WASHINGTON NAVY YARD,DC,20374,United States of America,2026788122.0,sbarro
1000814936,Pizza Hut,376 Macarthur Blvd,CALIFORNIA,MD,20619,United States of America,3017371800.0,pizza_hut
1000818296,Pizza Hut,6223 Crain Hwy,LA PLATA,MD,20646-4266,United States of America,3019326300.0,pizza_hut
2000003388,Sbarro,1150 S Campus,COLLEGE PARK,MD,20742-0001,United States of America,3013142499.0,sbarro
1000821509,Pizza Hut,972 Swan Creek Rd E,FORT WASHINGTON,MD,20744,United States of America,3012920990.0,pizza_hut
1000814104,Pizza Hut,3270 Donnell Dr,FORESTVILLE,MD,20747-3205,United States of America,3019676900.0,pizza_hut
1000820084,Pizza Hut,8021 Wisconsin Ave,BETHESDA,MD,20814-3621,United States of America,,pizza_hut
1000905152,Everything Yogurt Salad Cafe,7101 Democracy Blvd,BETHESDA,MD,20817,United States of America,3012993030.0,everything_yogurt_salad_cafe
1000814484,Pizza Hut,3474 Olney Laytonsville Rd,OLNEY,MD,20832-1734,United States of America,,pizza_hut
1000819894,Pizza Hut,785 Rockville Pike,ROCKVILLE,MD,20852-1149,United States of America,3012179444.0,pizza_hut
1000875937,CiCi's Pizza,642 Quince Orchard Rd,GAITHERSBURG,MD,20878-1410,United States of America,3018691006.0,cicis_pizza
1000930956,Sbarro,11301 Rockville Pike,KENSINGTON,MD,20895-6005,United States of America,3017707881.0,sbarro
1000930713,Sbarro,11160 Veirs Mill Rd,WHEATON,MD,20902-5915,United States of America,3019429224.0,sbarro
1000805917,Pizza Hut,1111 Beards Hill Rd,ABERDEEN,MD,21001-2251,United States of America,4102979040.0,pizza_hut
1000814668,Pizza Hut,3570 Saint Johns Ln,ELLICOTT CITY,MD,21042-4036,United States of America,4104610036.0,pizza_hut
2000003391,Sbarro,10300 Little Patuxent Pkwy,COLUMBIA,MD,21044-7008,United States of America,4108844138.0,sbarro
1000821806,Pizza Hut,1046 Joppafarm Rd,JOPPA,MD,21085,United States of America,4106793003.0,pizza_hut
1000889200,Everything Yogurt Salad Cafe,10300 Mill Run Cir,OWINGS MILLS,MD,21117,United States of America,4103637117.0,everything_yogurt_salad_cafe
1000815617,Pizza Hut,4136 Joppa Rd,PERRY HALL,MD,21128,United States of America,4102480800.0,pizza_hut
1000918862,Domino's Pizza,3330 Paper Mill Rd,PHOENIX,MD,21131-1419,United States of America,4106839400.0,dominos_pizza
1000820665,Pizza Hut,8615 Liberty Rd,RANDALLSTOWN,MD,21133-4713,United States of America,,pizza_hut
1000817156,Pizza Hut,523 Benfield Rd,SEVERNA PARK,MD,21146-2535,United States of America,4105444678.0,pizza_hut
2000041144,California Pizza Kitchen,137 Stuart St,BOSTON,MA,2116,United States of America,6177200999.0,california_pizza_kitchen
1000940538,Sbarro,200 E Pratt St,BALTIMORE,MD,21202-6155,United States of America,4102440293.0,sbarro
1000939131,Papa John's Pizza,1826 Woodlawn Dr,WOODLAWN,MD,21207-4050,United States of America,4102656262.0,papa_johns_pizza
1000818656,Pizza Hut,6567 Baltimore National Pike,CATONSVILLE,MD,21228-3906,United States of America,4107888070.0,pizza_hut
1000923821,Domino's Pizza,6309 Sherwood Rd,IDLEWYLDE,MD,21239-1547,United States of America,4103770800.0,dominos_pizza
2000182562,Sbarro,300 Terminal C,BOSTON,MA,2128,United States of America,,sbarro
2000182572,Sbarro,500 Terminal E,BOSTON,MA,2128,United States of America,,sbarro
1000808859,Pizza Hut,1610 E Joppa Rd,BALTIMORE,MD,21286-2127,United States of America,4108286362.0,pizza_hut
1000929622,Sbarro,1062 Annapolis Mall,ANNAPOLIS,MD,21401-3061,United States of America,4102665607.0,sbarro
2000242802,Little Caesars Pizza,909 Bay Ridge Rd,ANNAPOLIS,MD,21403-3934,United States of America,4432217573.0,little_caesars_pizza
2000198792,Villa Fresh Italian Kitchen,100 Cambridgeside Pl,CAMBRIDGE,MA,2141,United States of America,6174949700.0,villa_fresh_italian_kitchen
2000183073,Papa John's Pizza,55 American Legion Hwy,REVERE,MA,2151,United States of America,7812847272.0,papa_johns_pizza
1000821855,Pizza Hut,Rte 404 Byp @ 6th St,DENTON,MD,21629,United States of America,4104791311.0,pizza_hut
1000821910,Pizza Hut,Rte 50,STEVENSVILLE,MD,21666,United States of America,4106432700.0,pizza_hut
2000221487,Papa Murphy's Take 'N' Bake Pizza,1722 Dual Hwy,HAGERSTOWN,MD,21740,United States of America,3017335500.0,papa_murphys_take_n_bake_pizza
1000812700,Pizza Hut,2709 Philadelphia Ave,OCEAN CITY,MD,21842-3446,United States of America,4102895331.0,pizza_hut
2000015957,Pizza Hut,9808 Stephen Decatur Hwy,OCEAN CITY,MD,21842-9382,United States of America,4102138150.0,pizza_hut
1000821832,Pizza Hut,507 Linden Ave,POCOMOKE CITY,MD,21851-1133,United States of America,4109572202.0,pizza_hut
2000157447,Donatos Pizza,10160 Fairfax Blvd,FAIRFAX,VA,22030,United States of America,7032736333.0,donatos_pizza
1000931661,Sbarro,11900 Palace Way,FAIRFAX,VA,22030-8600,United States of America,,sbarro
1000931510,Sbarro,11750L Fair Oaks Mall,FAIRFAX,VA,22033-3308,United States of America,5714320180.0,sbarro
1000817579,Pizza Hut,5624b Ox Rd,FAIRFAX STATION,VA,22039,United States of America,7032392800.0,pizza_hut
1000904473,Everything Yogurt Salad Cafe,6500 Springfield Mall,SPRINGFIELD,VA,22150-1701,United States of America,7039716393.0,everything_yogurt_salad_cafe
1000812972,Pizza Hut,2832 Gallows Rd,VIENNA,VA,22180,United States of America,7035731303.0,pizza_hut
1000897426,Villa Fresh Italian Kitchen,2700 Potomac Mills Cir,PRINCE WILLIAM,VA,22192-4650,United States of America,7034949354.0,villa_fresh_italian_kitchen
1000890943,Green Leaf's Grill,1235 Jefferson Davis Hwy,ARLINGTON,VA,22202,United States of America,7034143788.0,green_leafs_grill
1000937751,Sbarro,1688 Crystal Square Arc,ARLINGTON,VA,22202-3322,United States of America,7034138244.0,sbarro
2000242734,Little Caesars Pizza,510 S Van Dorn St,ALEXANDRIA,VA,22304-4612,United States of America,7032128608.0,little_caesars_pizza
1000818490,Pizza Hut,640 Warrenton Rd,FREDERICKSBURG,VA,22406-1028,United States of America,5408999000.0,pizza_hut
2000003495,Sbarro,3102 Plank Rd,FREDERICKSBURG,VA,22407,United States of America,5407860858.0,sbarro
2000182606,Sbarro,Square Mall,CHARLOTTESVILLE,VA,22901,United States of America,,sbarro
1000809318,Pizza Hut,1718 Seminole Trl,CHARLOTTESVILLE,VA,22901-1416,United States of America,4349731616.0,pizza_hut
1000811058,Pizza Hut,2125 Ivy Rd,CHARLOTTESVILLE,VA,22903-1718,United States of America,4349795588.0,pizza_hut
1000913558,Domino's Pizza,1751 George Washington Memorial Hwy,GLOUCESTER POINT,VA,23062-2221,United States of America,8046429995.0,dominos_pizza
2000025003,CiCi's Pizza,15408 Wc Commons Way,MIDLOTHIAN,VA,23113-7320,United States of America,8047944445.0,cicis_pizza
1000934702,Sbarro,1404 N Parham Rd,RICHMOND,VA,23229,United States of America,8047405930.0,sbarro
1000865528,CiCi's Pizza,4360 S Laburnum Ave,HENRICO,VA,23231-2418,United States of America,8047269464.0,cicis_pizza
2000216135,Domino's Pizza,5600 Jefferson Davis Hwy,NORTH CHESTERFIELD,VA,23234-2244,United States of America,8042757499.0,dominos_pizza
1000934801,Sbarro,1410 Greenbrier Pkwy,CHESAPEAKE,VA,23320,United States of America,7575230768.0,sbarro
1000953092,Sbarro,4200 Portsmouth Blvd,CHESAPEAKE,VA,23321-2163,United States of America,7574656280.0,sbarro
2000196594,Pizza Inn,1229 Cedar Rd,CHESAPEAKE,VA,23322-7103,United States of America,7573129600.0,pizza_inn
2000157450,Donatos Pizza,,VIRGINIA BEACH,VA,23451,United States of America,,donatos_pizza
2000173219,Little Caesars Pizza,550 First Colonial Rd,VIRGINIA BEACH,VA,23451,United States of America,7574280980.0,little_caesars_pizza
1000810818,Pizza Hut,209 20th St,VIRGINIA BEACH,VA,23451-3316,United States of America,7574222799.0,pizza_hut
1000961447,Sbarro,701 Lynnhaven Pkwy,VIRGINIA BEACH,VA,23452,United States of America,7574310492.0,sbarro
1000931441,Sbarro,1170 Amphibious Dr,VIRGINIA BEACH,VA,23459-8620,United States of America,,sbarro
1000885831,Chuck E. Cheese's,920 N Military Hwy,NORFOLK,VA,23502-3712,United States of America,7574610221.0,chuck_e_cheeses
2000157448,Donatos Pizza,,NORFOLK,VA,23503,United States of America,,donatos_pizza
1000947331,Sbarro,300 Monticello Ave,NORFOLK,VA,23510-2433,United States of America,7576221677.0,sbarro
1000814794,Pizza Hut,3650 N Military Hwy,NORFOLK,VA,23518-5504,United States of America,7578534267.0,pizza_hut
1000805542,Pizza Hut,1070 W Mercury Blvd,HAMPTON,VA,23666-3378,United States of America,7578386632.0,pizza_hut
1000922925,Domino's Pizza,5660 Portsmouth Blvd,PORTSMOUTH,VA,23701,United States of America,7574659120.0,dominos_pizza
1000950432,Sbarro,379 Southpark Cir,COLONIAL HEIGHTS,VA,23834,United States of America,8045204036.0,sbarro
1000844570,CiCi's Pizza,2037 Colonial Ave SW,ROANOKE,VA,24015-3210,United States of America,5403447711.0,cicis_pizza
1000814093,Pizza Hut,3260 Electric Rd,ROANOKE,VA,24018-6400,United States of America,5407746943.0,pizza_hut
1000819112,Pizza Hut,704 N Coalter St,STAUNTON,VA,24401-3406,United States of America,5408858875.0,pizza_hut
1000949777,Sbarro,3405 Candlers Mountain Rd,LYNCHBURG,VA,24502-2217,United States of America,4342393737.0,sbarro
1000934194,Papa John's Pizza,1362 American Way,BEDFORD,VA,24523-2940,United States of America,5405875777.0,papa_johns_pizza
1000923959,Domino's Pizza,645D W Main St,DANVILLE,VA,24541,United States of America,4347933278.0,dominos_pizza
1000815379,Pizza Hut,4033 Halifax Rd,SOUTH BOSTON,VA,24592-4831,United States of America,3166341888.0,pizza_hut
1000824025,Fox's Pizza Den,37620 Coal River Rd,WHITESVILLE,WV,25209-9101,United States of America,3048541500.0,foxs_pizza_den
1000821975,Pizza Hut,US Rte 340 Willow Spring Dr,CHARLES TOWN,WV,25414,United States of America,3047250419.0,pizza_hut
1000821678,Pizza Hut,Eastgate Shopping Ctr,KERMIT,WV,25674,United States of America,3043934490.0,pizza_hut
1000815949,Pizza Hut,4341 Us Route 60,HUNTINGTON,WV,25705-2942,United States of America,,pizza_hut
1000821933,Pizza Hut,Town & Country Shopping Ctr,BECKLEY,WV,25801,United States of America,3042528686.0,pizza_hut
1000810393,Pizza Hut,2000 Grand Central Ave,VIENNA,WV,26105-1252,United States of America,,pizza_hut
2000216213,Domino's Pizza,128 Elizabeth Pike,MINERAL WELLS,WV,26150-8436,United States of America,3044890062.0,dominos_pizza
1000822780,Fox's Pizza Den,1206 E State Ave,TERRA ALTA,WV,26764,United States of America,3047895550.0,foxs_pizza_den
1000821658,Pizza Hut,Benson University Ctr,WINSTON SALEM,NC,27109,United States of America,3367584865.0,pizza_hut
1000820979,Pizza Hut,903 Nc Highway 66 S,KERNERSVILLE,NC,27284-3132,United States of America,3369965501.0,pizza_hut
1000821973,Pizza Hut,Us Hwy 64,PITTSBORO,NC,27312,United States of America,9195421057.0,pizza_hut
2000015754,Pizza Hut,440 East St,PITTSBORO,NC,27312-9709,United States of America,9195421087.0,pizza_hut
1000909161,Domino's Pizza,1056 Alamance Church Rd,GREENSBORO,NC,27406-3808,United States of America,3363701471.0,dominos_pizza
1000814902,Pizza Hut,3735 Battleground Ave,GREENSBORO,NC,27410-2345,United States of America,3362284245.0,pizza_hut
1000831912,Pizza Inn,1301 E Williams St,APEX,NC,27502-2188,United States of America,9193629611.0,pizza_inn
2000012781,Little Caesars Pizza,804 Perry Rd,APEX,NC,27502-7701,United States of America,9193871100.0,little_caesars_pizza
2000216112,Domino's Pizza,5016 Commons Hill Dr,CARY,NC,27519-2560,United States of America,9194613781.0,dominos_pizza
1000910284,Domino's Pizza,119 Raleigh Rd,HENDERSON,NC,27536-4905,United States of America,2524382727.0,dominos_pizza
1000813798,Pizza Hut,315 N Madison Blvd,ROXBORO,NC,27573-5354,United States of America,,pizza_hut
2000015725,Pizza Hut,4011 Capital Blvd,RALEIGH,NC,27604-3486,United States of America,,pizza_hut
1000815145,Pizza Hut,3921 Western Blvd,RALEIGH,NC,27606-1936,United States of America,9198513583.0,pizza_hut
1000821999,Pizza Hut,Yuppie Shpg Ctr,RALEIGH,NC,27612,United States of America,9197811133.0,pizza_hut
2000015814,Pizza Hut,5800 Duraleigh Rd,RALEIGH,NC,27612-2550,United States of America,,pizza_hut
1000953571,Sbarro,4325 Glenwood Ave,RALEIGH,NC,27612-4551,United States of America,9197819814.0,sbarro
2000198809,Villa Fresh Italian Kitchen,1058 W Club Blvd,DURHAM,NC,27701,United States of America,9192861112.0,villa_fresh_italian_kitchen
2000030736,Pizza Hut,4201 University Dr,DURHAM,NC,27707-2533,United States of America,,pizza_hut
1000866836,CiCi's Pizza,4600 Chapel Hill Blvd,DURHAM,NC,27707-2669,United States of America,9194032424.0,cicis_pizza
2000003401,Sbarro,2 Galleria Dr,TAUNTON,MA,2780,United States of America,5088243745.0,sbarro
2000015314,Pizza Hut,106 W Nashville Drive,ROCKY MOUNT,NC,27803,United States of America,,pizza_hut
1000812952,Pizza Hut,2820 Sunset Ave,ROCKY MOUNT,NC,27804-3643,United States of America,,pizza_hut
1000860454,Fox's Pizza Den,3620 US Highway 17 S,CHOCOWINITY,NC,27817-8544,United States of America,2529463697.0,foxs_pizza_den
1000961799,Sbarro,714 Greenville Blvd SE,GREENVILLE,NC,27858-5104,United States of America,2523554929.0,sbarro
1000858377,Pizza Inn,3332 Airport Blvd NW,WILSON,NC,27896-8811,United States of America,2522654646.0,pizza_inn
2000216216,Domino's Pizza,205 W Granville St,WINDSOR,NC,27983-1813,United States of America,2527943433.0,dominos_pizza
1000964028,Sbarro,8111 Concord Mills Blvd,CONCORD,NC,28027-4402,United States of America,,sbarro
1000914696,Domino's Pizza,20124 W Catawba Ave,CORNELIUS,NC,28031,United States of America,7048968007.0,dominos_pizza
1000817429,Pizza Hut,5465 Highway 49 S,HARRISBURG,NC,28075-8474,United States of America,7044547100.0,pizza_hut
2000033468,Pizza Hut,1031 Shelby Rd,KINGS MOUNTAIN,NC,28086-2739,United States of America,,pizza_hut
1000808551,Pizza Hut,1544 Matthews Mint Hill Rd,MATTHEWS,NC,28105-4623,United States of America,,pizza_hut
2000051795,Gatti's Pizza,122 S Avalon,SALISBURY,NC,28146,United States of America,7046391234.0,gattis_pizza
2000015791,Pizza Hut,511 S Highway 27,STANLEY,NC,28164-2045,United States of America,,pizza_hut
1000819753,Pizza Hut,7631 Sharon Lakes Rd,CHARLOTTE,NC,28210-7420,United States of America,,pizza_hut
2000172834,Little Caesars Pizza,10110 Johnston Rd,CHARLOTTE,NC,28210-9202,United States of America,7045429782.0,little_caesars_pizza
1000817398,Pizza Hut,5422 E Independence Blvd,CHARLOTTE,NC,28212-0502,United States of America,,pizza_hut
1000819864,Pizza Hut,7802 Fairview Rd,CHARLOTTE,NC,28226-4945,United States of America,,pizza_hut
1000855410,Little Caesars Pizza,3020 Prosperity Church Rd,CHARLOTTE,NC,28269,United States of America,7045483545.0,little_caesars_pizza
2000172836,Little Caesars Pizza,1916 Sardis Rd N,CHARLOTTE,NC,28270,United States of America,7048418300.0,little_caesars_pizza
2000015892,Pizza Hut,7705 E South Tryon,CHARLOTTE,NC,28273,United States of America,,pizza_hut
2000172833,Little Caesars Pizza,12820 S Tryon St,CHARLOTTE,NC,28273-7902,United States of America,7045836100.0,little_caesars_pizza
1000807860,Pizza Hut,1408 N Sandhills Blvd,ABERDEEN,NC,28315-2302,United States of America,9109447669.0,pizza_hut
1000821936,Pizza Hut,Tri City Shopping Ctr Hwy 74,ROCKINGHAM,NC,28379,United States of America,,pizza_hut
2000030872,Pizza Hut,7316 Market St,WILMINGTON,NC,28411-9452,United States of America,,pizza_hut
2000015779,Pizza Hut,4930 Long Beach Rd SE,SOUTHPORT,NC,28461,United States of America,,pizza_hut
2000216116,Domino's Pizza,106 Southport Supply Rd,SUPPLY,NC,28462,United States of America,9107543688.0,dominos_pizza
1000908821,Domino's Pizza,10207 Beach Dr SW,CALABASH,NC,28467-2703,United States of America,9105794555.0,dominos_pizza
1000921231,Domino's Pizza,Holden Beach & Hwy 17B,SHALLOTTE,NC,28470,United States of America,9107553355.0,dominos_pizza
1000863988,Pizza Inn,4121 Arendell St,MOREHEAD CITY,NC,28557-2854,United States of America,2527260101.0,pizza_inn
1000940182,Sbarro,1960 US Highway 70 SE,HICKORY,NC,28602-5049,United States of America,8283231973.0,sbarro
1000817118,Pizza Hut,520 W Fleming Dr,MORGANTON,NC,28655-3924,United States of America,8284335390.0,pizza_hut
2000015357,Pizza Hut,1181 Hwy 70 E,VALDESE,NC,28690,United States of America,,pizza_hut
1000920069,Domino's Pizza,1350 Asheville Hwy,BREVARD,NC,28712,United States of America,8288833070.0,dominos_pizza
2000015610,Pizza Hut,25 New Clyde Hwy (a/k/a US 19/23),CANTON,NC,28716,United States of America,,pizza_hut
1000878710,Pizza Inn,712 Upward Rd,FLAT ROCK,NC,28731-8747,United States of America,8286976465.0,pizza_inn
1000818982,Pizza Hut,7 Pisgah Hwy,PISGAH FOREST,NC,28768,United States of America,,pizza_hut
1000925352,Domino's Pizza,78 Waynesville Plz,WAYNESVILLE,NC,28786-2991,United States of America,8284569119.0,dominos_pizza
1000819205,Pizza Hut,71 Tower Hill,WAKEFIELD,RI,2880,United States of America,4017892050.0,pizza_hut
2000015898,Pizza Hut,790 Fairview Rd,ASHEVILLE,NC,28803-1140,United States of America,,pizza_hut
1000808167,Pizza Hut,1477 Merrimon Ave,ASHEVILLE,NC,28804-1341,United States of America,,pizza_hut
1000805972,Pizza Hut,1115 Tunnel Rd,ASHEVILLE,NC,28805-2019,United States of America,8282988474.0,pizza_hut
1000819792,Pizza Hut,771 Patton Ave,ASHEVILLE,NC,28806-3838,United States of America,8282545807.0,pizza_hut
2000015325,Pizza Hut,110 Highway 64 W,MURPHY,NC,28906,United States of America,,pizza_hut
2000216136,Domino's Pizza,8909 Old Number Six Hwy,SANTEE,SC,29142,United States of America,8038542208.0,dominos_pizza
1000818278,Pizza Hut,621 Saint Andrews Rd,COLUMBIA,SC,29210-5112,United States of America,,pizza_hut
1000927958,Sbarro,100 Columbiana Cir,COLUMBIA,SC,29212-2256,United States of America,8037819928.0,sbarro
2000216121,Domino's Pizza,1121 Hyatt St,GAFFNEY,SC,29341-3310,United States of America,8644874400.0,dominos_pizza
1000810497,Pizza Hut,201 Inman Rd,LYMAN,SC,29365-1409,United States of America,,pizza_hut
1000809490,Pizza Hut,1762 Savannah Hwy,CHARLESTON,SC,29407,United States of America,,pizza_hut
1000875410,CiCi's Pizza,630 Skylark Dr,CHARLESTON,SC,29407-1718,United States of America,8435562500.0,cicis_pizza
2000015301,Pizza Hut,1028 Saint Andrews Blvd,CHARLESTON,SC,29407-7139,United States of America,,pizza_hut
2000200054,Papa Murphy's Take 'N' Bake Pizza,923 Folly Rd,CHARLESTON,SC,29412-3919,United States of America,8435737358.0,papa_murphys_take_n_bake_pizza
1000812395,Pizza Hut,2571 Ashley River Rd,CHARLESTON,SC,29414-4616,United States of America,,pizza_hut
2000216126,Domino's Pizza,2410 Highway 174,EDISTO ISLAND,SC,29438-6419,United States of America,8438690090.0,dominos_pizza
1000912469,Domino's Pizza,1515 Palm Blvd,ISLE OF PALMS,SC,29451-2294,United States of America,8438864242.0,dominos_pizza
1000804847,Pizza Hut,1000 Johnnie Dodds Blvd,MOUNT PLEASANT,SC,29464-3187,United States of America,8438849500.0,pizza_hut
1000809990,Pizza Hut,1901 W Lucas St,FLORENCE,SC,29501-1231,United States of America,8436760777.0,pizza_hut
1000869686,Fox's Pizza Den,508 2nd Loop Rd,FLORENCE,SC,29505-2817,United States of America,8436622130.0,foxs_pizza_den
2000015377,Pizza Hut,125 N Boulevard,LAKE CITY,SC,29560,United States of America,,pizza_hut
1000814163,Pizza Hut,3301 N Kings Hwy,MYRTLE BEACH,SC,29577-2927,United States of America,8436267418.0,pizza_hut
2000015902,Pizza Hut,80 S Kings Hwy,NORTH MYRTLE BEACH,SC,29582,United States of America,,pizza_hut
1000811083,Pizza Hut,2131 Woodruff Rd,GREENVILLE,SC,29607-5960,United States of America,,pizza_hut
2000200057,Papa Murphy's Take 'N' Bake Pizza,3935 Pelham Rd,GREENVILLE,SC,29615,United States of America,8642884441.0,papa_murphys_take_n_bake_pizza
1000948372,Sbarro,3131 N Main St,ANDERSON,SC,29621-2764,United States of America,8642254956.0,sbarro
1000814211,Pizza Hut,3319 N Main St,ANDERSON,SC,29621-4113,United States of America,,pizza_hut
1000818193,Pizza Hut,6146 Calhoun Memorial Hwy,EASLEY,SC,29640-3787,United States of America,,pizza_hut
1000824086,Pizza Inn,1020 S Pendleton St,EASLEY,SC,29642-1042,United States of America,8648558770.0,pizza_inn
1000810987,Pizza Hut,2113 Old Spartanburg Rd,GREER,SC,29650,United States of America,,pizza_hut
1000912213,Domino's Pizza,148 Highway 274,CLOVER,SC,29710,United States of America,8038317075.0,dominos_pizza
1000811028,Pizza Hut,212 S Van L Mungo Blvd,PAGELAND,SC,29728-1950,United States of America,8436752100.0,pizza_hut
1000865573,Fox's Pizza Den,4372 Bluffton Pkwy,BLUFFTON,SC,29910-4755,United States of America,8438363697.0,foxs_pizza_den
1000816281,Pizza Hut,458 William Hilton Pkwy,HILTON HEAD ISLAND,SC,29926-2426,United States of America,,pizza_hut
1000820607,Pizza Hut,8514 Holcomb Bridge Rd,ALPHARETTA,GA,30022-6813,United States of America,,pizza_hut
1000812197,Pizza Hut,2500 N Point Ct,ALPHARETTA,GA,30022-8223,United States of America,7706677400.0,pizza_hut
1000922530,Domino's Pizza,5330 Lilburn Stone Mountain Rd Sw,LILBURN,GA,30047-5313,United States of America,7709355555.0,dominos_pizza
1000812386,Pizza Hut,2565 E Piedmont Rd,MARIETTA,GA,30062-1733,United States of America,,pizza_hut
1000865432,Chuck E. Cheese's,4340 Roswell Rd,MARIETTA,GA,30062-6449,United States of America,7709710002.0,chuck_e_cheeses
2000242678,Little Caesars Pizza,2986 Johnson Ferry Rd,MARIETTA,GA,30062-8397,United States of America,7706454678.0,little_caesars_pizza
1000812588,Pizza Hut,2650 Dallas Hwy SW,MARIETTA,GA,30064-7508,United States of America,,pizza_hut
2000172563,Little Caesars Pizza,24 E Crossville Rd,ROSWELL,GA,30075-7683,United States of America,7705940964.0,little_caesars_pizza
1000818735,Pizza Hut,665d Holcomb Bridge Rd,ROSWELL,GA,30076,United States of America,,pizza_hut
1000812339,Pizza Hut,2542 Atlanta Rd SE,SMYRNA,GA,30080-2050,United States of America,,pizza_hut
2000242668,Little Caesars Pizza,2628 Pleasant Hill Rd,DULUTH,GA,30096,United States of America,6784175191.0,little_caesars_pizza
1000810780,Pizza Hut,2070 Pleasant Hill Rd,DULUTH,GA,30096-4659,United States of America,7704760637.0,pizza_hut
1000821539,Pizza Hut,9775 Medlock Bridge Rd,DULUTH,GA,30097-5986,United States of America,,pizza_hut
1000814098,Pizza Hut,3265 Cobb Pkwy NW,ACWORTH,GA,30101,United States of America,7709660555.0,pizza_hut
2000216141,Domino's Pizza,6192 Joe Frank Harris Pkwy NW,ADAIRSVILLE,GA,30103-2446,United States of America,7708775501.0,dominos_pizza
2000015398,Pizza Hut,1336 Hwy 113,CARTERSVILLE,GA,30120,United States of America,,pizza_hut
1000806233,Pizza Hut,1150 Veterans Memorial Hwy SW,MABLETON,GA,30126-3144,United States of America,,pizza_hut
1000809671,Pizza Hut,1808 Turner McCall Blvd SW,ROME,GA,30161-3327,United States of America,,pizza_hut
1000810996,Pizza Hut,2115 Shorter Ave SW,ROME,GA,30165-2017,United States of America,7062357420.0,pizza_hut
2000144456,Fox's Pizza Den,3672 Martha Berry Hwy NE,ROME,GA,30165-9702,United States of America,7062374992.0,foxs_pizza_den
2000303527,Villa Fresh Italian Kitchen,915 Ridgewalk Pkwy,WOODSTOCK,GA,30188-4896,United States of America,6785407040.0,villa_fresh_italian_kitchen
2000030766,Pizza Hut,4906 Bill Gardner Pkwy,LOCUST GROVE,GA,30248-3647,United States of America,,pizza_hut
1000813626,Pizza Hut,309a Jonesboro Rd,MCDONOUGH,GA,30253,United States of America,,pizza_hut
1000805616,Pizza Hut,1082 Highway 19 N,THOMASTON,GA,30286-2229,United States of America,7066483733.0,pizza_hut
1000806588,Pizza Hut,1203 Collier Rd NW,ATLANTA,GA,30318-2301,United States of America,,pizza_hut
1000812489,Pizza Hut,2608 Piedmont Rd NE,ATLANTA,GA,30324-3011,United States of America,,pizza_hut
1000949666,Sbarro,3393 Peachtree Rd NE,ATLANTA,GA,30326,United States of America,4042339138.0,sbarro
1000935269,Sbarro,1449 Cumberland Ct SE,ATLANTA,GA,30339,United States of America,7704358311.0,sbarro
1000810791,Pizza Hut,2078 Henderson Mill Rd NE,ATLANTA,GA,30345-3724,United States of America,,pizza_hut
1000810829,Pizza Hut,2090 Dunwoody Club Dr,ATLANTA,GA,30350-5406,United States of America,,pizza_hut
1000820494,Pizza Hut,839 Buckhead Dr,STATESBORO,GA,30458,United States of America,6202313390.0,pizza_hut
2000030450,Pizza Hut,1352 South Chestatee,DAHLONEGA,GA,30533,United States of America,,pizza_hut
1000920116,Domino's Pizza,400 Walmart Way,DAHLONEGA,GA,30533-0829,United States of America,7068643300.0,dominos_pizza
1000807722,Pizza Hut,1397 Prince Ave,ATHENS,GA,30606-2733,United States of America,,pizza_hut
1000810246,Pizza Hut,1970 Eatonton Rd,MADISON,GA,30650-4603,United States of America,7063422545.0,pizza_hut
1000811089,Pizza Hut,2135 E Walnut Ave,DALTON,GA,30721-4553,United States of America,,pizza_hut
1000805617,Pizza Hut,10820 Commerce St,SUMMERVILLE,GA,30747-1441,United States of America,,pizza_hut
1000920184,Domino's Pizza,149 S Pecan St,CORDELE,GA,31015,United States of America,2292730003.0,dominos_pizza
1000812852,Pizza Hut,279 N Lee St,FORSYTH,GA,31029-2164,United States of America,,pizza_hut
1000818589,Pizza Hut,650 S Wayne St,MILLEDGEVILLE,GA,31061-3906,United States of America,,pizza_hut
1000911548,Domino's Pizza,1356 S Harris St,SANDERSVILLE,GA,31082,United States of America,4785528884.0,dominos_pizza
1000819370,Pizza Hut,720 S Harris St,SANDERSVILLE,GA,31082-2826,United States of America,4785520711.0,pizza_hut
1000969063,Little Caesars Pizza,2063 Watson Blvd,WARNER ROBINS,GA,31093-3601,United States of America,4789225138.0,little_caesars_pizza
1000813134,Pizza Hut,2926 Riverside Dr,MACON,GA,31204-1244,United States of America,4784740468.0,pizza_hut
1000816267,Pizza Hut,4551 Billy Williamson Dr,MACON,GA,31206-8752,United States of America,,pizza_hut
2000183596,Marco's Pizza,2208 E De Renne Ave,SAVANNAH,GA,31406,United States of America,9123351230.0,marcos_pizza
1000808556,Pizza Hut,1545 E Montgomery Xrd,SAVANNAH,GA,31406-5055,United States of America,,pizza_hut
1000821094,Pizza Hut,912 S Pierce St,ALMA,GA,31510-3527,United States of America,,pizza_hut
2000015406,Pizza Hut,1351 E Boone Rd,KINGSLAND,GA,31548,United States of America,,pizza_hut
1000945238,Sbarro,2601 Dawson Rd,ALBANY,GA,31707-1631,United States of America,2298830550.0,sbarro
1000805340,Pizza Hut,1041 E Forsyth St,AMERICUS,GA,31709-3721,United States of America,,pizza_hut
1000882238,Fox's Pizza Den,810 Nicholson St,RICHLAND,GA,31825-1534,United States of America,2298870207.0,foxs_pizza_den
1000948371,Sbarro,3131 Manchester Expy,COLUMBUS,GA,31909,United States of America,7063220012.0,sbarro
2000030871,Pizza Hut,727 S Marion St,LAKE CITY,FL,32025,United States of America,,pizza_hut
1000925579,Domino's Pizza,801 Irvin Ave SW,LIVE OAK,FL,32064-3626,United States of America,3863622525.0,dominos_pizza
1000939799,Sbarro,1910 Wells Rd,ORANGE PARK,FL,32073,United States of America,9042697731.0,sbarro
2000015312,Pizza Hut,1050 Ponce De Leon Blvd,SAINT AUGUSTINE,FL,32084,United States of America,,pizza_hut
1000955744,Sbarro,500 Prime Outlets Blvd,SAINT AUGUSTINE,FL,32084-0399,United States of America,9048088598.0,sbarro
2000015822,Pizza Hut,101 S Stone St,BUNNELL,FL,32110-7608,United States of America,,pizza_hut
2000030682,Pizza Hut,3174 S Atlantic Ave,DAYTONA BEACH SHORES,FL,32118-6265,United States of America,,pizza_hut
1000819591,Pizza Hut,7403 103rd St,JACKSONVILLE,FL,32210-6710,United States of America,,pizza_hut
1000960838,Sbarro,6801 Roosevelt Blvd,JACKSONVILLE,FL,32212,United States of America,,sbarro
2000003326,Sbarro,2400 Yankee Clipper Dr,JACKSONVILLE,FL,32218,United States of America,,sbarro
2000015413,Pizza Hut,13799 Beach Blvd,JACKSONVILLE,FL,32224,United States of America,,pizza_hut
1000966664,Sbarro,9501 Arlington Expy,JACKSONVILLE,FL,32225,United States of America,9047257560.0,sbarro
2000242574,Little Caesars Pizza,1230 3rd St S,JACKSONVILLE BEACH,FL,32250-6410,United States of America,9043729187.0,little_caesars_pizza
1000805800,Pizza Hut,11018 Old Saint Augustine Rd,JACKSONVILLE,FL,32257-1025,United States of America,,pizza_hut
1000816186,Pizza Hut,450 State Road 13,FRUIT COVE,FL,32259-3861,United States of America,,pizza_hut
1000935796,Sbarro,1500 Apalachee Pkwy,TALLAHASSEE,FL,32301,United States of America,8508789370.0,sbarro
1000829919,CiCi's Pizza,1214 Capital Cir SE,TALLAHASSEE,FL,32301-3833,United States of America,8502162225.0,cicis_pizza
1000819626,Pizza Hut,745 Apalachee Pkwy,TALLAHASSEE,FL,32301-4534,United States of America,8508781124.0,pizza_hut
1000807809,Pizza Hut,1403 S Jefferson St,MONTICELLO,FL,32344-1637,United States of America,8509978533.0,pizza_hut
2000216124,Domino's Pizza,6641 N Highway 231,PANAMA CITY,FL,32404-1910,United States of America,8507849797.0,dominos_pizza
2000003334,Sbarro,2230 Martin Luther King Blvd,PANAMA CITY,FL,32405,United States of America,8507856602.0,sbarro
1000810323,Pizza Hut,2 N Old Corry Field Rd,PENSACOLA,FL,32507-1147,United States of America,8504552269.0,pizza_hut
2000009942,Domino's Pizza,1238 N Ferdon Blvd,CRESTVIEW,FL,32536-1752,United States of America,8506820008.0,dominos_pizza
1000815746,Pizza Hut,421 Racetrack Rd NE,FORT WALTON BEACH,FL,32547-3950,United States of America,8508624401.0,pizza_hut
2000015743,Pizza Hut,421A Racetrack Rd NE,FORT WALTON BEACH,FL,32547-3950,United States of America,,pizza_hut
2000030769,Pizza Hut,50 Holiday N Road,MIRAMAR BEACH,FL,32550,United States of America,,pizza_hut
1000816728,Pizza Hut,50 S Holiday Rd,MIRAMAR BEACH,FL,32550-8607,United States of America,8502692944.0,pizza_hut
1000947325,Sbarro,300 Mary Esther Cut Off,MARY ESTHER,FL,32569-1699,United States of America,8506642334.0,sbarro
1000902176,Hungry Howie's Pizza & Subs,4928 NW 39th Ave,GAINESVILLE,FL,32606-5946,United States of America,3523721112.0,hungry_howies_pizza_&_subs
2000051341,Marco's Pizza,4370 SW 20th Ave,GAINESVILLE,FL,32607-4200,United States of America,3523361236.0,marcos_pizza
1000810946,Pizza Hut,2109 NW 13th St,GAINESVILLE,FL,32609-3428,United States of America,,pizza_hut
1000954256,Sbarro,451 E Altamonte Dr,ALTAMONTE SPRINGS,FL,32701,United States of America,4073390098.0,sbarro
2000183578,Marco's Pizza,931 N State Road 434,ALTAMONTE SPRINGS,FL,32714,United States of America,4077861000.0,marcos_pizza
1000910372,Domino's Pizza,1200 Deltona Blvd,DELTONA,FL,32725-6364,United States of America,3868600300.0,dominos_pizza
2000003328,Sbarro,1819 W State Road 434,LONGWOOD,FL,32750,United States of America,,sbarro
2000003332,Sbarro,1510 Oviedo Marketplace Blvd,OVIEDO,FL,32765-7479,United States of America,4049770040.0,sbarro
1000944445,Sbarro,248 Towne Center Cir,SANFORD,FL,32771,United States of America,4073284959.0,sbarro
1000948733,Sbarro,3201 E Colonial Dr,ORLANDO,FL,32803-5167,United States of America,4078962340.0,sbarro
1000899405,Hungry Howie's Pizza & Subs,3424 Edgewater Dr,ORLANDO,FL,32804-3602,United States of America,4078391300.0,hungry_howies_pizza_&_subs
2000183581,Marco's Pizza,2942 Curry Ford Rd,ORLANDO,FL,32806-3330,United States of America,4078980777.0,marcos_pizza
2000027480,Little Caesars Pizza,7825 S Orange Blossom Trl,ORLANDO,FL,32809-6907,United States of America,4078578608.0,little_caesars_pizza
2000041417,California Pizza Kitchen,8001 S Orange Blossom Trl,ORLANDO,FL,32809-7695,United States of America,4078545741.0,california_pizza_kitchen
2000182607,Sbarro,1 Pegasus Circle Union Un,ORLANDO,FL,32816-0001,United States of America,4078232000.0,sbarro
1000820398,Pizza Hut,8255 International Dr,ORLANDO,FL,32819-9350,United States of America,,pizza_hut
2000033469,Pizza Hut,10395 Narcoossee Rd,ORLANDO,FL,32832,United States of America,,pizza_hut
1000965580,Papa John's Pizza,2430 Minton Rd,MELBOURNE,FL,32904,United States of America,3219537272.0,papa_johns_pizza
2000015889,Pizza Hut,7640 N Wickham Road,MELBOURNE,FL,32940,United States of America,,pizza_hut
1000821180,Pizza Hut,920 Us Highway 1,SEBASTIAN,FL,32958-8616,United States of America,,pizza_hut
1000818764,Pizza Hut,670 S US Highway 1,VERO BEACH,FL,32962,United States of America,7725620650.0,pizza_hut
1000816701,Pizza Hut,4975 W 12th Ave,HIALEAH,FL,33012-3114,United States of America,3055560741.0,pizza_hut
2000182546,Sbarro,11401 Pines Blvd,PEMBROKE PINES,FL,33026,United States of America,,sbarro
2000003329,Sbarro,2100 NW 42nd Ave,MIAMI,FL,33122,United States of America,,sbarro
2000025393,Domino's Pizza,827 Arthur Godfrey Rd,MIAMI BEACH,FL,33140-3304,United States of America,3055310303.0,dominos_pizza
1000820783,Pizza Hut,8825 S Dixie Hwy,MIAMI,FL,33156-1618,United States of America,,pizza_hut
2000303510,Villa Fresh Italian Kitchen,20505 S Dixie Hwy,CUTLER BAY,FL,33189-1229,United States of America,3057816137.0,villa_fresh_italian_kitchen
1000907701,Cozzoli's Pizzeria,20216 Old Cutler Rd,CUTLER BAY,FL,33189-1919,United States of America,3052547499.0,cozzolis_pizzeria
1000940645,Sbarro,200 Terminal Dr,FORT LAUDERDALE,FL,33315,United States of America,9543591500.0,sbarro
1000940646,Sbarro,300 Terminal Dr,FORT LAUDERDALE,FL,33315-3636,United States of America,9543591500.0,sbarro
2000030389,Pizza Hut,11316 W State Road 84,DAVIE,FL,33325-4000,United States of America,,pizza_hut
2000241874,Marco's Pizza,3325 S University Dr,DAVIE,FL,33328,United States of America,9545332214.0,marcos_pizza
2000241875,Marco's Pizza,9210 W Commercial Blvd,SUNRISE,FL,33351-4318,United States of America,9547410003.0,marcos_pizza
1000818486,Pizza Hut,640 Northlake Blvd,NORTH PALM BEACH,FL,33408-5309,United States of America,5618421876.0,pizza_hut
1000897804,Hungry Howie's Pizza & Subs,2835 N Military Trl,WEST PALM BEACH,FL,33409-2625,United States of America,5616157171.0,hungry_howies_pizza_&_subs
1000813037,Pizza Hut,2885 N Military Trl,WEST PALM BEACH,FL,33409-2920,United States of America,,pizza_hut
1000812234,Pizza Hut,2509 Okeechobee Blvd,WEST PALM BEACH,FL,33409-4005,United States of America,5616873992.0,pizza_hut
1000818668,Pizza Hut,6591 Forest Hill Blvd,GREENACRES,FL,33413-3390,United States of America,5614332225.0,pizza_hut
2000015415,Pizza Hut,13860 Wellington Trce,WELLINGTON,FL,33414,United States of America,,pizza_hut
1000898479,Hungry Howie's Pizza & Subs,3068 Lake Worth Rd,PALM SPRINGS,FL,33461-3632,United States of America,5612962500.0,hungry_howies_pizza_&_subs
1000819119,Pizza Hut,7041 Seacrest Blvd,LANTANA,FL,33462-5139,United States of America,5615865100.0,pizza_hut
2000225020,Papa Murphy's Take 'N' Bake Pizza,859 Lithia Pinecrest Rd,BRANDON,FL,33511-6193,United States of America,8136898090.0,papa_murphys_take_n_bake_pizza
1000854150,Little Caesars Pizza,2915 N Dale Mabry Hwy,TAMPA,FL,33607-2414,United States of America,8138711701.0,little_caesars_pizza
1000942863,Sbarro,2223 N West Shore Blvd,TAMPA,FL,33607-7223,United States of America,8138731772.0,sbarro
1000806574,Pizza Hut,1202 E Fowler Ave,TAMPA,FL,33612-5410,United States of America,,pizza_hut
1000932504,Sbarro,12302 University Mall Ct,TAMPA,FL,33612-5552,United States of America,8136315150.0,sbarro
1000808170,Pizza Hut,14799 N Dale Mabry Hwy,TAMPA,FL,33618-2025,United States of America,8139631512.0,pizza_hut
2000210843,Papa Murphy's Take 'N' Bake Pizza,5383 Ehrlich Rd,TAMPA,FL,33625,United States of America,8139603010.0,papa_murphys_take_n_bake_pizza
2000183427,Gattitown,1560 N McMullen Booth Rd,CLEARWATER,FL,33759-2595,United States of America,7277539982.0,gattitown
1000870335,CiCi's Pizza,5178 E Bay Dr,CLEARWATER,FL,33764-5720,United States of America,7275382424.0,cicis_pizza
1000965694,Sbarro,901 US Highway 27 N,SEBRING,FL,33870,United States of America,8634713390.0,sbarro
1000874010,Little Caesars Pizza,6015 Cypress Gardens Blvd,WINTER HAVEN,FL,33884-4115,United States of America,8633261807.0,little_caesars_pizza
1000889352,Hungry Howie's Pizza & Subs,105 State Road 64 E,ZOLFO SPRINGS,FL,33890-9641,United States of America,8637352100.0,hungry_howies_pizza_&_subs
1000816593,Pizza Hut,4891 Palm Beach Blvd,FORT MYERS,FL,33905-3280,United States of America,,pizza_hut
2000015349,Pizza Hut,11591 Gladiolus Dr,FORT MYERS,FL,33908-4562,United States of America,,pizza_hut
2000225019,Papa Murphy's Take 'N' Bake Pizza,4600 Summerlin Rd,FORT MYERS,FL,33919,United States of America,2392884522.0,papa_murphys_take_n_bake_pizza
1000816542,Pizza Hut,4828 Davis Blvd,NAPLES,FL,34104,United States of America,,pizza_hut
2000199971,Papa Murphy's Take 'N' Bake Pizza,4990 Golden Gate Pkwy,NAPLES,FL,34116-6962,United States of America,2394037272.0,papa_murphys_take_n_bake_pizza
1000814444,Pizza Hut,3441 Renaissance Dr,BONITA SPRINGS,FL,34134,United States of America,,pizza_hut
1000815793,Pizza Hut,4242 S Tamiami Trl,SARASOTA,FL,34231-3628,United States of America,9419219030.0,pizza_hut
2000172499,Little Caesars Pizza,17455 Tamiami Trl,NORTH PORT,FL,34287-7297,United States of America,9414291411.0,little_caesars_pizza
1000811730,Pizza Hut,2327 S Pine Ave,OCALA,FL,34471-5100,United States of America,3526223714.0,pizza_hut
1000814326,Pizza Hut,3394 SW College Rd,OCALA,FL,34474-4412,United States of America,,pizza_hut
2000199972,Papa Murphy's Take 'N' Bake Pizza,8402 Little Rd,NEW PORT RICHEY,FL,34654-4920,United States of America,7278151400.0,papa_murphys_take_n_bake_pizza
1000820213,Pizza Hut,811 County Road 1,PALM HARBOR,FL,34683-6305,United States of America,,pizza_hut
1000966477,Sbarro,9401 W Colonial Dr,OCOEE,FL,34761,United States of America,4072948297.0,sbarro
1000929266,Sbarro,10401 US Highway 441,LEESBURG,FL,34788-7244,United States of America,3527288887.0,sbarro
1000813854,Pizza Hut,3177 NW Federal Hwy,JENSEN BEACH,FL,34957-4449,United States of America,7726921627.0,pizza_hut
1000898994,Hungry Howie's Pizza & Subs,3248 US Highway 441 S,OKEECHOBEE,FL,34974,United States of America,8634672222.0,hungry_howies_pizza_&_subs
2000015316,Pizza Hut,10631 Highway 5,BRENT,AL,35034-3908,United States of America,,pizza_hut
1000845165,Fox's Pizza Den,209 Cogswell Ave,PELL CITY,AL,35125,United States of America,2053385400.0,foxs_pizza_den
1000821929,Pizza Hut,Sumiton Square Shpg Center,SUMITON,AL,35148,United States of America,2056488600.0,pizza_hut
2000015969,Pizza Hut,U S Hwy 78 West,SUMITON,AL,35148,United States of America,,pizza_hut
1000807223,Pizza Hut,1301 Bessemer Super Hwy,BIRMINGHAM,AL,35208,United States of America,,pizza_hut
2000199905,Papa Murphy's Take 'N' Bake Pizza,437 Green Springs Hwy,BIRMINGHAM,AL,35209-4901,United States of America,2057699445.0,papa_murphys_take_n_bake_pizza
2000147044,Hungry Howie's Pizza & Subs,790 Montgomery Hwy,VESTAVIA,AL,35216-1873,United States of America,2058247600.0,hungry_howies_pizza_&_subs
1000805293,Pizza Hut,1037 Montgomery Hwy,VESTAVIA,AL,35216-2805,United States of America,2058226790.0,pizza_hut
1000812613,Pizza Hut,2670 Valleydale Rd,BIRMINGHAM,AL,35244,United States of America,,pizza_hut
1000940685,Sbarro,2000 Riverchase Galleria,BIRMINGHAM,AL,35244-2308,United States of America,2059853203.0,sbarro
2000182551,Sbarro,2000 Riverchase Galleria,HOOVER,AL,35244-2319,United States of America,,sbarro
2000147046,Hungry Howie's Pizza & Subs,1211 University Blvd,TUSCALOOSA,AL,35401-1629,United States of America,2053661500.0,hungry_howies_pizza_&_subs
2000012584,Little Caesars Pizza,1414 10th Ave,TUSCALOOSA,AL,35401-3304,United States of America,2053662220.0,little_caesars_pizza
1000937950,Sbarro,1701 McFarland Blvd E,TUSCALOOSA,AL,35404,United States of America,2055569811.0,sbarro
1000817339,Pizza Hut,537 US Highway 80 E,TUSCALOOSA,AL,35405,United States of America,,pizza_hut
2000242515,Sbarro,301 Cox Creek Pkwy,FLORENCE,AL,35630-9903,United States of America,2567602292.0,sbarro
1000958421,Sbarro,5901 University Dr NW,HUNTSVILLE,AL,35806-2528,United States of America,2568309826.0,sbarro
1000836454,Little Caesars Pizza,1525 Chesnut Byp,CENTRE,AL,35960-9300,United States of America,2569278088.0,little_caesars_pizza
2000222069,CheeZies Pizza,1113 Perry Hill Rd,MONTGOMERY,AL,36109,United States of America,3342399263.0,cheezies_pizza
1000969455,Domino's Pizza,3351 Atlanta Hwy,MONTGOMERY,AL,36109-2746,United States of America,3342776666.0,dominos_pizza
1000818211,Pizza Hut,616 E Patton Ave,MONTGOMERY,AL,36111-2406,United States of America,9282651842.0,pizza_hut
1000813473,Pizza Hut,3030 Woodley Rd,MONTGOMERY,AL,36116-3149,United States of America,9282883037.0,pizza_hut
1000933088,Sbarro,1276 Eastdale Mall,MONTGOMERY,AL,36117-2154,United States of America,3342729804.0,sbarro
2000050959,CheeZies Pizza,8125 Decker Ln,MONTGOMERY,AL,36117-4258,United States of America,3342449496.0,cheezies_pizza
2000003303,Sbarro,700 Quintard Dr,OXFORD,AL,36203-1866,United States of America,2568324566.0,sbarro
2000030669,Pizza Hut,3019 Highway 431,ROANOKE,AL,36274-1738,United States of America,,pizza_hut
1000870394,Fox's Pizza Den,5192 W State Highway 52,TAYLOR,AL,36305-9185,United States of America,3347924047.0,foxs_pizza_den
2000216099,Domino's Pizza,35 Highway 84 W,DALEVILLE,AL,36322-9110,United States of America,3345039943.0,dominos_pizza
1000805320,Pizza Hut,104 S US Highway 231,OZARK,AL,36360,United States of America,,pizza_hut
1000821874,Pizza Hut,286 Highway 83,EVERGREEN,AL,36401-1412,United States of America,2515781411.0,pizza_hut
2000015465,Pizza Hut,2060 S Highway 21 Byp,MONROEVILLE,AL,36460-3028,United States of America,,pizza_hut
2000132299,Pizza Inn,617 Celeste Rd,SARALAND,AL,36571-2012,United States of America,2516751002.0,pizza_inn
1000812459,Pizza Hut,2601 Dauphin Island Pkwy,MOBILE,AL,36605-3408,United States of America,,pizza_hut
2000030544,Pizza Hut,1866 Government St,MOBILE,AL,36606,United States of America,,pizza_hut
2000015753,Pizza Hut,4354B Old Shell Rd,MOBILE,AL,36608,United States of America,,pizza_hut
1000925325,Domino's Pizza,7765 Airport Blvd,MOBILE,AL,36608-5037,United States of America,2514600852.0,dominos_pizza
1000814449,Pizza Hut,3445 Saint Stephens Rd,MOBILE,AL,36612-1238,United States of America,2514520254.0,pizza_hut
2000030881,Pizza Hut,7745 Moffett Rd,MOBILE,AL,36618-4137,United States of America,,pizza_hut
1000817341,Pizza Hut,5375 Highway 90 W,MOBILE,AL,36619-4205,United States of America,2516613545.0,pizza_hut
1000812191,Pizza Hut,2500 Highway 82 Byp,DEMOPOLIS,AL,36732,United States of America,2057584888.0,pizza_hut
1000827801,Fox's Pizza Den,1135 Bell Rd,ANTIOCH,TN,37013-3778,United States of America,6157318911.0,foxs_pizza_den
1000805527,Pizza Hut,107 Mathis Dr,DICKSON,TN,37055-2085,United States of America,,pizza_hut
2000051803,Gatti's Pizza,532 Highway 46 S,DICKSON,TN,37055-2526,United States of America,6154467474.0,gattis_pizza
1000815010,Pizza Hut,382 Sumner Hall Dr,GALLATIN,TN,37066-3129,United States of America,6154524833.0,pizza_hut
1000928197,Sbarro,1000 Rivergate Pkwy,GOODLETTSVILLE,TN,37072-2410,United States of America,6158510821.0,sbarro
2000030507,Pizza Hut,1645 W Main St,LEBANON,TN,37087-3375,United States of America,,pizza_hut
1000820295,Pizza Hut,817 S Cumberland St,LEBANON,TN,37087-4111,United States of America,6154441786.0,pizza_hut
2000196582,Pizza Inn,1051 Murfreesboro Rd,LEBANON,TN,37090-5354,United States of America,6154446828.0,pizza_inn
2000200074,Papa Murphy's Take 'N' Bake Pizza,241 Northgate Dr,MCMINNVILLE,TN,37110,United States of America,9314747272.0,papa_murphys_take_n_bake_pizza
2000222064,CheeZies Pizza,2658 New Salem Hwy,MURFREESBORO,TN,37128,United States of America,6159001045.0,cheezies_pizza
1000805958,Pizza Hut,1114 Mercury Blvd,MURFREESBORO,TN,37130-4811,United States of America,,pizza_hut
2000030707,Pizza Hut,361 N Lowry Ave,SMYRNA,TN,37167,United States of America,,pizza_hut
1000815534,Pizza Hut,4104 Dayton Blvd,RED BANK,TN,37415-7155,United States of America,4238702770.0,pizza_hut
2000015649,Pizza Hut,2920 N Roan St,JOHNSON CITY,TN,37601-1508,United States of America,,pizza_hut
1000925117,Domino's Pizza,752 N Charles G Seivers Blvd,CLINTON,TN,37716-3841,United States of America,8654630700.0,dominos_pizza
1000805316,Pizza Hut,104 Martin St,KINGSTON,TN,37763-2529,United States of America,8653762300.0,pizza_hut
1000867181,Little Caesars Pizza,467 S Davy Crockett Pkwy,MORRISTOWN,TN,37813-1995,United States of America,4235817552.0,little_caesars_pizza
2000051810,Gatti's Pizza,100 Wilson St,OAK RIDGE,TN,37830-6732,United States of America,8654818383.0,gattis_pizza
2000051811,Gatti's Pizza,1431 Parkway,SEVIERVILLE,TN,37862-2846,United States of America,8654288817.0,gattis_pizza
1000853827,CiCi's Pizza,2885 Tazewell Pike,KNOXVILLE,TN,37918-1837,United States of America,8652812255.0,cicis_pizza
1000883416,CiCi's Pizza,8414 Kingston Pike,KNOXVILLE,TN,37919-5351,United States of America,8656945060.0,cicis_pizza
1000947457,Sbarro,3001 Knoxville Center Dr,KNOXVILLE,TN,37924-5046,United States of America,8656371616.0,sbarro
2000051806,Gatti's Pizza,7600 Oak Ridge Hwy,KNOXVILLE,TN,37931-3335,United States of America,8656941180.0,gattis_pizza
2000051804,Gatti's Pizza,11683 Parkside Dr,FARRAGUT,TN,37934-2660,United States of America,8652883246.0,gattis_pizza
1000886154,CiCi's Pizza,930 W Poplar Ave,COLLIERVILLE,TN,38017-2583,United States of America,9018544030.0,cicis_pizza
1000809547,Pizza Hut,1788 Madison Ave,MEMPHIS,TN,38104-2642,United States of America,9012784530.0,pizza_hut
1000810229,Pizza Hut,1961 Union Ave,MEMPHIS,TN,38104-4030,United States of America,9017229407.0,pizza_hut
2000198819,Villa Fresh Italian Kitchen,2491 Winchester Rd,MEMPHIS,TN,38116,United States of America,9013442385.0,villa_fresh_italian_kitchen
1000819859,Pizza Hut,780 University St,MARTIN,TN,38237-2043,United States of America,,pizza_hut
1000821121,Pizza Hut,915 Mineral Wells Ave,PARIS,TN,38242-4901,United States of America,,pizza_hut
1000887544,CiCi's Pizza,99 Old Hickory Blvd,JACKSON,TN,38305-2590,United States of America,7316683333.0,cicis_pizza
1000816265,Pizza Hut,455 W Church St,LEXINGTON,TN,38351-2079,United States of America,7319679100.0,pizza_hut
1000816363,Pizza Hut,467 Mulberry Ave,SELMER,TN,38375-2307,United States of America,,pizza_hut
1000805064,Pizza Hut,1010 S Jefferson Ave,COOKEVILLE,TN,38501,United States of America,9315267060.0,pizza_hut
2000030823,Pizza Hut,620 S State,CLARKSDALE,MS,38614,United States of America,,pizza_hut
1000927484,Domino's Pizza,PO Box 236,OLIVE BRANCH,MS,38654-0236,United States of America,6624493468.0,dominos_pizza
2000183091,Papa John's Pizza,1832 Highway 1 N,GREENVILLE,MS,38703,United States of America,6623328115.0,papa_johns_pizza
1000821794,Pizza Hut,Hwy 61 N,CLEVELAND,MS,38732,United States of America,6628436111.0,pizza_hut
1000820980,Pizza Hut,903 Oak St,CLEVELAND,MS,38732-2572,United States of America,6628439500.0,pizza_hut
1000805179,Pizza Hut,1020 Highway 51,MADISON,MS,39110,United States of America,6019561000.0,pizza_hut
2000144474,Fox's Pizza Den,275 11th Ave SW,MAGEE,MS,39111-3553,United States of America,6018495589.0,foxs_pizza_den
1000931868,Sbarro,1200 E County Line Rd,RIDGELAND,MS,39157-1944,United States of America,6019779956.0,sbarro
1000815606,Pizza Hut,413 Riverwind Dr,PEARL,MS,39208-5917,United States of America,,pizza_hut
1000808949,Pizza Hut,1625 E County Line Rd,JACKSON,MS,39211,United States of America,,pizza_hut
1000812035,Pizza Hut,2430 Bailey Ave,JACKSON,MS,39213-6901,United States of America,,pizza_hut
2000144476,Fox's Pizza Den,655 Highway 49 S,RICHLAND,MS,39218-8427,United States of America,6019392663.0,foxs_pizza_den
1000812995,Pizza Hut,2847 Lakeland Dr,FLOWOOD,MS,39232-8858,United States of America,,pizza_hut
2000030625,Pizza Hut,2515 N Hill Street,MERIDIAN,MS,39301,United States of America,,pizza_hut
1000928151,Sbarro,1000 Bonita Lakes Cir,MERIDIAN,MS,39301-6972,United States of America,6015530570.0,sbarro
1000807888,Pizza Hut,1410 N 31st Ave,HATTIESBURG,MS,39401,United States of America,,pizza_hut
1000814855,Pizza Hut,3704 Highway 15 N,LAUREL,MS,39440-1447,United States of America,6016495806.0,pizza_hut
1000952907,Papa John's Pizza,416 Highway 42,PETAL,MS,39465-2885,United States of America,6015827233.0,papa_johns_pizza
2000144448,Fox's Pizza Den,12449 Highway 49,GULFPORT,MS,39503-2983,United States of America,2282067667.0,foxs_pizza_den
2000015313,Pizza Hut,10585 Three Rivers Rd,GULFPORT,MS,39503-3572,United States of America,,pizza_hut
2000183090,Papa John's Pizza,819 Highway 90,GAUTIER,MS,39553-5503,United States of America,2284974545.0,papa_johns_pizza
2000030421,Pizza Hut,1227 W Central Ave,WIGGINS,MS,39577,United States of America,,pizza_hut
1000814367,Pizza Hut,3403 Denny Ave,PASCAGOULA,MS,39581-5414,United States of America,2287692164.0,pizza_hut
2000030891,Pizza Hut,800 Highway 45 N,WEST POINT,MS,39773-7700,United States of America,,pizza_hut
1000818849,Pizza Hut,680 W Main St,LEBANON,KY,40033-1341,United States of America,,pizza_hut
1000819084,Pizza Hut,702 S Dixie Hwy,MULDRAUGH,KY,40155-1208,United States of America,5029426680.0,pizza_hut
2000003381,Sbarro,4801 Outer Loop,LOUISVILLE,KY,40219-3255,United States of America,5029682438.0,sbarro
2000182569,Sbarro,41803 S Hurstbourne Pkwy,LOUISVILLE,KY,40220,United States of America,5024996658.0,sbarro
2000051769,Gatti's Pizza,1108 Lyndon Ln,LOUISVILLE,KY,40222-4318,United States of America,5023398338.0,gattis_pizza
2000030600,Pizza Hut,2214 Holiday Manor Ctr,LOUISVILLE,KY,40222-6431,United States of America,,pizza_hut
1000816662,Pizza Hut,4933 Brownsboro Rd,LOUISVILLE,KY,40222-6465,United States of America,5024251003.0,pizza_hut
1000966913,Sbarro,9700 Preston Crossing Blvd,OKOLONA,KY,40229-1278,United States of America,,sbarro
2000143993,Old Chicago Pizza & Taproom,10601 Fischer Park Dr,LOUISVILLE,KY,40241-4138,United States of America,5026575700.0,old_chicago_pizza_&_taproom
2000051767,Gatti's Pizza,10035 Dixie Hwy,LOUISVILLE,KY,40272-3945,United States of America,5029350100.0,gattis_pizza
2000033462,Pizza Hut,102 N Bradford Ln,GEORGETOWN,KY,40324-2337,United States of America,5028639595.0,pizza_hut
1000829692,CiCi's Pizza,121 Bryant Dr,NICHOLASVILLE,KY,40356-8058,United States of America,8598850666.0,cicis_pizza
2000241888,Marco's Pizza,134 Bellerive Blvd,NICHOLASVILLE,KY,40356-8116,United States of America,8592230304.0,marcos_pizza
1000836990,CiCi's Pizza,1560 Hustonville Rd,DANVILLE,KY,40422-2460,United States of America,8599361616.0,cicis_pizza
2000015963,Pizza Hut,Interstate 75 & Highway 25,MOUNT VERNON,KY,40456,United States of America,,pizza_hut
2000030728,Pizza Hut,410 E New Circle Rd,LEXINGTON,KY,40505-2619,United States of America,,pizza_hut
1000832361,CiCi's Pizza,1315 Winchester Rd,LEXINGTON,KY,40505-4129,United States of America,8592461116.0,cicis_pizza
1000815650,Pizza Hut,4157 Tates Creek Centre Dr,LEXINGTON,KY,40517,United States of America,8592711515.0,pizza_hut
1000810142,Pizza Hut,193 Versailles Rd,FRANKFORT,KY,40601-3263,United States of America,,pizza_hut
1000806922,Pizza Hut,1241 Us Highway 127 S,FRANKFORT,KY,40601-4352,United States of America,,pizza_hut
1000812167,Pizza Hut,25 E Byp,CORBIN,KY,40701,United States of America,,pizza_hut
1000809625,Pizza Hut,1802 N Main St,LONDON,KY,40741-4015,United States of America,6068644000.0,pizza_hut
1000925151,Domino's Pizza,756 Route 1,YARMOUTH,ME,4096,United States of America,2078466911.0,dominos_pizza
1000810315,Pizza Hut,1999 Dixie Hwy,FT WRIGHT,KY,41011-2607,United States of America,8593319777.0,pizza_hut
1000820879,Pizza Hut,90 Blackburn Ln,DRY RIDGE,KY,41035-8800,United States of America,8598240188.0,pizza_hut
1000941137,Sbarro,2080 Florence Mall,FLORENCE,KY,41042-1443,United States of America,8593718015.0,sbarro
1000951404,Sbarro,383 Maine Mall Rd,SOUTH PORTLAND,ME,4106,United States of America,2077721144.0,sbarro
1000812938,Pizza Hut,2816 Winchester Ave,ASHLAND,KY,41101-1931,United States of America,6063254445.0,pizza_hut
1000814935,Pizza Hut,376 Diederich Blvd,ASHLAND,KY,41101-7008,United States of America,6063249989.0,pizza_hut
1000821971,Pizza Hut,Us Hwy 23 Falls Creek Box 330,LOUISA,KY,41230,United States of America,6066380400.0,pizza_hut
1000811339,Pizza Hut,221 N Mayo Trl,PAINTSVILLE,KY,41240-1803,United States of America,,pizza_hut
1000811585,Pizza Hut,228 S Mayo Trl,PIKEVILLE,KY,41501,United States of America,,pizza_hut
1000815375,Pizza Hut,4031 N Mayo Trl,PIKEVILLE,KY,41501-3212,United States of America,6064324193.0,pizza_hut
1000806316,Pizza Hut,1168 N Lake Dr,PRESTONSBURG,KY,41653,United States of America,,pizza_hut
1000808053,Pizza Hut,1442 Combs Rd,HAZARD,KY,41701-6863,United States of America,6064395891.0,pizza_hut
1000819124,Pizza Hut,705 Cumberland Rd,WHITESBURG,KY,41858,United States of America,,pizza_hut
2000051775,Gatti's Pizza,3001 Irvin Cobb Dr,PADUCAH,KY,42003-0332,United States of America,2705754505.0,gattis_pizza
1000812906,Pizza Hut,2805 Lone Oak Rd,PADUCAH,KY,42003-8032,United States of America,2705541333.0,pizza_hut
2000051756,Gatti's Pizza,600 US 31W Byp,BOWLING GREEN,KY,42101-4906,United States of America,2703930333.0,gattis_pizza
2000199996,Papa Murphy's Take 'N' Bake Pizza,2715 Fort Campbell Blvd,HOPKINSVILLE,KY,42240-4958,United States of America,2708869600.0,papa_murphys_take_n_bake_pizza
1000821066,Pizza Hut,910 N Main St,GREENVILLE,KY,42345-1790,United States of America,2703386467.0,pizza_hut
1000805231,Pizza Hut,1027 Us Highway 60 E,MORGANFIELD,KY,42437-6604,United States of America,2703890503.0,pizza_hut
2000015552,Pizza Hut,1990 N Main St,MONTICELLO,KY,42633-2909,United States of America,,pizza_hut
1000815212,Pizza Hut,399 Campbellsville Byp,CAMPBELLSVILLE,KY,42718-8848,United States of America,,pizza_hut
1000956054,Sbarro,5043 Tuttle Crossing Blvd,DUBLIN,OH,43016-1523,United States of America,6143369520.0,sbarro
1000818785,Pizza Hut,6716 Perimeter Loop Rd,DUBLIN,OH,43017-3202,United States of America,6147609219.0,pizza_hut
1000904633,Papa Murphy's Take 'N' Bake Pizza,6704 Perimeter Loop Rd,DUBLIN,OH,43017-3214,United States of America,6147917000.0,papa_murphys_take_n_bake_pizza
2000025161,Domino's Pizza,118 E Main St,HEBRON,OH,43025,United States of America,7409283030.0,dominos_pizza
1000963049,Sbarro,771 S 30th St,HEATH,OH,43056-1285,United States of America,7405226443.0,sbarro
1000923701,Domino's Pizza,620 N Main St,BALTIMORE,OH,43105-1244,United States of America,7408620033.0,dominos_pizza
1000812142,Pizza Hut,24865 US Highway 23 S,CIRCLEVILLE,OH,43113-9189,United States of America,7404743111.0,pizza_hut
1000937388,Sbarro,1635 River Valley Cir S,LANCASTER,OH,43130-1465,United States of America,7406549809.0,sbarro
1000969172,Little Caesars Pizza,238 Lafayette St,LONDON,OH,43140-9059,United States of America,7408522126.0,little_caesars_pizza
1000956544,Papa John's Pizza,5181 N High St,COLUMBUS,OH,43214-1201,United States of America,6148887997.0,papa_johns_pizza
2000242516,Sbarro,793 W State St,COLUMBUS,OH,43222-1551,United States of America,6148243834.0,sbarro
1000953285,Sbarro,4249 Eastland Mall,COLUMBUS,OH,43232,United States of America,6148681561.0,sbarro
1000838705,CiCi's Pizza,1677 Marion Mount Gilead Rd,MARION,OH,43302-5913,United States of America,7403862191.0,cicis_pizza
1000807089,Pizza Hut,1277 Delaware Ave,MARION,OH,43302-6419,United States of America,6143892334.0,pizza_hut
1000821922,Pizza Hut,Spring Meadows Place Shpg Cntr,HOLLAND,OH,43528,United States of America,4198662510.0,pizza_hut
1000940788,Sbarro,2005 Hollenbeck Dr,PERRYSBURG,OH,43551-7137,United States of America,,sbarro
2000047753,Figaro's Pizza,9915 US Highway 127,SHERWOOD,OH,43556-9001,United States of America,4198993333.0,figaros_pizza
1000817738,Pizza Hut,5810 Monroe St,SYLVANIA,OH,43560-2279,United States of America,,pizza_hut
1000817158,Pizza Hut,523 E Manhattan Blvd,TOLEDO,OH,43608-1270,United States of America,4197297149.0,pizza_hut
1000810209,Pizza Hut,1954 W Laskey Rd,TOLEDO,OH,43613-3528,United States of America,,pizza_hut
1000817072,Pizza Hut,5155 Glendale Ave,TOLEDO,OH,43614-1801,United States of America,,pizza_hut
1000814220,Pizza Hut,3320 Glendale Ave,TOLEDO,OH,43614-2425,United States of America,,pizza_hut
1000810974,Pizza Hut,2111 N Reynolds Rd,TOLEDO,OH,43615,United States of America,4195357772.0,pizza_hut
1000814005,Pizza Hut,3220 Navarre Ave,OREGON,OH,43616-4340,United States of America,4196915173.0,pizza_hut
1000812292,Pizza Hut,2523 Oregon Rd,NORTHWOOD,OH,43619-1001,United States of America,4196629450.0,pizza_hut
1000812625,Pizza Hut,2680 Woodville Rd,NORTHWOOD,OH,43619-1446,United States of America,,pizza_hut
2000182573,Sbarro,5001 Monroe St,TOLEDO,OH,43623-3626,United States of America,,sbarro
1000809803,Pizza Hut,1835 Maple Ave,ZANESVILLE,OH,43701-2235,United States of America,,pizza_hut
2000015433,Pizza Hut,143 N Maysville Ave,ZANESVILLE,OH,43701-6112,United States of America,7404544883.0,pizza_hut
1000830335,Fox's Pizza Den,123 E Main St,BARNESVILLE,OH,43713-1005,United States of America,7404259222.0,foxs_pizza_den
2000009954,Domino's Pizza,13400 Maple Ln,NEW CONCORD,OH,43762-9001,United States of America,7408263030.0,dominos_pizza
2000010029,Domino's Pizza,100 S Main St,ANDOVER,OH,44003,United States of America,4402938001.0,dominos_pizza
1000813308,Pizza Hut,3002 Oberlin Ave,LORAIN,OH,44052-4563,United States of America,4402823500.0,pizza_hut
1000815666,Pizza Hut,4175 E Lake Rd,SHEFFIELD LAKE,OH,44054-1101,United States of America,,pizza_hut
2000051360,Marco's Pizza,901 E Aurora Rd,MACEDONIA,OH,44056-1905,United States of America,3304680999.0,marcos_pizza
1000808780,Pizza Hut,16015 Lake Shore Blvd,CLEVELAND,OH,44110-1059,United States of America,2165244444.0,pizza_hut
1000814953,Pizza Hut,3788 Rocky River Dr,CLEVELAND,OH,44111-4050,United States of America,,pizza_hut
1000809797,Pizza Hut,18324 Euclid Ave,CLEVELAND,OH,44112-1015,United States of America,,pizza_hut
1000807610,Pizza Hut,13609 Euclid Ave,EAST CLEVELAND,OH,44112-4217,United States of America,2165244444.0,pizza_hut
1000811158,Pizza Hut,21581 Center Ridge Rd,ROCKY RIVER,OH,44116,United States of America,2165244444.0,pizza_hut
1000807421,Pizza Hut,13216 Cedar Rd,CLEVELAND HEIGHTS,OH,44118-2918,United States of America,,pizza_hut
1000809074,Pizza Hut,16712 Chagrin Blvd,SHAKER HEIGHTS,OH,44120-3722,United States of America,,pizza_hut
1000812804,Pizza Hut,27520 Chagrin Blvd,BEACHWOOD,OH,44122-4424,United States of America,,pizza_hut
1000811501,Pizza Hut,22402 Lake Shore Blvd,EUCLID,OH,44123-1313,United States of America,,pizza_hut
1000817707,Pizza Hut,5780 Mayfield Rd,MAYFIELD HEIGHTS,OH,44124-2920,United States of America,4404601088.0,pizza_hut
2000172977,Little Caesars Pizza,5766 Mayfield Rd,MAYFIELD HEIGHTS,OH,44124-2920,United States of America,4404616600.0,little_caesars_pizza
1000816361,Pizza Hut,4666 Turney Rd,GARFIELD HEIGHTS,OH,44125-1443,United States of America,2164412300.0,pizza_hut
1000811666,Pizza Hut,23041 Emery Rd,WARRENSVILLE HEIGHTS,OH,44128,United States of America,2165244444.0,pizza_hut
1000963102,Sbarro,7753 W Ridgewood Dr,PARMA,OH,44129,United States of America,4408861470.0,sbarro
1000817210,Pizza Hut,5262 Pearl Rd,PARMA,OH,44129-1505,United States of America,,pizza_hut
1000805576,Pizza Hut,10750 Brookpark Rd,CLEVELAND,OH,44130-1117,United States of America,,pizza_hut
1000818750,Pizza Hut,6681 W 130th St,PARMA HEIGHTS,OH,44130-3612,United States of America,2165244444.0,pizza_hut
1000819703,Pizza Hut,7581 Broadview Rd,SEVEN HILLS,OH,44131-5701,United States of America,,pizza_hut
1000812472,Pizza Hut,26010 Euclid Ave,EUCLID,OH,44132-2702,United States of America,2165244444.0,pizza_hut
1000818477,Pizza Hut,6391 Royalton Rd,NORTH ROYALTON,OH,44133-4922,United States of America,,pizza_hut
1000817631,Pizza Hut,5690 Broadview Rd,PARMA,OH,44134-1695,United States of America,,pizza_hut
1000956900,Sbarro,5300 River Drive,CLEVELAND,OH,44135,United States of America,,sbarro
1000812729,Pizza Hut,27155 Detroit Rd,WESTLAKE,OH,44145-2375,United States of America,,pizza_hut
1000810249,Pizza Hut,19700 Rockside Rd,BEDFORD,OH,44146-2084,United States of America,4407862911.0,pizza_hut
1000821144,Pizza Hut,9160 State Route 14,STREETSBORO,OH,44241-5686,United States of America,,pizza_hut
1000966277,Sbarro,9250 Limeridge Rd,MANTUA,OH,44255,United States of America,3302981596.0,sbarro
2000182592,Sbarro,9520 Limeridge Rd,MANTUA,OH,44255,United States of America,3302977534.0,sbarro
1000817273,Pizza Hut,532 E Market St,AKRON,OH,44304-1658,United States of America,,pizza_hut
1000815111,Pizza Hut,3903 Belmont Ave,YOUNGSTOWN,OH,44505-1409,United States of America,,pizza_hut
1000811144,Pizza Hut,2151 Wales Ave NW,MASSILLON,OH,44646-2301,United States of America,3308376777.0,pizza_hut
1000806828,Pizza Hut,1227 4th St NW,NEW PHILADELPHIA,OH,44663-1203,United States of America,,pizza_hut
1000864367,Fox's Pizza Den,4195 Massillon Rd,UNIONTOWN,OH,44685-8713,United States of America,3308960100.0,foxs_pizza_den
1000922406,Domino's Pizza,523 S Main St,MANSFIELD,OH,44907-5006,United States of America,4195221000.0,dominos_pizza
1000810666,Pizza Hut,2039 S Erie Hwy,HAMILTON,OH,45011-4123,United States of America,,pizza_hut
2000015647,Pizza Hut,2916-4 Us 22 &amp; 3,MAINEVILLE,OH,45039,United States of America,,pizza_hut
1000817155,Pizza Hut,5226 Kings Mills Rd,MASON,OH,45040-2319,United States of America,,pizza_hut
1000807475,Pizza Hut,1330 S Breiel Blvd,MIDDLETOWN,OH,45044-6206,United States of America,5134242557.0,pizza_hut
2000182571,Sbarro,500 Rivers Edge,MILFORD,OH,45150-1490,United States of America,,sbarro
1000806789,Pizza Hut,1222 State Route 28,MILFORD,OH,45150-2267,United States of America,,pizza_hut
1000821632,Pizza Hut,995 Rombach Ave,WILMINGTON,OH,45177-1976,United States of America,,pizza_hut
2000012690,Little Caesars Pizza,3880 Paxton Ave,CINCINNATI,OH,45209-2372,United States of America,5133211615.0,little_caesars_pizza
2000242533,Little Caesars Pizza,1001 Springfield Pike,CINCINNATI,OH,45215,United States of America,5137715444.0,little_caesars_pizza
1000804768,Pizza Hut,1 W Corry St,CINCINNATI,OH,45219-3923,United States of America,5137512404.0,pizza_hut
1000818102,Pizza Hut,6096 Cleves Warsaw Pike,CINCINNATI,OH,45233-4935,United States of America,,pizza_hut
1000819797,Pizza Hut,7714 Montgomery Rd,CINCINNATI,OH,45236-4293,United States of America,,pizza_hut
1000817714,Pizza Hut,5790 Colerain Ave,CINCINNATI,OH,45239-6714,United States of America,,pizza_hut
1000805583,Pizza Hut,10765 Reading Rd,CINCINNATI,OH,45241-2569,United States of America,,pizza_hut
1000817698,Pizza Hut,5770 Harrison Ave,CINCINNATI,OH,45248-1602,United States of America,,pizza_hut
1000806184,Pizza Hut,11424 Montgomery Rd,CINCINNATI,OH,45249-2362,United States of America,,pizza_hut
1000821619,Pizza Hut,9920 Colerain Ave,CINCINNATI,OH,45251-1431,United States of America,,pizza_hut
1000820480,Pizza Hut,8355 Beechmont Ave,CINCINNATI,OH,45255-3141,United States of America,,pizza_hut
2000242721,Little Caesars Pizza,4447 W Franklin St,BELLBROOK,OH,45305,United States of America,9373101283.0,little_caesars_pizza
1000816154,Pizza Hut,448 S Main St,ENGLEWOOD,OH,45322-1322,United States of America,,pizza_hut
1000818069,Pizza Hut,607 Taywood Rd,ENGLEWOOD,OH,45322-1819,United States of America,9378368100.0,pizza_hut
1000819527,Pizza Hut,732 Sweitzer St,GREENVILLE,OH,45331-1006,United States of America,,pizza_hut
2000003481,Sbarro,3600 Terminal Rd,VANDALIA,OH,45377,United States of America,,sbarro
1000805202,Pizza Hut,1023 N Gettysburg Ave,DAYTON,OH,45417-1502,United States of America,9372680174.0,pizza_hut
1000810253,Pizza Hut,1975 Harshman Rd,DAYTON,OH,45424-5021,United States of America,,pizza_hut
1000813780,Pizza Hut,3141 Far Hills Ave,DAYTON,OH,45429-2511,United States of America,,pizza_hut
1000813931,Pizza Hut,3201 Dayton Xenia Rd,BEAVERCREEK,OH,45434-6311,United States of America,,pizza_hut
1000954092,Sbarro,4489 Glengarry Dr,BEAVERCREEK,OH,45440-1374,United States of America,9374294130.0,sbarro
2000003476,Sbarro,195 Mall Woods Dr,DAYTON,OH,45449-3623,United States of America,,sbarro
1000813446,Pizza Hut,3027 Miamisburg Centerville Rd,DAYTON,OH,45459,United States of America,9374360035.0,pizza_hut
1000814136,Pizza Hut,33 E Whipp Rd,DAYTON,OH,45459-2101,United States of America,,pizza_hut
1000945739,Sbarro,2700 Miamisburg Centerville Rd,DAYTON,OH,45459-3735,United States of America,9374342171.0,sbarro
1000805584,Pizza Hut,1077 Ironton Hills Dr,IRONTON,OH,45638-9700,United States of America,,pizza_hut
1000813965,Pizza Hut,3210 Rhodes Ave,NEW BOSTON,OH,45662-4912,United States of America,7404566359.0,pizza_hut
1000820978,Pizza Hut,903 E State St,ATHENS,OH,45701-2117,United States of America,7405933697.0,pizza_hut
1000815168,Pizza Hut,394 Richland Ave,ATHENS,OH,45701-3299,United States of America,,pizza_hut
2000012669,Little Caesars Pizza,3100 Meridian Parke Dr,GREENWOOD,IN,46142-9405,United States of America,3178888877.0,little_caesars_pizza
1000806994,Pizza Hut,1254 S Harriet St,MARTINSVILLE,IN,46151,United States of America,7653422222.0,pizza_hut
1000808450,Pizza Hut,1520 N Arlington Ave,INDIANAPOLIS,IN,46219-3209,United States of America,,pizza_hut
1000811461,Pizza Hut,2230 E 62nd St,INDIANAPOLIS,IN,46220,United States of America,,pizza_hut
2000172649,Little Caesars Pizza,2445 E 65th St,INDIANAPOLIS,IN,46220-1503,United States of America,3178795000.0,little_caesars_pizza
1000817533,Pizza Hut,5570 Crawfordsville Rd,SPEEDWAY,IN,46224-5428,United States of America,3172476649.0,pizza_hut
1000813513,Pizza Hut,3047 Madison Ave,INDIANAPOLIS,IN,46227-1161,United States of America,,pizza_hut
1000812289,Pizza Hut,2522 E County Line Rd,INDIANAPOLIS,IN,46227-6317,United States of America,3178822256.0,pizza_hut
1000887703,CiCi's Pizza,9982 E Washington St,INDIANAPOLIS,IN,46229-3040,United States of America,3178950850.0,cicis_pizza
1000819529,Pizza Hut,7320 E 82nd St,INDIANAPOLIS,IN,46256,United States of America,,pizza_hut
1000859343,CiCi's Pizza,3459 W 86th St,INDIANAPOLIS,IN,46268-1948,United States of America,3174718001.0,cicis_pizza
2000182583,Sbarro,777 Resorts Blvd,EAST CHICAGO,IN,46312,United States of America,,sbarro
2000216222,Domino's Pizza,1849 N Cline Ave,GRIFFITH,IN,46319-1006,United States of America,2198387602.0,dominos_pizza
2000015846,Pizza Hut,6539 Indianapolis Blvd,HAMMOND,IN,46320-2832,United States of America,,pizza_hut
1000875174,Little Caesars Pizza,6233 Hohman Ave,HAMMOND,IN,46324-1055,United States of America,2199330158.0,little_caesars_pizza
1000811767,Pizza Hut,234 W 81st Ave,MERRILLVILLE,IN,46410,United States of America,,pizza_hut
2000143992,Old Chicago Pizza & Taproom,740 E 81st Ave,MERRILLVILLE,IN,46410-5537,United States of America,2194720616.0,old_chicago_pizza_&_taproom
1000807765,Pizza Hut,1400 S Nappanee St,ELKHART,IN,46516-1517,United States of America,,pizza_hut
1000812839,Pizza Hut,2777 Lincolnway E,MISHAWAKA,IN,46544-3535,United States of America,,pizza_hut
1000806082,Pizza Hut,209 E Ireland Rd,SOUTH BEND,IN,46614-2653,United States of America,5742919400.0,pizza_hut
1000818387,Pizza Hut,6305 University Commons,SOUTH BEND,IN,46635-1475,United States of America,,pizza_hut
1000809723,Pizza Hut,18157 State Road 23,SOUTH BEND,IN,46637,United States of America,,pizza_hut
1000881976,Little Caesars Pizza,804 S 13th St,DECATUR,IN,46733-1804,United States of America,2607249999.0,little_caesars_pizza
1000902037,Papa Murphy's Take 'N' Bake Pizza,4818 Illinois Rd,FORT WAYNE,IN,46804-1166,United States of America,2604590314.0,papa_murphys_take_n_bake_pizza
1000818018,Pizza Hut,6040 Covington Rd,FORT WAYNE,IN,46804-5802,United States of America,,pizza_hut
1000810890,Pizza Hut,2101 E Coliseum Blvd,FORT WAYNE,IN,46805-1445,United States of America,2604815777.0,pizza_hut
1000880214,Little Caesars Pizza,7530 S Anthony Blvd,FORT WAYNE,IN,46816,United States of America,2604471770.0,little_caesars_pizza
1000902941,Papa Murphy's Take 'N' Bake Pizza,533 E Dupont Rd,FORT WAYNE,IN,46825-2053,United States of America,2606371788.0,papa_murphys_take_n_bake_pizza
1000904118,Papa Murphy's Take 'N' Bake Pizza,6214 Saint Joe Center Rd,FORT WAYNE,IN,46835-2506,United States of America,2604860200.0,papa_murphys_take_n_bake_pizza
1000895577,Papa Murphy's Take 'N' Bake Pizza,211 W Markland Ave,KOKOMO,IN,46901-6104,United States of America,7654577272.0,papa_murphys_take_n_bake_pizza
2000015950,Pizza Hut,939 N Baldwin Ave,MARION,IN,46952,United States of America,,pizza_hut
1000805625,Pizza Hut,1084 Market St,CHARLESTOWN,IN,47111-1933,United States of America,8122563321.0,pizza_hut
2000051751,Gatti's Pizza,330 Clifty Dr,MADISON,IN,47250-1606,United States of America,8122736216.0,gattis_pizza
2000003372,Sbarro,Ball State University,MUNCIE,IN,47306-0001,United States of America,7652855000.0,sbarro
2000015867,Pizza Hut,715 S Memorial,NEW CASTLE,IN,47362,United States of America,,pizza_hut
1000816315,Pizza Hut,4619 E Main St,RICHMOND,IN,47374,United States of America,,pizza_hut
1000811528,Pizza Hut,2250 Chester Blvd,RICHMOND,IN,47374-1236,United States of America,,pizza_hut
1000811277,Pizza Hut,2200 National Rd W,RICHMOND,IN,47374-4623,United States of America,,pizza_hut
2000003370,Sbarro,801 N Jordan Ave,BLOOMINGTON,IN,47405-2107,United States of America,,sbarro
2000051747,Gatti's Pizza,3301 16th St,BEDFORD,IN,47421-3517,United States of America,8122771790.0,gattis_pizza
1000832457,Little Caesars Pizza,1320 James Ave,BEDFORD,IN,47421-3592,United States of America,8122752401.0,little_caesars_pizza
2000051754,Gatti's Pizza,2201 E National Hwy,WASHINGTON,IN,47501-4534,United States of America,8122541884.0,gattis_pizza
1000811190,Pizza Hut,5 Orchard Hill Dr,TELL CITY,IN,47586-2715,United States of America,8125477500.0,pizza_hut
2000051753,Gatti's Pizza,2221 N 6th St,VINCENNES,IN,47591-2489,United States of America,8128829304.0,gattis_pizza
1000819244,Pizza Hut,711 W Mill Rd,EVANSVILLE,IN,47710-3927,United States of America,,pizza_hut
1000810469,Pizza Hut,2006 Washington Ave,EVANSVILLE,IN,47714-2234,United States of America,,pizza_hut
1000963580,Sbarro,800 N Green River Rd,EVANSVILLE,IN,47715,United States of America,8124737901.0,sbarro
2000051323,Marco's Pizza,227 E State St,WEST LAFAYETTE,IN,47906-3222,United States of America,7657461414.0,marcos_pizza
1000807770,Pizza Hut,1400 W State St,WEST LAFAYETTE,IN,47906-3438,United States of America,7657434055.0,pizza_hut
1000806397,Pizza Hut,1180 S Gratiot Ave,CLINTON TOWNSHIP,MI,48036-3502,United States of America,5864654470.0,pizza_hut
1000815676,Pizza Hut,41831 Garfield Rd,CLINTON TOWNSHIP,MI,48038-1965,United States of America,,pizza_hut
1000808766,Pizza Hut,1601 Gratiot Blvd,MARYSVILLE,MI,48040-1183,United States of America,,pizza_hut
1000865489,Chuck E. Cheese's,4350 24th Ave,FORT GRATIOT,MI,48059-3851,United States of America,8103855801.0,chuck_e_cheeses
1000953657,Sbarro,4350 24th Ave,FORT GRATIOT,MI,48059-3853,United States of America,8103858578.0,sbarro
1000815022,Pizza Hut,3822 Pine Grove Ave,FORT GRATIOT,MI,48059-4215,United States of America,,pizza_hut
2000003406,Sbarro,498 W 14 Mile Rd,TROY,MI,48083-4221,United States of America,2483071150.0,sbarro
1000812670,Pizza Hut,27003 Telegraph Rd,FLAT ROCK,MI,48134-1658,United States of America,,pizza_hut
1000819969,Pizza Hut,7965 Summerfield Rd,LAMBERTVILLE,MI,48144-9679,United States of America,,pizza_hut
1000806001,Pizza Hut,1119 Southfield Rd,LINCOLN PARK,MI,48146-2408,United States of America,,pizza_hut
2000003404,Sbarro,37700 6 Mile Rd,LIVONIA,MI,48152-3925,United States of America,7345910535.0,sbarro
1000943327,Sbarro,23000 Eureka Rd,TAYLOR,MI,48180-5254,United States of America,7342872527.0,sbarro
1000811938,Pizza Hut,2407 Washtenaw Rd,YPSILANTI,MI,48197-1547,United States of America,,pizza_hut
1000965596,Sbarro,900 Oakwood St,YPSILANTI,MI,48197-6229,United States of America,7349738424.0,sbarro
1000952635,Sbarro,4100 Carpenter Rd,YPSILANTI,MI,48197-9615,United States of America,,sbarro
1000809884,Pizza Hut,18680 Livernois Ave,DETROIT,MI,48221-2257,United States of America,3138641122.0,pizza_hut
1000939270,Papa John's Pizza,18472 Livernois Ave,DETROIT,MI,48221-3295,United States of America,3138637272.0,papa_johns_pizza
1000968433,Little Caesars Pizza,1100 S Rochester Rd,ROCHESTER HILLS,MI,48307-3114,United States of America,2486503330.0,little_caesars_pizza
1000934598,Sbarro,14600 Lakeside Cir,STERLING HEIGHTS,MI,48313-1373,United States of America,5862471280.0,sbarro
1000805329,Pizza Hut,1040 E Hill Rd,GRAND BLANC,MI,48439-4800,United States of America,8106955100.0,pizza_hut
1000949119,Sbarro,3289 S Linden Rd,FLINT,MI,48507-3005,United States of America,8102300960.0,sbarro
1000955279,Sbarro,4861 Fashion Square Mall,SAGINAW,MI,48604,United States of America,9897937488.0,sbarro
1000869194,Little Caesars Pizza,5105 Gratiot Rd,SAGINAW,MI,48638,United States of America,9897976080.0,little_caesars_pizza
1000960823,Sbarro,6800 Eastman Ave,MIDLAND,MI,48642-7811,United States of America,9898320311.0,sbarro
1000893437,Villa Pizza,125 International Ctr,EAST LANSING,MI,48824,United States of America,5173379071.0,villa_pizza
1000813017,Pizza Hut,2860 E Grand River Ave,HOWELL,MI,48843-8545,United States of America,5175481223.0,pizza_hut
1000819012,Pizza Hut,700 N Cedar St,MASON,MI,48854-1019,United States of America,,pizza_hut
1000935505,Sbarro,1475 N Burkhart Rd,HOWELL,MI,48855-7245,United States of America,5175450452.0,sbarro
1000808976,Pizza Hut,1631 E M 21,OWOSSO,MI,48867-9053,United States of America,9897252727.0,pizza_hut
1000811147,Pizza Hut,2153 S US Highway 27,SAINT JOHNS,MI,48879-9166,United States of America,9892248800.0,pizza_hut
2000015569,Pizza Hut,2153 S US Highway 27,SAINT JOHNS,MI,48879-9166,United States of America,,pizza_hut
2000051419,Marco's Pizza,2918 N East St,LANSING,MI,48906-3329,United States of America,5173744444.0,marcos_pizza
1000957016,Sbarro,5330 W Saginaw Hwy,LANSING,MI,48917,United States of America,5173213302.0,sbarro
2000143994,Old Chicago Pizza & Taproom,5314 S Westnedge Ave,PORTAGE,MI,49002-0406,United States of America,2693441111.0,old_chicago_pizza_&_taproom
1000881106,Little Caesars Pizza,785 Capital Ave NE,BATTLE CREEK,MI,49017-5603,United States of America,2697889310.0,little_caesars_pizza
1000808927,Pizza Hut,1620 Mall Dr,BENTON HARBOR,MI,49022-2310,United States of America,2699254700.0,pizza_hut
2000225013,Papa Murphy's Take 'N' Bake Pizza,1040 E Napier Ave,BENTON HARBOR,MI,49022-3928,United States of America,2699252772.0,papa_murphys_take_n_bake_pizza
1000923518,Domino's Pizza,610 E Napier Ave,BENTON HARBOR,MI,49022-5814,United States of America,2699259400.0,dominos_pizza
2000030798,Pizza Hut,5625 Gull Rd,KALAMAZOO,MI,49048-1098,United States of America,,pizza_hut
1000818043,Pizza Hut,6050 Gull Rd,KALAMAZOO,MI,49048-9452,United States of America,2693450105.0,pizza_hut
1000907030,Hungry Howie's Pizza & Subs,8980 N Rodgers Ct SE,CALEDONIA,MI,49316,United States of America,6168917777.0,hungry_howies_pizza_&_subs
1000810729,Pizza Hut,2050 W Main St,LOWELL,MI,49331-8640,United States of America,6168970700.0,pizza_hut
1000904216,Hungry Howie's Pizza & Subs,630 S State St,SPARTA,MI,49345-1586,United States of America,6168876666.0,hungry_howies_pizza_&_subs
1000816268,Pizza Hut,4554 Chicago Dr SW,GRANDVILLE,MI,49418-1530,United States of America,6165315330.0,pizza_hut
1000830464,Chuck E. Cheese's,12331 James St,HOLLAND,MI,49424-9608,United States of America,6163937165.0,chuck_e_cheeses
1000957725,Sbarro,5600 Harvey St,MUSKEGON,MI,49444-8790,United States of America,2317983645.0,sbarro
1000806180,Pizza Hut,1142 Burton St SE,GRAND RAPIDS,MI,49507-3326,United States of America,,pizza_hut
1000814640,Pizza Hut,3550 28th St SE,KENTWOOD,MI,49512,United States of America,,pizza_hut
2000015635,Pizza Hut,2751 Alpine Ave NW,GRAND RAPIDS,MI,49544-1972,United States of America,,pizza_hut
1000817490,Pizza Hut,5524 Division Ave S,KENTWOOD,MI,49548-5723,United States of America,,pizza_hut
2000015663,Pizza Hut,3050 Hwy 31,TRAVERSE CITY,MI,49685,United States of America,,pizza_hut
1000806127,Pizza Hut,1133 W South Airport Rd,TRAVERSE CITY,MI,49686-4719,United States of America,2319381495.0,pizza_hut
1000807749,Pizza Hut,1400 8th Ave,MENOMINEE,MI,49858-2700,United States of America,,pizza_hut
1000810457,Pizza Hut,2005 Court Ave,CHARITON,IA,50049-1955,United States of America,6417748558.0,pizza_hut
1000819254,Pizza Hut,712 Lincoln Ave SE,GRIMES,IA,50111,United States of America,,pizza_hut
1000805280,Pizza Hut,1033 Broad St,GRINNELL,IA,50112-1623,United States of America,6412367737.0,pizza_hut
1000813746,Pizza Hut,313 E Oskaloosa St,PELLA,IA,50219-2205,United States of America,,pizza_hut
1000900915,Papa Murphy's Take 'N' Bake Pizza,410 E Oskaloosa St,PELLA,IA,50219-2208,United States of America,6416287272.0,papa_murphys_take_n_bake_pizza
1000894717,Papa Murphy's Take 'N' Bake Pizza,1960 Grand Ave,WEST DES MOINES,IA,50265-4218,United States of America,5154407272.0,papa_murphys_take_n_bake_pizza
1000936522,Sbarro,1551 Valley West Dr,WEST DES MOINES,IA,50266-1119,United States of America,5152259948.0,sbarro
1000865467,CiCi's Pizza,4349 Merle Hay Rd,DES MOINES,IA,50310,United States of America,5152521616.0,cicis_pizza
1000817041,Pizza Hut,514 S Federal Ave,MASON CITY,IA,50401-3804,United States of America,,pizza_hut
1000821755,Pizza Hut,1205 N 25th St,CLEAR LAKE,IA,50428-2001,United States of America,6413578144.0,pizza_hut
1000817416,Pizza Hut,545 E US Highway 9,FOREST CITY,IA,50436-1014,United States of America,6415855010.0,pizza_hut
1000804813,Pizza Hut,100 N Phillips St,ALGONA,IA,50511-2834,United States of America,5152953525.0,pizza_hut
1000819071,Pizza Hut,702 13th St N,HUMBOLDT,IA,50548-1122,United States of America,5153324741.0,pizza_hut
2000216100,Domino's Pizza,1100 E 5th St,STORM LAKE,IA,50588-2211,United States of America,7122134444.0,dominos_pizza
1000923483,Domino's Pizza,6087 Highway 110,STORM LAKE,IA,50588-7742,United States of America,7122132200.0,dominos_pizza
2000172578,Little Caesars Pizza,1704 W 1st St,CEDAR FALLS,IA,50613,United States of America,3192667777.0,little_caesars_pizza
1000810345,Pizza Hut,200 9th St,CORNING,IA,50841,United States of America,6413224212.0,pizza_hut
1000813427,Pizza Hut,302 SE Kent St,GREENFIELD,IA,50849-1413,United States of America,6413437163.0,pizza_hut
1000810336,Pizza Hut,20 E 2nd St,KINGSLEY,IA,51028-7705,United States of America,7123783400.0,pizza_hut
1000819892,Pizza Hut,785 Hawkeye Ave SW,LE MARS,IA,51031-1860,United States of America,,pizza_hut
1000898952,Papa Murphy's Take 'N' Bake Pizza,3225 Gordon Dr,SIOUX CITY,IA,51105,United States of America,7122557272.0,papa_murphys_take_n_bake_pizza
1000953819,Sbarro,4400 Sergeant Rd,SIOUX CITY,IA,51106-4761,United States of America,7122769806.0,sbarro
1000809402,Pizza Hut,1738 Madison Ave,COUNCIL BLUFFS,IA,51503-5248,United States of America,7123229477.0,pizza_hut
1000938504,Sbarro,1751 Madison Ave,COUNCIL BLUFFS,IA,51503-5270,United States of America,7123229906.0,sbarro
1000815681,Pizza Hut,419 2nd Ave SE,CRESCO,IA,52136-1815,United States of America,5635475612.0,pizza_hut
1000810108,Pizza Hut,1921 Keokuk St,IOWA CITY,IA,52240-4443,United States of America,,pizza_hut
1000953999,Sbarro,4444 1st Ave NE,CEDAR RAPIDS,IA,52402-3240,United States of America,3193931593.0,sbarro
1000812264,Pizza Hut,2513 Northgate St,OTTUMWA,IA,52501-1119,United States of America,6416828755.0,pizza_hut
1000821767,Pizza Hut,Hwy 34 W,FAIRFIELD,IA,52556,United States of America,,pizza_hut
1000813733,Pizza Hut,3125 Agency St,BURLINGTON,IA,52601-1908,United States of America,,pizza_hut
1000820953,Pizza Hut,901 W Washington St,MOUNT PLEASANT,IA,52641-2104,United States of America,,pizza_hut
1000911420,Domino's Pizza,1330 N 2nd St,CLINTON,IA,52732-5244,United States of America,5632422333.0,dominos_pizza
1000810216,Pizza Hut,1955 Wisconsin Ave,GRAFTON,WI,53024-2605,United States of America,,pizza_hut
1000927494,Domino's Pizza,2004 Martin Ave,SHEBOYGAN,WI,53083-4503,United States of America,9204521199.0,dominos_pizza
1000821335,Pizza Hut,940 Milwaukee Ave,BURLINGTON,WI,53105-1352,United States of America,,pizza_hut
1000872287,Little Caesars Pizza,5600 S 108th St,HALES CORNERS,WI,53130-1910,United States of America,4145299630.0,little_caesars_pizza
1000896407,Papa Murphy's Take 'N' Bake Pizza,2324 18th St,KENOSHA,WI,53140-1309,United States of America,2625517200.0,papa_murphys_take_n_bake_pizza
1000815114,Pizza Hut,3905 52nd St,KENOSHA,WI,53144-2625,United States of America,,pizza_hut
2000003510,Sbarro,11601 108th St,PLEASANT PRAIRIE,WI,53158,United States of America,2628572070.0,sbarro
1000847317,Little Caesars Pizza,2233 Old Humes Rd,JANESVILLE,WI,53545-0291,United States of America,6087545508.0,little_caesars_pizza
1000944618,Sbarro,2500 Milton Ave,JANESVILLE,WI,53545-0481,United States of America,6087581944.0,sbarro
2000015810,Pizza Hut,5729 Highway 51,MC FARLAND,WI,53558,United States of America,,pizza_hut
2000012762,Little Caesars Pizza,6915 University Ave,MIDDLETON,WI,53562-2767,United States of America,6088363636.0,little_caesars_pizza
1000807998,Pizza Hut,1426 Northport Dr,MADISON,WI,53704-2024,United States of America,,pizza_hut
1000942425,Sbarro,219 E Towne Mall,MADISON,WI,53704-3715,United States of America,6082429910.0,sbarro
1000815267,Pizza Hut,4000 University Ave,MADISON,WI,53705-2148,United States of America,6082387361.0,pizza_hut
1000931844,Sbarro,120 W Towne Mall,MADISON,WI,53719-1000,United States of America,6088335889.0,sbarro
1000816445,Pizza Hut,474 Commerce Dr,MADISON,WI,53719-4987,United States of America,6088282828.0,pizza_hut
1000818225,Pizza Hut,618 8th St,BARABOO,WI,53913-1715,United States of America,6083565533.0,pizza_hut
1000819756,Pizza Hut,764 Shelburne Rd Hwy 7,SOUTH BURLINGTON,VT,5403,United States of America,8028624179.0,pizza_hut
1000807937,Pizza Hut,1417 22nd St,TWO RIVERS,WI,54241-2638,United States of America,9207931314.0,pizza_hut
2000241906,Marco's Pizza,600 N Military Ave,GREEN BAY,WI,54303-4513,United States of America,9204050055.0,marcos_pizza
1000820693,Pizza Hut,8662 US Highway 51 N,MINOCQUA,WI,54548-9334,United States of America,7153562425.0,pizza_hut
1000811379,Pizza Hut,2215 Rose St,LA CROSSE,WI,54603,United States of America,,pizza_hut
2000030838,Pizza Hut,666 Highway 54 E,BLACK RIVER FALLS,WI,54615,United States of America,,pizza_hut
1000955084,Sbarro,4800 Golf Rd,EAU CLAIRE,WI,54701-9045,United States of America,7158399766.0,sbarro
2000015586,Pizza Hut,2307 Highway 25 N,MENOMONIE,WI,54751,United States of America,,pizza_hut
1000818301,Pizza Hut,623 Hammond Ave,SUPERIOR,WI,54880-1113,United States of America,7153926258.0,pizza_hut
1000816886,Pizza Hut,505 W Murdock Ave,OSHKOSH,WI,54901-2213,United States of America,,pizza_hut
2000030850,Pizza Hut,6990 80th St S,COTTAGE GROVE,MN,55016-4857,United States of America,,pizza_hut
2000172782,Little Caesars Pizza,1789 Market Blvd,HASTINGS,MN,55033-1254,United States of America,6514383900.0,little_caesars_pizza
1000805670,Pizza Hut,10900 173rd St W,LAKEVILLE,MN,55044-8791,United States of America,,pizza_hut
1000808358,Pizza Hut,15065 Canada Ave W,ROSEMOUNT,MN,55068-1758,United States of America,,pizza_hut
2000200013,Papa Murphy's Take 'N' Bake Pizza,1157 Clarence St,SAINT PAUL,MN,55106-2809,United States of America,6517747777.0,papa_murphys_take_n_bake_pizza
2000182595,Sbarro,4300 Glumack Dr,SAINT PAUL,MN,55111,United States of America,,sbarro
1000805782,Pizza Hut,1101 Highway 25 N,BUFFALO,MN,55313-1992,United States of America,7636822592.0,pizza_hut
1000896531,Papa Murphy's Take 'N' Bake Pizza,23770 Highway 7,EXCELSIOR,MN,55331-2950,United States of America,9524740558.0,papa_murphys_take_n_bake_pizza
1000821482,Pizza Hut,964 Highway 15 S,HUTCHINSON,MN,55350,United States of America,3205874677.0,pizza_hut
2000015955,Pizza Hut,964 Hwy 15 South,HUTCHINSON,MN,55350,United States of America,,pizza_hut
1000815056,Pizza Hut,3854 Central Ave NE,COLUMBIA HEIGHTS,MN,55421-3929,United States of America,7637814000.0,pizza_hut
1000899328,Villa Fresh Italian Kitchen,340 N Garden,BLOOMINGTON,MN,55425-5519,United States of America,9528588312.0,villa_fresh_italian_kitchen
2000143995,Old Chicago Pizza & Taproom,198 Northtown Dr NE,BLAINE,MN,55434-1035,United States of America,7637833414.0,old_chicago_pizza_&_taproom
2000015852,Pizza Hut,6805 B York Ave So,EDINA,MN,55435,United States of America,,pizza_hut
1000906745,Papa Murphy's Take 'N' Bake Pizza,8584 Edinburgh Center Dr,BROOKLYN PARK,MN,55443-3723,United States of America,7634248487.0,papa_murphys_take_n_bake_pizza
1000813048,Pizza Hut,2895 Brookdale Dr,BROOKLYN PARK,MN,55444,United States of America,,pizza_hut
1000806681,Pizza Hut,1211 7th Ave,TWO HARBORS,MN,55616-1153,United States of America,2188342727.0,pizza_hut
1000813880,Pizza Hut,32 E Sheridan St,ELY,MN,55731-1257,United States of America,2183653377.0,pizza_hut
1000820138,Pizza Hut,806 S Pokegama Ave,GRAND RAPIDS,MN,55744-3935,United States of America,2183261214.0,pizza_hut
1000821816,Pizza Hut,Mesabi Mall,HIBBING,MN,55746,United States of America,2182626121.0,pizza_hut
2000033488,Pizza Hut,1101 E 37th St,HIBBING,MN,55746-2971,United States of America,2182626121.0,pizza_hut
1000817469,Pizza Hut,5501 Grand Ave,DULUTH,MN,55807-2537,United States of America,2186247000.0,pizza_hut
1000810086,Pizza Hut,1918 London Rd,DULUTH,MN,55812-2038,United States of America,,pizza_hut
1000810425,Pizza Hut,2001 Highway 52 N,ROCHESTER,MN,55901-0626,United States of America,5072876396.0,pizza_hut
1000805832,Pizza Hut,1105 7th St NW,ROCHESTER,MN,55901-1763,United States of America,,pizza_hut
1000949386,Sbarro,200 Apache Mall,ROCHESTER,MN,55902,United States of America,5072891623.0,sbarro
1000807263,Pizza Hut,1304 N Main St,AUSTIN,MN,55912-3363,United States of America,5074376650.0,pizza_hut
1000867624,Little Caesars Pizza,477 W 5th St,WINONA,MN,55987-5231,United States of America,5074528752.0,little_caesars_pizza
1000939293,Sbarro,1850 Adams St,MANKATO,MN,56001-4849,United States of America,5073876372.0,sbarro
1000809346,Pizza Hut,1725 E Main St,ALBERT LEA,MN,56007-3872,United States of America,5073732444.0,pizza_hut
1000808301,Pizza Hut,1501 S State St,FAIRMONT,MN,56031-4467,United States of America,5072356676.0,pizza_hut
1000808811,Pizza Hut,1605 1st St S,WILLMAR,MN,56201-6856,United States of America,3202358477.0,pizza_hut
1000807817,Pizza Hut,1404 E College Dr,MARSHALL,MN,56258-2027,United States of America,5075324444.0,pizza_hut
1000806683,Pizza Hut,1211 E Bridge St,REDWOOD FALLS,MN,56283-1901,United States of America,,pizza_hut
1000815677,Pizza Hut,4185 W Division St,SAINT CLOUD,MN,56301-3740,United States of America,3202532368.0,pizza_hut
1000814451,Pizza Hut,345 Central Ave S,MILACA,MN,56353,United States of America,3209835800.0,pizza_hut
1000806263,Pizza Hut,1157 Main St S,SAUK CENTRE,MN,56378-1652,United States of America,3203525252.0,pizza_hut
1000813866,Pizza Hut,319 N Benton Dr,SAUK RAPIDS,MN,56379-1532,United States of America,3202535086.0,pizza_hut
1000813075,Pizza Hut,2902 Highway 10 E,MOORHEAD,MN,56560-2533,United States of America,2182365599.0,pizza_hut
2000057275,The Pizza Ranch,502 7th St SW,ROSEAU,MN,56751-1480,United States of America,2184630111.0,the_pizza_ranch
2000198827,Villa Fresh Italian Kitchen,1400 E Benson Rd,SIOUX FALLS,SD,57104-0862,United States of America,,villa_fresh_italian_kitchen
1000821810,Pizza Hut,Lakeview Heights,CHAMBERLAIN,SD,57325,United States of America,,pizza_hut
1000820202,Pizza Hut,810 W 4th St,REDFIELD,SD,57469-2044,United States of America,6054723811.0,pizza_hut
1000819595,Pizza Hut,7410 Black Hawk Rd,BLACK HAWK,SD,57718,United States of America,,pizza_hut
1000805701,Pizza Hut,11 Charles St,DEADWOOD,SD,57732-1302,United States of America,6055782443.0,pizza_hut
1000816399,Pizza Hut,4701 13th Ave S,FARGO,ND,58103-7205,United States of America,,pizza_hut
2000003473,Sbarro,3625 Campus Rd,GRAND FORKS,ND,58202,United States of America,7017770438.0,sbarro
1000821674,Pizza Hut,E Hwy 200,MAYVILLE,ND,58257,United States of America,7017862905.0,pizza_hut
1000821711,Pizza Hut,Hwy 2 E,RUGBY,ND,58368,United States of America,7017765827.0,pizza_hut
1000840117,Little Caesars Pizza,1761 3rd Ave W,DICKINSON,ND,58601-3010,United States of America,7012270910.0,little_caesars_pizza
2000015497,Pizza Hut,1819 3rd St NW,GREAT FALLS,MT,59404-1918,United States of America,,pizza_hut
1000809159,Pizza Hut,17 3rd St NW,GREAT FALLS,MT,59404-2861,United States of America,4067611012.0,pizza_hut
1000804882,Pizza Hut,1001 Euclid Ave,HELENA,MT,59601-2455,United States of America,4064430746.0,pizza_hut
1000819186,Pizza Hut,708 W Babcock St,BOZEMAN,MT,59715-4451,United States of America,,pizza_hut
1000806758,Pizza Hut,1220 Burlington Ave,MISSOULA,MT,59801-5641,United States of America,,pizza_hut
1000846100,Little Caesars Pizza,2141 US Highway 2 E,KALISPELL,MT,59901,United States of America,4067563100.0,little_caesars_pizza
1000817451,Pizza Hut,55 Woodland Park Dr,KALISPELL,MT,59901-4665,United States of America,,pizza_hut
1000816725,Pizza Hut,50 Biesterfield Rd,ELK GROVE VILLAGE,IL,60007-3668,United States of America,,pizza_hut
1000810899,Pizza Hut,2101 Plum Grove Rd,ROLLING MEADOWS,IL,60008-1919,United States of America,,pizza_hut
2000182550,Sbarro,1960 S Mount Prospect Rd,DES PLAINES,IL,60018-1853,United States of America,,sbarro
1000808674,Pizza Hut,1575 S Lake St,MUNDELEIN,IL,60060-4210,United States of America,,pizza_hut
1000820175,Pizza Hut,809 W Rollins Rd,ROUND LAKE HEIGHTS,IL,60073-1226,United States of America,8475465406.0,pizza_hut
1000808719,Pizza Hut,1597 N Rand Rd,PALATINE,IL,60074-2919,United States of America,,pizza_hut
1000883283,D'Angelo Grilled Sandwiches,838 Farmington Ave,BRISTOL,CT,6010,United States of America,8605836736.0,dangelo_grilled_sandwiches
1000919915,Domino's Pizza,3905 W Algonquin Rd,ALGONQUIN,IL,60102-9700,United States of America,8478545554.0,dominos_pizza
1000816793,Pizza Hut,501 Dundee Ave,EAST DUNDEE,IL,60118,United States of America,,pizza_hut
1000890441,Villa Fresh Italian Kitchen,11800 Factory Shops Blvd,HUNTLEY,IL,60142-6724,United States of America,8476598548.0,villa_fresh_italian_kitchen
1000820487,Pizza Hut,837 Westmore Meyers Rd,LOMBARD,IL,60148,United States of America,,pizza_hut
1000808999,Pizza Hut,1640 Dekalb Ave,SYCAMORE,IL,60178-2706,United States of America,,pizza_hut
1000814245,Pizza Hut,333 S Schmale Rd,CAROL STREAM,IL,60188-2701,United States of America,,pizza_hut
1000814277,Pizza Hut,335 Rice Lake Sq,WHEATON,IL,60189-2195,United States of America,6306536777.0,pizza_hut
1000821111,Pizza Hut,914 S Roselle Rd,SCHAUMBURG,IL,60193-3963,United States of America,,pizza_hut
2000242816,Little Caesars Pizza,Carr 417 KM 3.0,AGUADA,PR,602,United States of America,7878688888.0,little_caesars_pizza
1000814687,Pizza Hut,36 Welles St,GLASTONBURY,CT,6033,United States of America,,pizza_hut
2000015954,Pizza Hut,960 E 9th St,LOCKPORT,IL,60441-3235,United States of America,,pizza_hut
2000196673,CiCi's Pizza,9218 W 159th St,ORLAND PARK,IL,60462-5539,United States of America,7084603002.0,cicis_pizza
2000182581,Sbarro,700 E Tri State Tollway,SOUTH HOLLAND,IL,60473,United States of America,,sbarro
2000015397,Pizza Hut,1330 N Orchard Rd,AURORA,IL,60506,United States of America,,pizza_hut
1000819988,Pizza Hut,8 N Island Ave,BATAVIA,IL,60510-1929,United States of America,6304061605.0,pizza_hut
2000182580,Sbarro,64 Oakbrook Ctr,OAK BROOK,IL,60523-1810,United States of America,,sbarro
2000216129,Domino's Pizza,13500 S Route 59,PLAINFIELD,IL,60544-5573,United States of America,8155773774.0,dominos_pizza
1000811260,Pizza Hut,220 Indian Springs Dr,SANDWICH,IL,60548-1903,United States of America,,pizza_hut
1000818549,Pizza Hut,645 N Cass Ave,WESTMONT,IL,60559-1338,United States of America,,pizza_hut
1000812175,Pizza Hut,25 W 63rd St,WESTMONT,IL,60559-2605,United States of America,6309699000.0,pizza_hut
1000828250,Chuck E. Cheese's,1154 E Ogden Ave,NAPERVILLE,IL,60563-1601,United States of America,6303692012.0,chuck_e_cheeses
1000807175,Pizza Hut,1299 E Ogden Ave,NAPERVILLE,IL,60563-1603,United States of America,,pizza_hut
2000003359,Sbarro,211 W Adams St,CHICAGO,IL,60606-5225,United States of America,3122695303.0,sbarro
2000003347,Sbarro,1717 W Polk St,CHICAGO,IL,60612-4314,United States of America,,sbarro
1000833175,Little Caesars Pizza,1360 N Ashland Ave,CHICAGO,IL,60622-2220,United States of America,7732929718.0,little_caesars_pizza
1000817806,Pizza Hut,5900 S Western Ave,CHICAGO,IL,60636-2018,United States of America,7734762612.0,pizza_hut
1000821076,Pizza Hut,9102 N Milwaukee Ave,NILES,IL,60714-1539,United States of America,,pizza_hut
1000923256,Domino's Pizza,60 Meadowview Ctr,KANKAKEE,IL,60901-2041,United States of America,8159394000.0,dominos_pizza
2000015340,Pizza Hut,1120 S Sangamon Ave,GIBSON CITY,IL,60936-1762,United States of America,,pizza_hut
1000910641,Domino's Pizza,122 N Peoria Ave,DIXON,IL,61021-2027,United States of America,8152849000.0,dominos_pizza
1000819044,Pizza Hut,701 Main St,SAVANNA,IL,61074-1318,United States of America,,pizza_hut
2000030713,Pizza Hut,3748 N Main St,ROCKFORD,IL,61103-1612,United States of America,,pizza_hut
2000242818,Little Caesars Pizza,Ave Rotarios,ARECIBO,PR,612,United States of America,7878178888.0,little_caesars_pizza
1000954189,Sbarro,4500 16th St,MOLINE,IL,61265,United States of America,3097977115.0,sbarro
2000015747,Pizza Hut,4319 Avenue of the Cities,MOLINE,IL,61265-4547,United States of America,,pizza_hut
2000030602,Pizza Hut,223 E Norris Dr,OTTAWA,IL,61350-1516,United States of America,,pizza_hut
1000931787,Papa John's Pizza,120 E Main St,GALESBURG,IL,61401-4601,United States of America,3093447000.0,papa_johns_pizza
1000818182,Pizza Hut,614 S 7th St,WYOMING,IL,61491-1354,United States of America,3096952100.0,pizza_hut
1000819046,Pizza Hut,701 N 4th St,CHILLICOTHE,IL,61523-1703,United States of America,,pizza_hut
1000810101,Pizza Hut,1920 S Main St,MORTON,IL,61550-2914,United States of America,,pizza_hut
1000813132,Pizza Hut,2925 Court St,PEKIN,IL,61554-6203,United States of America,,pizza_hut
1000915970,Domino's Pizza,2311 Washington Rd,WASHINGTON,IL,61571-1860,United States of America,3097459388.0,dominos_pizza
1000815788,Pizza Hut,424 N Western Ave,PEORIA,IL,61606-1651,United States of America,,pizza_hut
1000955964,Papa John's Pizza,502 Riverside Dr,EAST PEORIA,IL,61611-2068,United States of America,3096987272.0,papa_johns_pizza
1000816450,Pizza Hut,4749 N Sterling Ave,PEORIA,IL,61615-3646,United States of America,3096825023.0,pizza_hut
1000815545,Pizza Hut,4109 N Prospect Rd,PEORIA HEIGHTS,IL,61616-7750,United States of America,,pizza_hut
1000937171,Sbarro,1615 E Empire St,BLOOMINGTON,IL,61701,United States of America,3096629669.0,sbarro
1000808290,Pizza Hut,1501 N Main St,NORMAL,IL,61761-1111,United States of America,,pizza_hut
1000808762,Pizza Hut,1601 E College Ave,NORMAL,IL,61761-2127,United States of America,,pizza_hut
2000003344,Sbarro,2000 N Neil St,CHAMPAIGN,IL,61820,United States of America,2173550282.0,sbarro
1000812495,Pizza Hut,261 S Hamilton St,SULLIVAN,IL,61951-1951,United States of America,2177288359.0,pizza_hut
1000925950,Domino's Pizza,829 Seibert Rd,SCOTT AIR FORCE BASE,IL,62225-1507,United States of America,6187462890.0,dominos_pizza
1000816529,Pizza Hut,4817 W Main St,BELLEVILLE,IL,62226-4722,United States of America,,pizza_hut
2000015965,Pizza Hut,North Hwy 4,SPARTA,IL,62286,United States of America,,pizza_hut
1000911539,Domino's Pizza,1353 Sparta Centre Dr,SPARTA,IL,62286-2311,United States of America,6184436500.0,dominos_pizza
2000015938,Pizza Hut,903 Illinois Ave,WATERLOO,IL,62298,United States of America,,pizza_hut
2000242819,Little Caesars Pizza,Carr 100 KM 6.6,CABO ROJO,PR,623,United States of America,7878516161.0,little_caesars_pizza
1000804909,Pizza Hut,1002 15th St,LAWRENCEVILLE,IL,62439-2202,United States of America,6189432572.0,pizza_hut
2000015941,Pizza Hut,910 S Route 51,FORSYTH,IL,62535-8928,United States of America,,pizza_hut
1000819179,Pizza Hut,708 Jackson St,PANA,IL,62557-1209,United States of America,2175623926.0,pizza_hut
1000823645,Godfather's Pizza,1010 Heitmann Dr,LINCOLN,IL,62656-9608,United States of America,2177323759.0,godfathers_pizza
1000809249,Pizza Hut,1708 W Main St,CARMI,IL,62821,United States of America,,pizza_hut
2000030909,Pizza Hut,831 S Washington St,DU QUOIN,IL,62832-1909,United States of America,,pizza_hut
1000818170,Pizza Hut,613 E Main St,CARBONDALE,IL,62901-3104,United States of America,6184577112.0,pizza_hut
1000808691,Pizza Hut,15845 Manchester Rd,ELLISVILLE,MO,63011-2224,United States of America,6362564424.0,pizza_hut
2000242519,Sbarro,291 Chesterfield Mall,CHESTERFIELD,MO,63017,United States of America,6365328139.0,sbarro
1000811737,Pizza Hut,233 Lamp And Lantern Vlg,CHESTERFIELD,MO,63017-8209,United States of America,6362308888.0,pizza_hut
2000030451,Pizza Hut,1358 Big Bend Sq,TWIN OAKS,MO,63021,United States of America,,pizza_hut
1000957642,Sbarro,5555 St Louis Mls,HAZELWOOD,MO,63042-4453,United States of America,3142275303.0,sbarro
1000938818,Sbarro,1820 Market St,SAINT LOUIS,MO,63103-2286,United States of America,3149688620.0,sbarro
2000015956,Pizza Hut,9740 Charles Rock Rd,BRECKENRIDGE HILLS,MO,63114,United States of America,,pizza_hut
1000814548,Pizza Hut,3505 Gravois Ave,SAINT LOUIS,MO,63118-3503,United States of America,3147762030.0,pizza_hut
1000821245,Pizza Hut,9260 Watson Rd,SAINT LOUIS,MO,63126-1510,United States of America,,pizza_hut
1000964758,Sbarro,85 S County Ctr,SAINT LOUIS,MO,63129,United States of America,3144168009.0,sbarro
2000050982,Simple Simon's Pizza,6346 Telegraph Rd,SAINT LOUIS,MO,63129-4920,United States of America,,simple_simons_pizza
1000953773,Sbarro,174 W County Ctr,SAINT LOUIS,MO,63131,United States of America,3149840638.0,sbarro
1000813993,Pizza Hut,322 Us Route 1,NEW LONDON,CT,6320,United States of America,8604471114.0,pizza_hut
2000030852,Pizza Hut,4219 N Saint Peters Pkwy,SAINT PETERS,MO,63304-7384,United States of America,,pizza_hut
1000931513,Sbarro,1176 Mid Rivers Mall,SAINT PETERS,MO,63376-4375,United States of America,6363978960.0,sbarro
2000030933,Pizza Hut,902 N Steinhagen Road,WARRENTON,MO,63383,United States of America,,pizza_hut
2000030427,Pizza Hut,126 E Main St,FREDERICKTOWN,MO,63645-1124,United States of America,,pizza_hut
2000242828,Little Caesars Pizza,Ave Quilinchini,SABANA GRANDE,PR,637,United States of America,7878738888.0,little_caesars_pizza
1000811129,Pizza Hut,215 S Kingshighway St,CAPE GIRARDEAU,MO,63703-5707,United States of America,5733354110.0,pizza_hut
2000015474,Pizza Hut,1700 Hwy 84,HAYTI,MO,63851,United States of America,5733590066.0,pizza_hut
2000015467,Pizza Hut,1626 South Highway 7,BLUE SPRINGS,MO,64014,United States of America,,pizza_hut
2000030547,Pizza Hut,1901 North Highway 7,BLUE SPRINGS,MO,64014,United States of America,,pizza_hut
1000809984,Pizza Hut,1901 NW State Route 7,BLUE SPRINGS,MO,64014-1670,United States of America,8162283060.0,pizza_hut
1000808391,Pizza Hut,1512 NW Woods Chapel Rd,BLUE SPRINGS,MO,64015-2782,United States of America,8162281841.0,pizza_hut
1000910524,Domino's Pizza,1208 W Us Highway 24,INDEPENDENCE,MO,64050-2339,United States of America,8164619100.0,dominos_pizza
1000807212,Pizza Hut,1300 S Noland Rd,INDEPENDENCE,MO,64055,United States of America,8164611242.0,pizza_hut
2000015386,Pizza Hut,1300 S Noland Rd,INDEPENDENCE,MO,64055,United States of America,,pizza_hut
1000809276,Pizza Hut,17106 E US Highway 24,INDEPENDENCE,MO,64056-1535,United States of America,8162570646.0,pizza_hut
2000030709,Pizza Hut,361 Legend Ln,PECULIAR,MO,64078-2606,United States of America,,pizza_hut
1000805165,Pizza Hut,1020 Broadway St,KANSAS CITY,MO,64105-1516,United States of America,,pizza_hut
2000041330,California Pizza Kitchen,4743 Pennsylvania Ave,KANSAS CITY,MO,64112-2004,United States of America,8165612420.0,california_pizza_kitchen
1000819485,Pizza Hut,7291 N Oak Trfy,GLADSTONE,MO,64118-1852,United States of America,8164367550.0,pizza_hut
1000868201,CiCi's Pizza,4900 N Oak Trfy,KANSAS CITY,MO,64118-4617,United States of America,8164523770.0,cicis_pizza
1000810957,Pizza Hut,211 NW Barry Rd,KANSAS CITY,MO,64155-2726,United States of America,,pizza_hut
1000948693,Sbarro,3200 Ameristar Dr,KANSAS CITY,MO,64161,United States of America,8164534100.0,sbarro
2000030767,Pizza Hut,496 S Broad St,MERIDEN,CT,6450,United States of America,2036860338.0,pizza_hut
1000901867,Everything Yogurt Salad Cafe,470 Lewis Ave,MERIDEN,CT,6451,United States of America,2032382611.0,everything_yogurt_salad_cafe
2000015913,Pizza Hut,815 Avalon St,TRENTON,MO,64683-2633,United States of America,,pizza_hut
2000172800,Little Caesars Pizza,309 S Commercial St,HARRISONVILLE,MO,64701-1647,United States of America,8168873881.0,little_caesars_pizza
1000821787,Pizza Hut,Hwy 7 & 13 N,CLINTON,MO,64735,United States of America,6608855559.0,pizza_hut
1000928548,Sbarro,101 N Range Line Rd,JOPLIN,MO,64801-1608,United States of America,4177828267.0,sbarro
1000821130,Pizza Hut,915 S Neosho Blvd,NEOSHO,MO,64850-2055,United States of America,4174517611.0,pizza_hut
1000806369,Pizza Hut,1175 N Business Route 5,CAMDENTON,MO,65020-2621,United States of America,5733465459.0,pizza_hut
2000030393,Pizza Hut,1143 E US Highway 54,CAMDENTON,MO,65020-6837,United States of America,,pizza_hut
1000810783,Pizza Hut,2072 Village Ln,HERMANN,MO,65041-1592,United States of America,5734861001.0,pizza_hut
2000037423,Papa John's Pizza,5896 Osage Beach Pkwy,OSAGE BEACH,MO,65065-3040,United States of America,5733489400.0,papa_johns_pizza
2000030531,Pizza Hut,1800 W Clay Rd,VERSAILLES,MO,65084,United States of America,,pizza_hut
2000015333,Pizza Hut,111 E Bus Loop,COLUMBIA,MO,65201,United States of America,,pizza_hut
1000943321,Sbarro,2300 Bernadette Dr,COLUMBIA,MO,65203-7520,United States of America,5734450957.0,sbarro
1000821960,Pizza Hut,University Of Missouri,COLUMBIA,MO,65211-0001,United States of America,5734435213.0,pizza_hut
1000923493,Domino's Pizza,609 N Franklin St,CUBA,MO,65453-1625,United States of America,5738853030.0,dominos_pizza
2000030961,Pizza Hut,Building 1711 Cooley Avenue,FORT LEONARD WOOD,MO,65473,United States of America,,pizza_hut
2000143996,Old Chicago Pizza & Taproom,801 Branson Landing Blvd,BRANSON,MO,65616-2099,United States of America,4173322005.0,old_chicago_pizza_&_taproom
1000814470,Pizza Hut,3458 W 76 Country Blvd,BRANSON,MO,65616-3546,United States of America,4173346929.0,pizza_hut
1000811123,Pizza Hut,215 Gage Dr,HOLLISTER,MO,65672-5797,United States of America,4173346969.0,pizza_hut
2000030889,Pizza Hut,798 W Hwy 60,MONETT,MO,65708,United States of America,,pizza_hut
1000826312,Fox's Pizza Den,110 Dempsey Dr,ROGERSVILLE,MO,65742-9747,United States of America,4177530369.0,foxs_pizza_den
2000050908,Simple Simon's Pizza,1836 Porter Wagoner Blvd,WEST PLAINS,MO,65775-1810,United States of America,4172577700.0,simple_simons_pizza
2000224991,Papa Murphy's Take 'N' Bake Pizza,1629 Bruce Smith Pkwy,WEST PLAINS,MO,65775-7691,United States of America,4172567272.0,papa_murphys_take_n_bake_pizza
2000050967,CheeZies Pizza,711 W Kearney St,SPRINGFIELD,MO,65803-1229,United States of America,4178317070.0,cheezies_pizza
1000813095,Pizza Hut,2911 E Sunshine St,SPRINGFIELD,MO,65804-2050,United States of America,4178822300.0,pizza_hut
2000051006,CheeZies Pizza,603 S Kimbrough Ave,SPRINGFIELD,MO,65806-3303,United States of America,4178321300.0,cheezies_pizza
2000050969,Simple Simon's Pizza,11373 US Highway 59,ATCHISON,KS,66002-9300,United States of America,9133672637.0,simple_simons_pizza
2000030433,Pizza Hut,130 E Highway 56,BALDWIN CITY,KS,66006-7300,United States of America,,pizza_hut
2000051015,Simple Simon's Pizza,600 N Maple St,GARNETT,KS,66032-1742,United States of America,7854486582.0,simple_simons_pizza
1000821298,Pizza Hut,934 Massachusetts St,LAWRENCE,KS,66044-2868,United States of America,,pizza_hut
1000871505,Little Caesars Pizza,5415 Johnson Dr,MISSION,KS,66205-2912,United States of America,9133842222.0,little_caesars_pizza
1000828960,Little Caesars Pizza,11918 W 119th St,OVERLAND PARK,KS,66213-2216,United States of America,9133459500.0,little_caesars_pizza
1000833059,Little Caesars Pizza,13501 W 87th Street Pkwy,LENEXA,KS,66215-2408,United States of America,9138949000.0,little_caesars_pizza
1000807354,Pizza Hut,13120 W 87th Street Pkwy,LENEXA,KS,66215-4532,United States of America,9138941051.0,pizza_hut
1000806039,Pizza Hut,1121 Moro St,MANHATTAN,KS,66502-5350,United States of America,7855397666.0,pizza_hut
1000928018,Sbarro,100 Manhattan Town Ctr,MANHATTAN,KS,66502-6074,United States of America,7855399808.0,sbarro
2000030460,Pizza Hut,1430 W Hwy 24,WAMEGO,KS,66547,United States of America,,pizza_hut
1000938879,Sbarro,1801 SW Wanamaker Rd,TOPEKA,KS,66604,United States of America,7852716805.0,sbarro
1000816753,Pizza Hut,500 SW 10th Ave,TOPEKA,KS,66612-1606,United States of America,7852340361.0,pizza_hut
1000885481,Little Caesars Pizza,910 NW 25th St,TOPEKA,KS,66618-1434,United States of America,7852334681.0,little_caesars_pizza
1000816786,Pizza Hut,5007 Parkview Dr,FRONTENAC,KS,66763-2101,United States of America,6202322100.0,pizza_hut
1000821776,Pizza Hut,Hwy 50,STRONG CITY,KS,66869,United States of America,6202736328.0,pizza_hut
2000015961,Pizza Hut,Hwy 36 &amp; N St,BELLEVILLE,KS,66935,United States of America,,pizza_hut
1000806216,Pizza Hut,115 N Commercial St,MANKATO,KS,66956-2206,United States of America,7856256195.0,pizza_hut
2000050949,Simple Simon's Pizza,204 S Main St,ARGONIA,KS,67004,United States of America,6204356785.0,simple_simons_pizza
1000808485,Pizza Hut,1525 N Main St,NEWTON,KS,67114-1919,United States of America,3162835686.0,pizza_hut
1000821022,Pizza Hut,907 N G St,WELLINGTON,KS,67152-4251,United States of America,,pizza_hut
1000810065,Pizza Hut,1912 Main St,WINFIELD,KS,67156,United States of America,6202217500.0,pizza_hut
1000810574,Pizza Hut,2020 E 9th Ave,WINFIELD,KS,67156-3212,United States of America,,pizza_hut
2000030855,Pizza Hut,700 W Douglas Ave,WICHITA,KS,67203-6104,United States of America,,pizza_hut
1000956716,Papa John's Pizza,5231 E Central Ave,WICHITA,KS,67208-4197,United States of America,3166867272.0,papa_johns_pizza
1000954519,Sbarro,4600 W Kellogg Dr,WICHITA,KS,67209-2546,United States of America,3169453103.0,sbarro
1000955801,Papa John's Pizza,5000 S Broadway St,WICHITA,KS,67216-3717,United States of America,3165247272.0,papa_johns_pizza
1000811993,Pizza Hut,2417 S Seneca St,WICHITA,KS,67217-2872,United States of America,,pizza_hut
1000935799,Sbarro,150 Central Mall,SALINA,KS,67401,United States of America,7858239132.0,sbarro
2000242825,Little Caesars Pizza,Carr 2 & Ave Los Corazones,MAYAGUEZ,PR,680,United States of America,7878318383.0,little_caesars_pizza
1000821983,Pizza Hut,W Hwy 30,BLAIR,NE,68008,United States of America,,pizza_hut
1000817850,Pizza Hut,5965 Ames Ave,OMAHA,NE,68104-2705,United States of America,,pizza_hut
1000820520,Pizza Hut,8402 Q St,OMAHA,NE,68127-3603,United States of America,,pizza_hut
1000947464,Sbarro,3001 S 144th St,OMAHA,NE,68144,United States of America,4023349848.0,sbarro
2000242829,Little Caesars Pizza,90 Ave Casto Perez,SAN GERMAN,PR,683,United States of America,7872640888.0,little_caesars_pizza
1000820936,Pizza Hut,901 N Grant Ave,YORK,NE,68467-2541,United States of America,4023624746.0,pizza_hut
1000808553,Pizza Hut,1544 South St,LINCOLN,NE,68502-2448,United States of America,,pizza_hut
1000961933,Sbarro,114 Gateway Mall,LINCOLN,NE,68505,United States of America,4024640623.0,sbarro
1000818516,Pizza Hut,6414 O St,LINCOLN,NE,68510-2351,United States of America,4024647774.0,pizza_hut
2000003411,Sbarro,1400 R St,LINCOLN,NE,68588-0007,United States of America,4024389887.0,sbarro
1000805203,Pizza Hut,1023 W 2nd St,GRAND ISLAND,NE,68801-5821,United States of America,3083844804.0,pizza_hut
1000819164,Pizza Hut,707 N Diers Ave,GRAND ISLAND,NE,68803-4954,United States of America,,pizza_hut
2000242831,Little Caesars Pizza,Ave 25 de Julio,YAUCO,PR,698,United States of America,7872678888.0,little_caesars_pizza
1000820639,Pizza Hut,857 Terry Pkwy,TERRYTOWN,LA,70056-5201,United States of America,5043939933.0,pizza_hut
1000812557,Pizza Hut,2633 Williams Blvd,KENNER,LA,70062-5539,United States of America,5044667614.0,pizza_hut
1000934653,Sbarro,1401 W Esplanade Ave,KENNER,LA,70065-2853,United States of America,5044698234.0,sbarro
1000815042,Pizza Hut,3840 W Judge Perez,MERAUX,LA,70075,United States of America,5042793815.0,pizza_hut
1000816121,Pizza Hut,4445 Old Gentilly Rd,NEW ORLEANS,LA,70126,United States of America,5049436651.0,pizza_hut
1000821564,Pizza Hut,9820 Lake Forest Blvd,NEW ORLEANS,LA,70127,United States of America,5042453000.0,pizza_hut
1000806409,Pizza Hut,11831 I 10 Service Rd,NEW ORLEANS,LA,70128-2448,United States of America,5042467892.0,pizza_hut
2000198785,The Office Beer Bar & Grill,1 South Ave E,CRANFORD,NJ,7016,United States of America,9082723888.0,the_office_beer_bar_&_grill
2000216221,Domino's Pizza,37200 Highway 3089,DONALDSONVILLE,LA,70346,United States of America,2254730131.0,dominos_pizza
1000912584,Domino's Pizza,201 Superior Ave,BOGALUSA,LA,70427-2622,United States of America,2288324000.0,dominos_pizza
2000144465,Fox's Pizza Den,3112 Pontchartrain Dr,SLIDELL,LA,70458-4644,United States of America,9856417141.0,foxs_pizza_den
2000134020,Gattitown,4533 Johnston St,LAFAYETTE,LA,70503,United States of America,3379899500.0,gattitown
1000851640,CiCi's Pizza,2622 Johnston St,LAFAYETTE,LA,70503-3240,United States of America,3372376466.0,cicis_pizza
1000958047,Sbarro,5725 Johnston St,LAFAYETTE,LA,70503-5313,United States of America,3379849084.0,sbarro
1000808361,Pizza Hut,1507 Kaliste Saloom Rd,LAFAYETTE,LA,70508-5761,United States of America,,pizza_hut
2000216204,Domino's Pizza,17634 Highway 190,PORT BARRE,LA,70577-5136,United States of America,3375858354.0,dominos_pizza
1000807904,Pizza Hut,14112 Greenwell Springs Rd,GREENWELL SPRINGS,LA,70739-3304,United States of America,,pizza_hut
2000001180,Fox's Pizza Den,4257 Church St,ZACHARY,LA,70791,United States of America,2252864189.0,foxs_pizza_den
2000030403,Pizza Hut,1183 S Flannery Rd,BATON ROUGE,LA,70815-7002,United States of America,,pizza_hut
2000031769,Papa Murphy's Take 'N' Bake Pizza,14241 Coursey Blvd,BATON ROUGE,LA,70817-1368,United States of America,2257510464.0,papa_murphys_take_n_bake_pizza
1000892259,Papa Murphy's Take 'N' Bake Pizza,14409 Wax Rd,BATON ROUGE,LA,70818-4276,United States of America,2252618600.0,papa_murphys_take_n_bake_pizza
2000198786,The Office Beer Bar & Grill,411 North Ave W,WESTFIELD,NJ,7090,United States of America,9082321207.0,the_office_beer_bar_&_grill
2000051092,Simple Simon's Pizza,6574 Highway 3,BENTON,LA,71006,United States of America,3189651717.0,simple_simons_pizza
1000925957,Pizza Pro,830 Cutoff Rd,COUSHATTA,LA,71019,United States of America,3189329708.0,pizza_pro
1000947065,Sbarro,2950 E Texas St,BOSSIER CITY,LA,71111,United States of America,3187472664.0,sbarro
1000810268,Pizza Hut,1981 Airline Dr,BOSSIER CITY,LA,71112-2448,United States of America,3187468888.0,pizza_hut
1000908026,Green Leaf's Grill,1 Term C,NEWARK,NJ,7114,United States of America,9736248558.0,green_leafs_grill
1000968316,Villa Pizza/Casa Java,1 Newark Airport,NEWARK,NJ,7114,United States of America,9736420600.0,villa_pizza/casa_java
2000198797,Villa Fresh Italian Kitchen,Newark Liberty International Airport,NEWARK,NJ,7114,United States of America,9736221743.0,villa_fresh_italian_kitchen
1000826828,Pizza Inn,1108 Cooktown Rd,RUSTON,LA,71270-3116,United States of America,3182559255.0,pizza_inn
2000144464,Fox's Pizza Den,2029 E Kentucky Ave,RUSTON,LA,71270-6624,United States of America,3182025850.0,foxs_pizza_den
1000809744,Pizza Hut,1819 Macarthur Dr,ALEXANDRIA,LA,71301-3715,United States of America,3184480238.0,pizza_hut
2000015760,Pizza Hut,4605A Jackson Street Ext,ALEXANDRIA,LA,71303,United States of America,,pizza_hut
2000030755,Pizza Hut,4535 Entrance Road Blvd 7828,FORT POLK,LA,71459,United States of America,,pizza_hut
2000242827,Little Caesars Pizza,Ave Tito Castro,PONCE,PR,716,United States of America,7878418484.0,little_caesars_pizza
1000810630,Pizza Hut,203 N Blake St,PINE BLUFF,AR,71601-3226,United States of America,,pizza_hut
1000921612,Domino's Pizza,4806 Dollarway Rd,PINE BLUFF,AR,71602-4002,United States of America,8705366060.0,dominos_pizza
1000832607,Pizza Inn,1326 N West Ave,EL DORADO,AR,71730-3854,United States of America,8708627974.0,pizza_inn
1000819147,Pizza Hut,706 Club Lane,CONWAY,AR,72034,United States of America,,pizza_hut
2000030474,Pizza Hut,1500 N Center St,LONOKE,AR,72086-2102,United States of America,,pizza_hut
1000814918,Pizza Hut,375 Dave Creek Pkwy,FAIRFIELD BAY,AR,72088,United States of America,5018846896.0,pizza_hut
1000805263,Pizza Hut,10300 Shannon Hills Dr,SHANNON HILLS,AR,72103-3363,United States of America,5014552121.0,pizza_hut
1000951727,Sbarro,3929 McCain Blvd,NORTH LITTLE ROCK,AR,72116,United States of America,5017586202.0,sbarro
2000050935,Simple Simon's Pizza,1050 N Fourche Ave,PERRYVILLE,AR,72126,United States of America,5018892113.0,simple_simons_pizza
1000812991,Pizza Hut,2841 E Race Ave,SEARCY,AR,72143-4794,United States of America,5012685868.0,pizza_hut
1000808400,Pizza Hut,1513 W Pleasure Ave,SEARCY,AR,72143-5156,United States of America,,pizza_hut
1000810943,Pizza Hut,2108 S Main St,STUTTGART,AR,72160-6722,United States of America,5016731521.0,pizza_hut
2000030588,Pizza Hut,2118 S Main St,STUTTGART,AR,72160-6722,United States of America,8706731521.0,pizza_hut
2000134479,Pizza Pro,14704 Highway 31 N,WARD,AR,72176,United States of America,,pizza_pro
1000958828,Sbarro,6000 W Markham St,LITTLE ROCK,AR,72205-3182,United States of America,5016643350.0,sbarro
1000826099,Chuck E. Cheese's,10901 N Rodney Parham Rd,LITTLE ROCK,AR,72212-4114,United States of America,5012278363.0,chuck_e_cheeses
2000030530,Pizza Hut,1800 Highway 25B,HEBER SPRINGS,AR,72543-6402,United States of America,,pizza_hut
1000926195,Pizza Pro,8580 Highway 7 S,HARRISON,AR,72601-5244,United States of America,8707434222.0,pizza_pro
1000819588,Pizza Hut,740 Highway 65 N,MARSHALL,AR,72650,United States of America,8704485800.0,pizza_hut
1000806623,Pizza Hut,1207 Highway 62 E,MOUNTAIN HOME,AR,72653-2734,United States of America,,pizza_hut
1000819567,Pizza Hut,737 N Leverett Ave,FAYETTEVILLE,AR,72701-3227,United States of America,,pizza_hut
1000896331,Papa Murphy's Take 'N' Bake Pizza,201 SW 14th St,BENTONVILLE,AR,72712,United States of America,4792719809.0,papa_murphys_take_n_bake_pizza
2000030935,Pizza Hut,903 N Bloomington St,LOWELL,AR,72745,United States of America,,pizza_hut
2000030473,Pizza Hut,150 S Curtis Ave,PEA RIDGE,AR,72751-3619,United States of America,,pizza_hut
1000809973,Pizza Hut,1900 W Walnut St,ROGERS,AR,72756-3367,United States of America,4796312393.0,pizza_hut
1000820261,Pizza Hut,814 W Cypress St,ROGERS,AR,72756-4224,United States of America,4796312316.0,pizza_hut
1000942653,Sbarro,2203 Promenade Blvd,ROGERS,AR,72758-8920,United States of America,4799869332.0,sbarro
2000242826,Little Caesars Pizza,Santa Maria Shopping Ctr,PONCE,PR,728,United States of America,7878438888.0,little_caesars_pizza
1000807349,Pizza Hut,1312 N Arkansas Ave,RUSSELLVILLE,AR,72801-2940,United States of America,4799682672.0,pizza_hut
2000015960,Pizza Hut,Hwy 103 S,CLARKSVILLE,AR,72830,United States of America,,pizza_hut
2000050918,Simple Simon's Pizza,1530 W Center St,GREENWOOD,AR,72936,United States of America,4799963002.0,simple_simons_pizza
2000050973,Simple Simon's Pizza,17905 N Portland Ave,EDMOND,OK,73012-8960,United States of America,4058441181.0,simple_simons_pizza
2000051038,Simple Simon's Pizza,532 S Carnegie St,CARNEGIE,OK,73015,United States of America,5806542844.0,simple_simons_pizza
1000821191,Pizza Hut,921 E Danforth Rd,EDMOND,OK,73034-5004,United States of America,,pizza_hut
2000051057,CheeZies Pizza,1824 E 2nd St,EDMOND,OK,73034-6347,United States of America,4053481199.0,cheezies_pizza
2000051061,Simple Simon's Pizza,305 E Main St,JONES,OK,73049-7716,United States of America,4053993500.0,simple_simons_pizza
2000030970,Pizza Hut,West Highway 19,LINDSAY,OK,73052,United States of America,,pizza_hut
1000947248,Sbarro,30 Mall Dr,JERSEY CITY,NJ,7306,United States of America,2013860363.0,sbarro
2000051063,Simple Simon's Pizza,329 West Main,MOUNTAIN VIEW,OK,73062,United States of America,5803472552.0,simple_simons_pizza
2000050999,Simple Simon's Pizza,1240 W Highway 277,NINNEKAH,OK,73067-3814,United States of America,4052222257.0,simple_simons_pizza
2000030894,Pizza Hut,803 N Main St,NOBLE,OK,73068,United States of America,,pizza_hut
1000965555,Sbarro,900 Asp Ave,NORMAN,OK,73069,United States of America,,sbarro
1000806916,Pizza Hut,1240 N Interstate Dr,NORMAN,OK,73072-3353,United States of America,,pizza_hut
1000949767,Sbarro,3403 W Main St,NORMAN,OK,73072-4809,United States of America,4053604710.0,sbarro
2000051064,CheeZies Pizza,16726 N Penn,OKLAHOMA CITY,OK,73107,United States of America,4053487171.0,cheezies_pizza
1000818384,Pizza Hut,6303 N Meridian Ave,OKLAHOMA CITY,OK,73112-1251,United States of America,,pizza_hut
2000050945,Simple Simon's Pizza,6305 Waterford Blvd,OKLAHOMA CITY,OK,73118,United States of America,4058423337.0,simple_simons_pizza
2000050904,Simple Simon's Pizza,1317 SE 44th St,OKLAHOMA CITY,OK,73129,United States of America,,simple_simons_pizza
1000944662,Sbarro,2501 W Memorial Rd,OKLAHOMA CITY,OK,73134-8025,United States of America,4057513377.0,sbarro
2000050914,CheeZies Pizza,9204 S Pennsylvania Ave,OKLAHOMA CITY,OK,73159-6902,United States of America,4054453721.0,cheezies_pizza
2000087619,CiCi's Pizza,2401 12th Ave NW,ARDMORE,OK,73401-1476,United States of America,5804903330.0,cicis_pizza
2000222067,CheeZies Pizza,2908 NW Sheridan Rd,LAWTON,OK,73505-2154,United States of America,5806993456.0,cheezies_pizza
1000954661,Papa John's Pizza,4645 W Gore Blvd,LAWTON,OK,73505-5962,United States of America,5803537999.0,papa_johns_pizza
2000051020,Simple Simon's Pizza,402 W Broadway St,HOLLIS,OK,73550-4218,United States of America,5806882958.0,simple_simons_pizza
2000051014,CheeZies Pizza,201 N Van Buren St,ENID,OK,73703-4502,United States of America,5802349222.0,cheezies_pizza
2000051008,Simple Simon's Pizza,102 Hwy 54 East,TEXHOMA,OK,73949,United States of America,5804237122.0,simple_simons_pizza
1000820904,Pizza Hut,900 S Aspen Ave,BROKEN ARROW,OK,74012-4805,United States of America,,pizza_hut
1000814226,Pizza Hut,3321 S Elm Pl,BROKEN ARROW,OK,74012-7924,United States of America,9184511190.0,pizza_hut
2000050901,Simple Simon's Pizza,20900 Highway 20 S,CLAREMORE,OK,74017,United States of America,9182828800.0,simple_simons_pizza
2000050939,Simple Simon's Pizza,220 A North Rose Rd,GLENCOE,OK,74032,United States of America,5806692433.0,simple_simons_pizza
2000051083,Simple Simon's Pizza,510 A Street,OILTON,OK,74052,United States of America,9188623500.0,simple_simons_pizza
1000815360,Pizza Hut,403 E Main St,PAWHUSKA,OK,74056-5219,United States of America,9182873377.0,pizza_hut
2000050946,Simple Simon's Pizza,10082 New Prue Road,PRUE,OK,74060,United States of America,9182423624.0,simple_simons_pizza
1000829218,Little Caesars Pizza,1200 E Charles Page Blvd,SAND SPRINGS,OK,74063-8511,United States of America,9182452091.0,little_caesars_pizza
1000819260,Pizza Hut,7121 S Memorial Dr,TULSA,OK,74133-2934,United States of America,9184611224.0,pizza_hut
1000952681,Sbarro,4107 S Yale Ave,TULSA,OK,74135,United States of America,9186636948.0,sbarro
2000050992,Simple Simon's Pizza,36005 S 620 Rd,GROVE,OK,74344-8177,United States of America,9187867686.0,simple_simons_pizza
2000051080,Simple Simon's Pizza,Hwy 412 West,LOCUST GROVE,OK,74352,United States of America,9184796075.0,simple_simons_pizza
1000837978,Pizza Inn,1620 N Main St,MIAMI,OK,74354-2721,United States of America,9185421609.0,pizza_inn
1000805707,Pizza Hut,11 N Adair St,PRYOR,OK,74361-2431,United States of America,9188254900.0,pizza_hut
2000051027,CheeZies Pizza,320 S Wood Dr,OKMULGEE,OK,74447-5230,United States of America,9187564999.0,cheezies_pizza
2000050980,Simple Simon's Pizza,101 E Ute Street,PORUM,OK,74455,United States of America,9184842501.0,simple_simons_pizza
2000183130,Papa John's Pizza,875 State Rt 17,RAMSEY,NJ,7446,United States of America,2018187272.0,papa_johns_pizza
2000051099,Simple Simon's Pizza,708 E Main,QUINTON,OK,74561,United States of America,9184692286.0,simple_simons_pizza
1000847196,Pizza Inn,2224 N 14th St,PONCA CITY,OK,74601-1832,United States of America,5807626383.0,pizza_inn
2000051013,CheeZies Pizza,Hwy 70 & 1st St,DURANT,OK,74701,United States of America,5809245557.0,cheezies_pizza
1000811321,Pizza Hut,2206 N Kickapoo Ave,SHAWNEE,OK,74804-2703,United States of America,4052730650.0,pizza_hut
2000222068,CheeZies Pizza,2003 N Harrison St,SHAWNEE,OK,74804-3140,United States of America,4052731100.0,cheezies_pizza
2000050976,Simple Simon's Pizza,407 E Broadway Ave,MCLOUD,OK,74851-8361,United States of America,4059645979.0,simple_simons_pizza
1000809298,Pizza Hut,1715 N Milt Phillips Ave,SEMINOLE,OK,74868-2333,United States of America,,pizza_hut
2000222070,CheeZies Pizza,418 N Broadway St,TECUMSEH,OK,74873-2016,United States of America,4055980234.0,cheezies_pizza
2000050899,Simple Simon's Pizza,32099 Highway 39,WANETTE,OK,74878-8027,United States of America,4053832299.0,simple_simons_pizza
1000817197,Pizza Hut,525 S Mekusukey Ave,WEWOKA,OK,74884-3134,United States of America,4052576251.0,pizza_hut
2000051097,Simple Simon's Pizza,109 W Main,MCCURTAIN,OK,74944,United States of America,9189457143.0,simple_simons_pizza
2000051028,Simple Simon's Pizza,1206 N Kentucky,PANAMA,OK,74951,United States of America,9189634433.0,simple_simons_pizza
2000051067,Simple Simon's Pizza,Hwy 64 & I-40,ROLAND,OK,74954,United States of America,9184277491.0,simple_simons_pizza
2000051103,Simple Simon's Pizza,601 US Highway 271,WISTER,OK,74966,United States of America,9186557010.0,simple_simons_pizza
2000050902,Simple Simon's Pizza,2661 Midway Rd,CARROLLTON,TX,75006,United States of America,9727139500.0,simple_simons_pizza
1000879075,Pizza Inn,7205-B Highway FM 691,DENISON,TX,75020,United States of America,9034635222.0,pizza_inn
1000805794,Pizza Hut,1101 W Main St,DENISON,TX,75020-3351,United States of America,,pizza_hut
2000051867,Gatti's Pizza,7801 Alma Dr,PLANO,TX,75025-3483,United States of America,9729433000.0,gattis_pizza
1000810422,Pizza Hut,2001 Cross Timbers Rd,FLOWER MOUND,TX,75028-7717,United States of America,,pizza_hut
1000820871,Pizza Hut,8992 Preston Rd,FRISCO,TX,75034-3964,United States of America,,pizza_hut
2000051848,GattiTown,3251 Preston Rd,FRISCO,TX,75034-9024,United States of America,2146189800.0,gattitown
1000863082,Pizza Inn,4016 N Belt Line Rd,IRVING,TX,75038-5043,United States of America,9725701923.0,pizza_inn
2000200094,Papa Murphy's Take 'N' Bake Pizza,3035 Broadway Blvd,GARLAND,TX,75041,United States of America,2147039200.0,papa_murphys_take_n_bake_pizza
2000015403,Pizza Hut,1350 N State Highway 161,GRAND PRAIRIE,TX,75050-3167,United States of America,,pizza_hut
1000814170,Pizza Hut,3302 W Rochelle Rd,IRVING,TX,75062-4167,United States of America,,pizza_hut
2000027409,Little Caesars Pizza,4050 FM 2181,HICKORY CREEK,TX,75065-7642,United States of America,9404973650.0,little_caesars_pizza
1000812785,Pizza Hut,2741 Virginia Pkwy,MCKINNEY,TX,75071-5027,United States of America,,pizza_hut
1000964013,Sbarro,811 N Central Expy,PLANO,TX,75075-8865,United States of America,9724220590.0,sbarro
2000051868,Gatti's Pizza,2115 E Belt Line Rd,RICHARDSON,TX,75081-3931,United States of America,9727836067.0,gattis_pizza
1000859898,Pizza Inn,3705 Lakeview Pkwy,ROWLETT,TX,75088-4178,United States of America,9724126444.0,pizza_inn
1000809654,Pizza Hut,1805 Preston Rd,PLANO,TX,75093-5154,United States of America,,pizza_hut
1000959315,Sbarro,6121 W Park Blvd,PLANO,TX,75093-6234,United States of America,4693661008.0,sbarro
2000183136,Papa John's Pizza,534 Union Blvd,TOTOWA,NJ,7512,United States of America,9732389100.0,papa_johns_pizza
1000858221,Pizza Inn,3315 N Town East Blvd,MESQUITE,TX,75150-3834,United States of America,9722707591.0,pizza_inn
2000015970,Pizza Inn,104 S I-45,WILMER,TX,75172,United States of America,9724413000.0,pizza_inn
2000051842,Gatti's Pizza,5941 Greenville Ave,DALLAS,TX,75206-1906,United States of America,2146912222.0,gattis_pizza
2000224979,Papa Murphy's Take 'N' Bake Pizza,4560 W Mockingbird Ln,DALLAS,TX,75209,United States of America,2143507272.0,papa_murphys_take_n_bake_pizza
2000015562,Pizza Hut,2110 E Ledbetter Dr,DALLAS,TX,75216-7435,United States of America,,pizza_hut
2000051844,GattiTown,11722 Marsh Ln,DALLAS,TX,75229,United States of America,9726777598.0,gattitown
2000030813,Pizza Hut,6039 Forest Lane,DALLAS,TX,75230,United States of America,,pizza_hut
2000200088,Papa Murphy's Take 'N' Bake Pizza,13350 Audelia Rd,DALLAS,TX,75243,United States of America,9727929999.0,papa_murphys_take_n_bake_pizza
2000033347,Papa Murphy's Take 'N' Bake Pizza,8110 Wesley St,GREENVILLE,TX,75402-3942,United States of America,9034544455.0,papa_murphys_take_n_bake_pizza
1000857906,Little Caesars Pizza,328 W Sam Rayburn Dr,BONHAM,TX,75418-4238,United States of America,9036401100.0,little_caesars_pizza
1000810411,Pizza Hut,2000 W Main,CLARKSVILLE,TX,75426,United States of America,9034272215.0,pizza_hut
2000196593,Pizza Inn,2011 N Jefferson Ave,MT PLEASANT,TX,75455-2336,United States of America,9035775555.0,pizza_inn
1000808858,Pizza Hut,1610 Clarksville St,PARIS,TX,75460-6037,United States of America,,pizza_hut
2000183637,Marco's Pizza,4719 Texas Blvd,TEXARKANA,TX,75501,United States of America,9037920159.0,marcos_pizza
1000849389,Little Caesars Pizza,2414 Gilmer Rd,LONGVIEW,TX,75604-2109,United States of America,9032950111.0,little_caesars_pizza
1000811741,Pizza Hut,2330 Judson Rd,LONGVIEW,TX,75605-4627,United States of America,,pizza_hut
2000050968,Simple Simon's Pizza,350 E Texas Ave,WASKOM,TX,75692-9330,United States of America,9036872400.0,simple_simons_pizza
1000898598,Hungry Howie's Pizza & Subs,3101 Shiloh Rd,TYLER,TX,75707,United States of America,9035619111.0,hungry_howies_pizza_&_subs
1000911672,Pizza Pro,13858 State Highway 64,BEN WHEELER,TX,75754,United States of America,9038331739.0,pizza_pro
1000850990,Pizza Inn,2551 S Main St,LINDALE,TX,75771-7722,United States of America,9038823388.0,pizza_inn
2000144484,Fox's Pizza Den,610 W Gibson St,JASPER,TX,75951-4910,United States of America,4094899454.0,foxs_pizza_den
1000902142,Papa Murphy's Take 'N' Bake Pizza,4909 North St,NACOGDOCHES,TX,75965-1808,United States of America,9365527900.0,papa_murphys_take_n_bake_pizza
2000224978,Papa Murphy's Take 'N' Bake Pizza,1607 S Bowen Rd,PANTEGO,TX,76013-3337,United States of America,8178016666.0,papa_murphys_take_n_bake_pizza
1000951340,Sbarro,3811 S Cooper St,ARLINGTON,TX,76015-4147,United States of America,8174676344.0,sbarro
2000027493,Little Caesars Pizza,8905 Benbrook Blvd,BENBROOK,TX,76126-3435,United States of America,8172498777.0,little_caesars_pizza
2000092411,Pizza Inn,4833 S Hulen St,FORT WORTH,TX,76132-1427,United States of America,8174235656.0,pizza_inn
1000906621,Papa Murphy's Take 'N' Bake Pizza,8420 Denton Hwy,WATAUGA,TX,76148-2460,United States of America,8175038309.0,papa_murphys_take_n_bake_pizza
2000196583,Pizza Inn,203 W Division St,MUENSTER,TX,76252,United States of America,9407592923.0,pizza_inn
2000051102,Simple Simon's Pizza,113 E Main St,WHITESBORO,TX,76273-1724,United States of America,9035649101.0,simple_simons_pizza
1000887916,Pizza Inn,Hwy 6 & Hwy 281,HICO,TX,76457,United States of America,2547964838.0,pizza_inn
2000143997,Old Chicago Pizza & Taproom,2901 E Central Texas Expy,KILLEEN,TX,76543-7305,United States of America,2548335061.0,old_chicago_pizza_&_taproom
2000015851,Pizza Hut,67th St Building 39014,FORT HOOD,TX,76544,United States of America,,pizza_hut
2000031792,Papa Murphy's Take 'N' Bake Pizza,300 E FM 2410 Rd,HARKER HEIGHTS,TX,76548,United States of America,2546997272.0,papa_murphys_take_n_bake_pizza
2000051856,Gatti's Pizza,208 N Key Ave,LAMPASAS,TX,76550-1843,United States of America,5125562091.0,gattis_pizza
1000810628,Pizza Hut,203 Hewitt Drive,HEWITT,TX,76643,United States of America,,pizza_hut
2000051023,Simple Simon's Pizza,210 E Morgan St,MERIDIAN,TX,76665,United States of America,2544356959.0,simple_simons_pizza
2000030809,Pizza Hut,601 H Highway 14,MEXIA,TX,76667,United States of America,,pizza_hut
2000050942,Simple Simon's Pizza,1008 Harris,MORGAN,TX,76671,United States of America,2546358571.0,simple_simons_pizza
1000815337,Pizza Hut,4019 N 19th St,WACO,TX,76708-1679,United States of America,2547533333.0,pizza_hut
1000865256,Pizza Inn,4315 Lake Shore Dr,WACO,TX,76710-1970,United States of America,2547511723.0,pizza_inn
2000242821,Little Caesars Pizza,Carr 153 KM 13.7,COAMO,PR,769,United States of America,7878258888.0,little_caesars_pizza
1000816415,Pizza Hut,4711 Calhoun Rd,HOUSTON,TX,77004,United States of America,7137485146.0,pizza_hut
1000812453,Pizza Hut,2600 S Richey St,HOUSTON,TX,77017-6823,United States of America,,pizza_hut
1000815271,Pizza Hut,4001 Bellaire Blvd,HOUSTON,TX,77025-1145,United States of America,,pizza_hut
1000890825,Villa Pizza,12200 Gulf Fwy,HOUSTON,TX,77034-4504,United States of America,7139473825.0,villa_pizza
2000030927,Pizza Hut,8880 Bellaire Blvd,HOUSTON,TX,77036-4621,United States of America,,pizza_hut
1000926974,Domino's Pizza,9428 Cullen Blvd,HOUSTON,TX,77051,United States of America,7137340300.0,dominos_pizza
1000963390,Sbarro,7925 Willowbrook Mall,HOUSTON,TX,77070,United States of America,2818941705.0,sbarro
1000807035,Pizza Hut,12616 Jones Rd,HOUSTON,TX,77070-4842,United States of America,2818945353.0,pizza_hut
1000876492,Pizza Inn,6590 Southwest Freeway,HOUSTON,TX,77074-2215,United States of America,7137813464.0,pizza_inn
1000877385,CiCi's Pizza,6858 Highway 6 S,HOUSTON,TX,77083-3302,United States of America,2815682424.0,cicis_pizza
1000818224,Pizza Hut,6172 Barker Cypress Rd,HOUSTON,TX,77084-6475,United States of America,,pizza_hut
2000196572,Pizza Inn,16044 West Rd,HOUSTON,TX,77095-3869,United States of America,2815507492.0,pizza_inn
1000808108,Pizza Hut,14540 Highway 105 W,CONROE,TX,77304-4760,United States of America,,pizza_hut
2000051854,Gatti's Pizza,1523 Normal Park Dr,HUNTSVILLE,TX,77340,United States of America,9362918989.0,gattis_pizza
2000015608,Pizza Hut,24914 Kuykendahl Rd,TOMBALL,TX,77375-3381,United States of America,,pizza_hut
2000051879,Gatti's Pizza,904 W Montgomery St,WILLIS,TX,77378-8834,United States of America,9368562676.0,gattis_pizza
1000841302,CiCi's Pizza,18416 Kuykendahl Rd,SPRING,TX,77379-8123,United States of America,2813500011.0,cicis_pizza
2000051091,Simple Simon's Pizza,540 W Main St,BELLVILLE,TX,77418-1357,United States of America,9798659131.0,simple_simons_pizza
1000838003,Pizza Inn,16206 Spring Cypress Rd,CYPRESS,TX,77429-1708,United States of America,2813048080.0,pizza_inn
1000955987,Papa John's Pizza,5022 Highway 90A,SUGAR LAND,TX,77498-2048,United States of America,2812420200.0,papa_johns_pizza
1000814490,Pizza Hut,3486 Gulf Fwy,DICKINSON,TX,77539-4119,United States of America,,pizza_hut
1000810883,Pizza Hut,2100 Texas Ave,BRIDGE CITY,TX,77611-2800,United States of America,4097357500.0,pizza_hut
1000922349,Pizza Pro,520 Highway 326 N,SOUR LAKE,TX,77659,United States of America,4092872402.0,pizza_pro
1000809436,Pizza Hut,175 S Dowlen Rd,BEAUMONT,TX,77707-1756,United States of America,,pizza_hut
1000873357,Little Caesars Pizza,5902 Eastex Fwy,BEAUMONT,TX,77708-4823,United States of America,4098993311.0,little_caesars_pizza
1000813779,Pizza Hut,3141 Briarcrest Dr,BRYAN,TX,77802-3050,United States of America,,pizza_hut
2000015616,Pizza Hut,2538-B South Day St,BRENHAM,TX,77833,United States of America,,pizza_hut
1000819029,Pizza Hut,7002 NE Zac Lentz Pkwy,VICTORIA,TX,77904-3449,United States of America,,pizza_hut
2000050993,Simple Simon's Pizza,504 W Fairwinds St,HALLETTSVILLE,TX,77964-3517,United States of America,3617981668.0,simple_simons_pizza
2000030744,Pizza Hut,425 State Highway 35 N,PORT LAVACA,TX,77979-2362,United States of America,,pizza_hut
2000144485,Fox's Pizza Den,320 State Highway 35 S,PORT LAVACA,TX,77979-2406,United States of America,3615527499.0,foxs_pizza_den
2000051855,Gatti's Pizza,218 Sidney Baker St S,KERRVILLE,TX,78028-5914,United States of America,8308965555.0,gattis_pizza
2000196584,Pizza Inn,512 2nd St,PLEASANTON,TX,78064-3602,United States of America,8302815432.0,pizza_inn
1000820990,Pizza Hut,904 N Harborth Ave,THREE RIVERS,TX,78071,United States of America,3617863506.0,pizza_hut
2000051862,Gatti's Pizza,668 S Walnut Ave,NEW BRAUNFELS,TX,78130-5723,United States of America,8306255165.0,gattis_pizza
2000053089,Peter Piper Pizza,8134 Agora Pkwy,SELMA,TX,78154-1317,United States of America,2106581541.0,peter_piper_pizza
1000804972,Pizza Hut,1006 E Kingsbury St,SEGUIN,TX,78155-2118,United States of America,8303797303.0,pizza_hut
1000964739,Sbarro,849 E Commerce St,SAN ANTONIO,TX,78205-3927,United States of America,2102275465.0,sbarro
1000831986,Little Caesars Pizza,1302 Austin Hwy,SAN ANTONIO,TX,78209,United States of America,2108291718.0,little_caesars_pizza
1000814230,Pizza Hut,3323 Roosevelt Ave,SAN ANTONIO,TX,78214-2603,United States of America,,pizza_hut
1000806717,Pizza Hut,12146 Nacogdoches Rd,SAN ANTONIO,TX,78217-2335,United States of America,2106551101.0,pizza_hut
1000805732,Pizza Hut,110 S Ww White Rd,SAN ANTONIO,TX,78219-4220,United States of America,2103371923.0,pizza_hut
1000943471,Sbarro,2310 SW Military Dr,SAN ANTONIO,TX,78224-1409,United States of America,2109287966.0,sbarro
2000015499,Pizza Hut,1820 Gnrl Mcmullen Dr South,SAN ANTONIO,TX,78226,United States of America,,pizza_hut
1000809753,Pizza Hut,1820 S General McMullen Dr,SAN ANTONIO,TX,78226-1128,United States of America,2104335198.0,pizza_hut
1000813639,Pizza Hut,310 Valley HI Dr,SAN ANTONIO,TX,78227-4605,United States of America,,pizza_hut
1000905825,Villa Pizza,7702 Floyd Curl Dr,SAN ANTONIO,TX,78229-3911,United States of America,2106157544.0,villa_pizza
1000820741,Pizza Hut,8754 Grissom Rd,SAN ANTONIO,TX,78251-4819,United States of America,2106804531.0,pizza_hut
1000819523,Pizza Hut,7319 N Fm 1604 W,SAN ANTONIO,TX,78254,United States of America,,pizza_hut
2000030644,Pizza Hut,2735 West Wheeler Ave,ARANSAS PASS,TX,78336,United States of America,3617582813.0,pizza_hut
2000033471,Pizza Hut,1041 US Highway 181,PORTLAND,TX,78374-1733,United States of America,,pizza_hut
1000816527,Pizza Hut,4815b Saratoga Blvd,CORPUS CHRISTI,TX,78413,United States of America,,pizza_hut
2000200095,Papa Murphy's Take 'N' Bake Pizza,920 S 77 Sunshine Strip,HARLINGEN,TX,78550-8011,United States of America,9564237272.0,papa_murphys_take_n_bake_pizza
1000817133,Pizza Hut,521 W Hwy 83,ROMA,TX,78584,United States of America,8777499251.0,pizza_hut
2000051837,Gatti's Pizza,414 Buchanan Dr,BURNET,TX,78611-2303,United States of America,5127568425.0,gattis_pizza
2000051847,Gatti's Pizza,1408 E Main St,FREDERICKSBURG,TX,78624-5320,United States of America,8309979797.0,gattis_pizza
2000051858,Gatti's Pizza,502 US Highway 281,MARBLE FALLS,TX,78654-5709,United States of America,8306932950.0,gattis_pizza
1000815364,Pizza Hut,403 N Guadalupe St,SAN MARCOS,TX,78666-5776,United States of America,5123925900.0,pizza_hut
2000051816,Gatti's Pizza,503 W Martin Luther King Jr Blvd,AUSTIN,TX,78701-1230,United States of America,5124592222.0,gattis_pizza
2000051826,Gatti's Pizza,701 W 6th St,AUSTIN,TX,78701-2707,United States of America,5125838094.0,gattis_pizza
2000173124,Little Caesars Pizza,3706 Guadalupe St,AUSTIN,TX,78705-1486,United States of America,5123715700.0,little_caesars_pizza
1000818388,Pizza Hut,6307a Cameron Rd,AUSTIN,TX,78723,United States of America,,pizza_hut
1000810594,Pizza Hut,2021b E Riverside Dr,AUSTIN,TX,78741,United States of America,,pizza_hut
2000030797,Pizza Hut,5510 S I-35,AUSTIN,TX,78745,United States of America,,pizza_hut
1000813914,Pizza Hut,320 W William Cannon Dr,AUSTIN,TX,78745-5849,United States of America,5124621166.0,pizza_hut
1000820353,Pizza Hut,8213 Brodie Ln,AUSTIN,TX,78745-7467,United States of America,,pizza_hut
2000051870,Gatti's Pizza,2802 Bee Caves Rd,ROLLINGWOOD,TX,78746-5543,United States of America,5125838101.0,gattis_pizza
1000813930,Pizza Hut,3201 Bee Cave Rd,AUSTIN,TX,78746-6764,United States of America,5123290185.0,pizza_hut
2000200082,Papa Murphy's Take 'N' Bake Pizza,4404 W William Cannon Dr,AUSTIN,TX,78749,United States of America,5128917272.0,papa_murphys_take_n_bake_pizza
2000033459,Pizza Hut,1015 E Braker Lane,AUSTIN,TX,78753,United States of America,,pizza_hut
2000051818,Gatti's Pizza,9300 N Lamar Blvd,AUSTIN,TX,78753-4104,United States of America,5124592222.0,gattis_pizza
2000136203,Marco's Pizza,5020 Burnet Rd,AUSTIN,TX,78756-2612,United States of America,5124544444.0,marcos_pizza
1000810503,Pizza Hut,201 Pena St,CARRIZO SPRINGS,TX,78834-3259,United States of America,8308769224.0,pizza_hut
1000810913,Pizza Hut,2102 Milam St,COLUMBUS,TX,78934,United States of America,9797328323.0,pizza_hut
1000817525,Pizza Hut,556 W Austin St,GIDDINGS,TX,78942-3106,United States of America,9795423011.0,pizza_hut
1000808409,Pizza Hut,1515 S Dumas Ave,DUMAS,TX,79029-5517,United States of America,8069353230.0,pizza_hut
2000015332,Pizza Hut,1108 N Interstate Hwy 27,PLAINVIEW,TX,79072,United States of America,8062935000.0,pizza_hut
2000051112,Simple Simon's Pizza,312 Main St,SPEARMAN,TX,79081,United States of America,8066595046.0,simple_simons_pizza
1000810675,Pizza Hut,204 S Western St,AMARILLO,TX,79106-7862,United States of America,8063523311.0,pizza_hut
2000051813,Gatti's Pizza,3605 SW 45th Ave,AMARILLO,TX,79109-5662,United States of America,8063556555.0,gattis_pizza
1000811417,Pizza Hut,2220 W Division St,SLATON,TX,79364,United States of America,,pizza_hut
2000183124,Papa John's Pizza,6 Main St,MADISON,NJ,7940,United States of America,9732369700.0,papa_johns_pizza
2000182578,Sbarro,6002 Slide Rd,LUBBOCK,TX,79414-4310,United States of America,,sbarro
1000817665,Pizza Hut,5718 4th St,LUBBOCK,TX,79416-4207,United States of America,,pizza_hut
2000196592,Pizza Inn,4130 Ridgemont Dr,ABILENE,TX,79606,United States of America,3256955656.0,pizza_inn
1000839182,Pizza Inn,1702 S Gregg St,BIG SPRING,TX,79720-4524,United States of America,4322631381.0,pizza_inn
2000224954,Papa Murphy's Take 'N' Bake Pizza,3920 E 42nd St,ODESSA,TX,79762-5940,United States of America,4322723636.0,papa_murphys_take_n_bake_pizza
1000809674,Pizza Hut,1808 W Broadway,VAN HORN,TX,79855,United States of America,4322832860.0,pizza_hut
1000918606,Domino's Pizza,3233 N Mesa St,EL PASO,TX,79902-2300,United States of America,9155337500.0,dominos_pizza
2000015806,Pizza Hut,5612 Dyer St,EL PASO,TX,79904-6242,United States of America,,pizza_hut
2000030655,Pizza Hut,2959 Carter Rd,FORT BLISS,TX,79906,United States of America,9155665130.0,pizza_hut
1000818137,Pizza Hut,6105 N Mesa St,EL PASO,TX,79912,United States of America,,pizza_hut
2000222060,CheeZies Pizza,9740 Dyer St,EL PASO,TX,79924,United States of America,9157573600.0,cheezies_pizza
1000818774,Pizza Hut,6702 Montana Ave,EL PASO,TX,79925,United States of America,9157811096.0,pizza_hut
2000131518,Gatti's Pizza,1430 N Lee Trevino Dr,EL PASO,TX,79936-6427,United States of America,9155924100.0,gattis_pizza
1000821491,Pizza Hut,9672 E Arapahoe Rd,GREENWOOD VILLAGE,CO,80112-3703,United States of America,,pizza_hut
1000879818,CiCi's Pizza,7414 S University Blvd,CENTENNIAL,CO,80122-1671,United States of America,7209743062.0,cicis_pizza
1000906687,Villa Fresh Italian Kitchen,8501 W Bowles Ave,LITTLETON,CO,80123,United States of America,3039736368.0,villa_fresh_italian_kitchen
2000182587,Sbarro,8515 Park Meadows Center Dr,LONE TREE,CO,80124,United States of America,3037925461.0,sbarro
1000817702,Pizza Hut,578 Highway 105,MONUMENT,CO,80132-9125,United States of America,,pizza_hut
1000807158,Pizza Hut,12947 S Parker Rd,PARKER,CO,80134-3447,United States of America,3038051221.0,pizza_hut
1000947406,Sbarro,3000 E 1st Ave,DENVER,CO,80206,United States of America,3033883604.0,sbarro
1000820762,Pizza Hut,880 E Colfax Ave,DENVER,CO,80218-1811,United States of America,,pizza_hut
1000816274,Pizza Hut,4565 E Colfax Ave,DENVER,CO,80220-1101,United States of America,,pizza_hut
1000818240,Pizza Hut,619 W 84th Ave,THORNTON,CO,80260-4817,United States of America,3034291713.0,pizza_hut
1000821669,Pizza Hut,Doubletree Plaza Rte 47,GLASSBORO,NJ,8028,United States of America,8565823440.0,pizza_hut
1000809379,Pizza Hut,17300 S Golden Rd,GOLDEN,CO,80401,United States of America,,pizza_hut
2000041151,California Pizza Kitchen,14500 W Colfax Ave,LAKEWOOD,CO,80401-3203,United States of America,3032786488.0,california_pizza_kitchen
1000935334,Sbarro,14500 W Colfax Ave,LAKEWOOD,CO,80401-3256,United States of America,3032157100.0,sbarro
1000812642,Pizza Hut,27 Miller Dr,WINTER PARK,CO,80482,United States of America,,pizza_hut
1000821771,Pizza Hut,465 Anglers Dr,STEAMBOAT SPRINGS,CO,80487,United States of America,,pizza_hut
1000807011,Pizza Hut,1258 S Hover St,LONGMONT,CO,80501,United States of America,3036780682.0,pizza_hut
1000811255,Pizza Hut,220 E Main St,LIMON,CO,80828,United States of America,,pizza_hut
2000015339,Pizza Hut,1120 N Circle Dr,COLORADO SPRINGS,CO,80909-3101,United States of America,,pizza_hut
2000030696,Pizza Hut,3345 N Academy Blvd,COLORADO SPRINGS,CO,80917,United States of America,,pizza_hut
1000938101,Sbarro,1710 Brigate Blvd,COLORADO SPRINGS,CO,80920,United States of America,7195285100.0,sbarro
1000808630,Pizza Hut,1560 Briargate Blvd,COLORADO SPRINGS,CO,80920-3434,United States of America,,pizza_hut
1000810014,Pizza Hut,1905 N Hudson Ave,PUEBLO,CO,81001-2530,United States of America,,pizza_hut
1000821513,Pizza Hut,973 US Highway 85 87,WALSENBURG,CO,81089-9434,United States of America,7197383783.0,pizza_hut
1000817945,Pizza Hut,601 N Hwy 24,BUENA VISTA,CO,81211,United States of America,7193952454.0,pizza_hut
2000182978,Papa John's Pizza,1520 Royal Gorge Blvd,CANON CITY,CO,81212,United States of America,7192697272.0,papa_johns_pizza
1000817657,Pizza Hut,571 32 Rd,GRAND JUNCTION,CO,81504,United States of America,3034345500.0,pizza_hut
1000944158,Sbarro,2424 Highway 6 and 50,GRAND JUNCTION,CO,81505-1115,United States of America,9702455232.0,sbarro
1000815226,Pizza Hut,40 Nottingham Rd,AVON,CO,81620,United States of America,,pizza_hut
2000030753,Pizza Hut,4503 Western Way,CHEYENNE,WY,82001-6520,United States of America,,pizza_hut
1000934554,Sbarro,1400 Dell Range Blvd,CHEYENNE,WY,82009-4873,United States of America,3077780455.0,sbarro
1000810456,Pizza Hut,2005 Churchill,ROCK SPRINGS,WY,82901-5725,United States of America,,pizza_hut
1000818198,Pizza Hut,615 E Flaming Gorge Way,GREEN RIVER,WY,82935-4404,United States of America,,pizza_hut
1000816015,Pizza Hut,44 Riverside Plaza,BLACKFOOT,ID,83221,United States of America,,pizza_hut
2000015719,Pizza Hut,399 N Woodruff Ave,IDAHO FALLS,ID,83401-4304,United States of America,,pizza_hut
1000807734,Pizza Hut,140 Caldwell Blvd,NAMPA,ID,83651-2333,United States of America,,pizza_hut
1000820993,Pizza Hut,9040 Ustick Rd,BOISE,ID,83704,United States of America,,pizza_hut
1000898875,Villa Pizza,3201 Airport Way,BOISE,ID,83705,United States of America,2084241042.0,villa_pizza
1000915385,Domino's Pizza,2164 S Broadway Ave,BOISE,ID,83706-4205,United States of America,2083455551.0,dominos_pizza
2000015584,Pizza Hut,2300 S Apple St,BOISE,ID,83706-5161,United States of America,,pizza_hut
2000183005,Papa John's Pizza,8162 W Overland Rd,BOISE,ID,83709,United States of America,2088537100.0,papa_johns_pizza
2000033466,Pizza Hut,10244 W Overland Rd,BOISE,ID,83709-1439,United States of America,,pizza_hut
1000817226,Pizza Hut,5285 N Glenwood St,BOISE,ID,83714-1331,United States of America,2083225562.0,pizza_hut
1000942877,Sbarro,225 Boardwalk,ATLANTIC CITY,NJ,8401,United States of America,6094419000.0,sbarro
1000967371,Sbarro,Casino Resort,ATLANTIC CITY,NJ,8401,United States of America,,sbarro
1000819715,Pizza Hut,760 S Main St,HEBER CITY,UT,84032,United States of America,,pizza_hut
1000825200,Chuck E. Cheese's,10535 S State St,SANDY,UT,84070-4110,United States of America,8015727994.0,chuck_e_cheeses
2000182574,Sbarro,575 E University Pkwy,OREM,UT,84097-7521,United States of America,,sbarro
1000935477,Sbarro,140 S Rio Grande St,SALT LAKE CITY,UT,84101-4118,United States of America,8014560552.0,sbarro
1000811027,Pizza Hut,212 S Highway 55,PRICE,UT,84501-3532,United States of America,4356376410.0,pizza_hut
1000808467,Pizza Hut,1523 N Canyon Rd,PROVO,UT,84604-1607,United States of America,,pizza_hut
1000890365,Papa Murphy's Take 'N' Bake Pizza,1116 S Highway 89,RICHFIELD,UT,84701-3103,United States of America,4358968400.0,papa_murphys_take_n_bake_pizza
1000858327,Chuck E. Cheese's,3329 E Bell Rd,PHOENIX,AZ,85032,United States of America,6024937000.0,chuck_e_cheeses
1000815033,Pizza Hut,3831 E Thunderbird Rd,PHOENIX,AZ,85032-5700,United States of America,,pizza_hut
1000962896,Sbarro,7611 W Thomas Rd,PHOENIX,AZ,85033,United States of America,6238731780.0,sbarro
1000949719,Sbarro,3400 E Sky Harbor Blvd,PHOENIX,AZ,85034,United States of America,,sbarro
1000816514,Pizza Hut,4810 E Ray Rd,PHOENIX,AZ,85044-6404,United States of America,,pizza_hut
1000899426,Hungry Howie's Pizza & Subs,3434 W Anthem Way,ANTHEM,AZ,85086-0449,United States of America,6235518660.0,hungry_howies_pizza_&_subs
1000817243,Pizza Hut,5300 S Superstition Mountain,GOLD CANYON,AZ,85118,United States of America,,pizza_hut
1000935243,Sbarro,1445 W Southern Ave,MESA,AZ,85202-4900,United States of America,4808981470.0,sbarro
1000809382,Pizza Hut,1731 W Baseline Rd,MESA,AZ,85202-5782,United States of America,4807302500.0,pizza_hut
1000817879,Pizza Hut,60 N Gilbert Rd,MESA,AZ,85203-9049,United States of America,,pizza_hut
1000821187,Pizza Hut,9205 E Main St,MESA,AZ,85207-8802,United States of America,,pizza_hut
2000030776,Pizza Hut,5055 W Ray Rd,CHANDLER,AZ,85226,United States of America,,pizza_hut
1000961428,Sbarro,7014 E Camelback Rd,SCOTTSDALE,AZ,85251-1236,United States of America,4809418863.0,sbarro
1000818319,Pizza Hut,6245 E Bell Rd,SCOTTSDALE,AZ,85254-6404,United States of America,,pizza_hut
1000820239,Pizza Hut,8120 E McDowell Rd,SCOTTSDALE,AZ,85257-3827,United States of America,,pizza_hut
1000816523,Pizza Hut,4815 E Carefree Hwy,CAVE CREEK,AZ,85331-4718,United States of America,,pizza_hut
1000918091,Domino's Pizza,307 S Beeline Hwy,PAYSON,AZ,85541-4865,United States of America,9284729000.0,dominos_pizza
1000881465,Little Caesars Pizza,7980 N Oracle Rd,TUCSON,AZ,85704-6388,United States of America,5205750300.0,little_caesars_pizza
2000128322,California Pizza Kitchen,4500 N Oracle Rd,TUCSON,AZ,85705,United States of America,5204075004.0,california_pizza_kitchen
1000917221,Domino's Pizza,2750 S 4th Ave,TUCSON,AZ,85713-4838,United States of America,5206249900.0,dominos_pizza
1000819467,Pizza Hut,727 W Ajo Way,TUCSON,AZ,85713-6049,United States of America,,pizza_hut
1000816356,Pizza Hut,4655 E Sunrise Dr,TUCSON,AZ,85718-5364,United States of America,5202993881.0,pizza_hut
1000908959,Domino's Pizza,1033 N Park,TUCSON,AZ,85719,United States of America,5206224200.0,dominos_pizza
1000815612,Pizza Hut,4131 W Ina Rd,TUCSON,AZ,85741-2202,United States of America,5205790550.0,pizza_hut
2000009002,CiCi's Pizza,2912 W Ina Rd,TUCSON,AZ,85741-2390,United States of America,5204083266.0,cicis_pizza
1000954685,Sbarro,4650 N US Highway 89,FLAGSTAFF,AZ,86004-2442,United States of America,9285229203.0,sbarro
1000910401,Domino's Pizza,12000 Candelaria Rd NE,ALBUQUERQUE,NM,87112-6400,United States of America,5052927715.0,dominos_pizza
1000837947,Little Caesars Pizza,13110 Central Ave SE,ALBUQUERQUE,NM,87123,United States of America,5052965496.0,little_caesars_pizza
1000888744,Papa Murphy's Take 'N' Bake Pizza,1000 Rio Rancho Dr SE,ALBUQUERQUE,NM,87124-1051,United States of America,5058924555.0,papa_murphys_take_n_bake_pizza
1000953318,Sbarro,4250 Cerrillos Rd,SANTA FE,NM,87507-0963,United States of America,5054734963.0,sbarro
1000808815,Pizza Hut,1605 El Paseo Rd,LAS CRUCES,NM,88001-6010,United States of America,,pizza_hut
1000961264,Sbarro,700 S Telshor Blvd,LAS CRUCES,NM,88011-8605,United States of America,5755225228.0,sbarro
2000030964,Pizza Hut,Pope &amp; Us Hwy 180,SILVER CITY,NM,88061,United States of America,,pizza_hut
1000806595,Pizza Hut,1203 W 2nd St,ROSWELL,NM,88201-2009,United States of America,5756238380.0,pizza_hut
1000805050,Pizza Hut,1010 10th St,ALAMOGORDO,NM,88310-6426,United States of America,5754378822.0,pizza_hut
2000015362,Pizza Hut,120 S White Sands Blvd,ALAMOGORDO,NM,88310-6562,United States of America,,pizza_hut
1000806550,Pizza Hut,1201 Mechem Dr,RUIDOSO,NM,88345-7210,United States of America,5752583033.0,pizza_hut
1000933453,Sbarro,1301 W Sunset Rd,HENDERSON,NV,89014-6607,United States of America,7028981944.0,sbarro
2000012557,Little Caesars Pizza,1155 W Pioneer Blvd,MESQUITE,NV,89027-8909,United States of America,7023452467.0,little_caesars_pizza
2000003423,Sbarro,2020 S Casino Dr,LAUGHLIN,NV,89029-1518,United States of America,,sbarro
1000941822,Sbarro,2101 Texas Star Ln,NORTH LAS VEGAS,NV,89032,United States of America,7026488820.0,sbarro
1000896273,Villa Fresh Italian Kitchen,2300 Paseo Verde Pkwy,HENDERSON,NV,89052-2672,United States of America,7028962537.0,villa_fresh_italian_kitchen
1000948702,Sbarro,3200 Las Vegas Blvd S,LAS VEGAS,NV,89109-0749,United States of America,7027340085.0,sbarro
1000816112,Pizza Hut,4440 E Washington Ave,LAS VEGAS,NV,89110-5793,United States of America,,pizza_hut
1000813656,Pizza Hut,3101 Las Vegas Blvd N,LAS VEGAS,NV,89115-0502,United States of America,,pizza_hut
1000819026,Pizza Hut,7000 W Charleston Blvd,LAS VEGAS,NV,89117-1637,United States of America,7023633612.0,pizza_hut
2000003419,Sbarro,5715 S Eastern Ave,LAS VEGAS,NV,89119-3009,United States of America,7027361178.0,sbarro
1000956317,Sbarro,5111 Boulder Hwy,LAS VEGAS,NV,89122-6001,United States of America,7024501123.0,sbarro
1000950048,Sbarro,3480 S Maryland Pkwy,LAS VEGAS,NV,89169-3067,United States of America,7023691314.0,sbarro
1000924042,Domino's Pizza,655 Greenbrae Dr,SPARKS,NV,89431-3120,United States of America,7753598080.0,dominos_pizza
2000015824,Pizza Hut,6015 S Virginia Delmonte Plz,RENO,NV,89502,United States of America,,pizza_hut
1000957131,Sbarro,5385 Meadowood Mall Cir,RENO,NV,89502-6506,United States of America,7758240900.0,sbarro
1000815810,Pizza Hut,4251 Beverly Blvd,LOS ANGELES,CA,90004-4415,United States of America,,pizza_hut
2000024515,Johnnie's New York Pizzeria,3183 Wilshire Blvd,LOS ANGELES,CA,90010-1279,United States of America,2133853100.0,johnnies_new_york_pizzeria
1000817138,Pizza Hut,5213 Whittier Blvd,LOS ANGELES,CA,90022-4012,United States of America,,pizza_hut
1000813311,Pizza Hut,3002 S Sepulveda Blvd,LOS ANGELES,CA,90034-4202,United States of America,,pizza_hut
1000965271,Papa John's Pizza,8823 W Pico Blvd,LOS ANGELES,CA,90035-3301,United States of America,3105537272.0,papa_johns_pizza
1000819858,Pizza Hut,780 S La Brea Ave,LOS ANGELES,CA,90036-4209,United States of America,3239651300.0,pizza_hut
2000038093,Johnnie's New York Pizzeria,8164 Sunset Boulevard,LOS ANGELES,CA,90046,United States of America,3236508172.0,johnnies_new_york_pizzeria
1000964783,Sbarro,8500 Beverly Blvd,LOS ANGELES,CA,90048-6203,United States of America,3103580602.0,sbarro
1000929883,Sbarro,10800 W Pico Blvd,LOS ANGELES,CA,90064-2187,United States of America,3104749354.0,sbarro
1000806949,Pizza Hut,12460 Venice Blvd,LOS ANGELES,CA,90066-3804,United States of America,,pizza_hut
1000924546,Domino's Pizza,7021 Atlantic Ave,BELL,CA,90201-3648,United States of America,3235608903.0,dominos_pizza
1000805544,Pizza Hut,10702 Jefferson Blvd,CULVER CITY,CA,90230-4933,United States of America,,pizza_hut
1000813062,Pizza Hut,2901 La Cienega Blvd,CULVER CITY,CA,90232-7312,United States of America,3108378800.0,pizza_hut
2000196666,CiCi's To Go,1050 W Rosecrans Ave,GARDENA,CA,90247-2639,United States of America,3105322229.0,cicis_to_go
2000030676,Pizza Hut,3109 W Rosecrans Ave,HAWTHORNE,CA,90250-7826,United States of America,,pizza_hut
2000024509,Johnnie's New York Pizzeria,22333 Pacific Coast Hwy,MALIBU,CA,90265,United States of America,3104561717.0,johnnies_new_york_pizzeria
1000813206,Pizza Hut,29701 S Western Ave,RANCHO PALOS VERDES,CA,90275-1362,United States of America,3108313099.0,pizza_hut
2000172406,Little Caesars Pizza,633 N Pacific Coast Hwy,REDONDO BEACH,CA,90277-2107,United States of America,3107984300.0,little_caesars_pizza
1000804861,Pizza Hut,1000 Torrance Blvd,REDONDO BEACH,CA,90277-3598,United States of America,3105433500.0,pizza_hut
2000041149,CPK ASAP,1430 S Pacific Coast Hwy,REDONDO BEACH,CA,90277-5001,United States of America,3107923871.0,cpk_asap
2000015544,Pizza Hut,20305 Anza Ave,TORRANCE,CA,90503-7419,United States of America,,pizza_hut
1000815048,Pizza Hut,3848 Sepulveda Blvd,TORRANCE,CA,90505-2482,United States of America,,pizza_hut
1000808272,Pizza Hut,1500 W Whittier Blvd,LA HABRA,CA,90631-3617,United States of America,5626971155.0,pizza_hut
1000831460,Round Table Pizza,12820 La Mirada Blvd,LA MIRADA,CA,90638-2215,United States of America,5629472557.0,round_table_pizza
2000038100,Johnnie's New York Pizzeria,7539 Carson Blvd,LONG BEACH,CA,90808-2365,United States of America,5624254600.0,johnnies_new_york_pizzeria
2000030516,Pizza Hut,1700-1702 Long Beach Blvd,LONG BEACH,CA,90813,United States of America,,pizza_hut
1000806301,Pizza Hut,1163 Huntington Dr,DUARTE,CA,91010-2400,United States of America,,pizza_hut
2000182962,Papa John's Pizza,1090 Huntington Dr,DUARTE,CA,91010-2475,United States of America,6263597272.0,papa_johns_pizza
1000904530,Hungry Howie's Pizza & Subs,6540 Foothill Blvd,TUJUNGA,CA,91042,United States of America,8183522600.0,hungry_howies_pizza_&_subs
2000030560,Pizza Hut,19371 Saticoy St,RESEDA,CA,91335-2361,United States of America,,pizza_hut
1000944135,Sbarro,24201 Valencia Blvd,VALENCIA,CA,91355,United States of America,6612533733.0,sbarro
2000003319,Sbarro,222 W Hillcrest Dr,THOUSAND OAKS,CA,91360-4210,United States of America,8054960071.0,sbarro
2000041075,CPK ASAP,100 Promenade Way,WESTLAKE VILLAGE,CA,91362-3832,United States of America,8053742727.0,cpk_asap
2000053443,"We Toss'em, They're Awesome",12273 Highland Ave,RANCHO CUCAMONGA,CA,91739,United States of America,9094634544.0,"we_tossem,_theyre_awesome"
1000808624,Pizza Hut,1559 N Hacienda Blvd,LA PUENTE,CA,91744-1135,United States of America,,pizza_hut
1000808016,Pizza Hut,14316 Amar Rd,LA PUENTE,CA,91744-2400,United States of America,6269176464.0,pizza_hut
1000811364,Pizza Hut,2212 S Atlantic Blvd,MONTEREY PARK,CA,91754-6841,United States of America,3237256400.0,pizza_hut
1000940719,Sbarro,2001 E Montclair Plaza Ln,MONTCLAIR,CA,91763-1502,United States of America,9092611237.0,sbarro
1000888588,Everything Yogurt Salad Cafe,1 Mills Cir,ONTARIO,CA,91764,United States of America,9094761315.0,everything_yogurt_salad_cafe
2000053434,"We Toss'em, They're Awesome",951 N Haven Ave,ONTARIO,CA,91764,United States of America,9094668800.0,"we_tossem,_theyre_awesome"
1000821308,Pizza Hut,9353 Valley Blvd,ROSEMEAD,CA,91770-1934,United States of America,,pizza_hut
1000805457,Pizza Hut,1059 W Arrow Hwy,SAN DIMAS,CA,91773-2411,United States of America,9095990444.0,pizza_hut
2000041101,California Pizza Kitchen,110 S California Ave,WEST COVINA,CA,91790-2909,United States of America,6268144400.0,california_pizza_kitchen
2000015928,Pizza Hut,885 East H St D,CHULA VISTA,CA,91910,United States of America,,pizza_hut
1000831691,Little Caesars Pizza,101 Jamacha Rd,EL CAJON,CA,92019-2357,United States of America,6194440310.0,little_caesars_pizza
2000053041,Peter Piper Pizza,2983 Jamacha Rd,EL CAJON,CA,92019-4342,United States of America,6196705197.0,peter_piper_pizza
2000015504,Pizza Hut,1836 Oceanside Blvd,OCEANSIDE,CA,92054,United States of America,,pizza_hut
1000865965,Little Caesars Pizza,443 College Blvd,OCEANSIDE,CA,92057-5435,United States of America,7606303551.0,little_caesars_pizza
2000225191,Figaro's Pizza,6690 Mission Gorge Rd,SAN DIEGO,CA,92120,United States of America,6199062121.0,figaros_pizza
1000820311,Pizza Hut,8188 Mira Mesa Blvd,SAN DIEGO,CA,92126-2602,United States of America,,pizza_hut
1000807071,Pizza Hut,1270 Picador Blvd,SAN DIEGO,CA,92154-3565,United States of America,6194284600.0,pizza_hut
2000015724,Pizza Hut,40100 Washington St,INDIO,CA,92203-9644,United States of America,,pizza_hut
1000808292,Pizza Hut,1501 N Palm Canyon Dr,PALM SPRINGS,CA,92262-4409,United States of America,7607785788.0,pizza_hut
1000910015,Domino's Pizza,11452 Bartlett Ave,ADELANTO,CA,92301-1917,United States of America,7602467303.0,dominos_pizza
2000030542,Pizza Hut,18564 US Highway 18,APPLE VALLEY,CA,92307,United States of America,,pizza_hut
1000815190,Pizza Hut,3965 Phelan Rd,PHELAN,CA,92371-8916,United States of America,,pizza_hut
1000935201,Sbarro,14400 Bear Valley Rd,VICTORVILLE,CA,92392-5412,United States of America,7609629114.0,sbarro
2000030723,Pizza Hut,398 West Baseline Road,SAN BERNARDINO,CA,92410,United States of America,,pizza_hut
2000003318,Sbarro,1299 Galleria at Tyler,RIVERSIDE,CA,92503-4139,United States of America,9513513110.0,sbarro
1000816610,Pizza Hut,4900 La Sierra Ave,RIVERSIDE,CA,92505-2612,United States of America,,pizza_hut
1000808721,Pizza Hut,15974 Perris Blvd D &amp; E,MORENO VALLEY,CA,92551,United States of America,,pizza_hut
1000897958,Hungry Howie's Pizza & Subs,29105 Old Town Front St,TEMECULA,CA,92590-2812,United States of America,9516950606.0,hungry_howies_pizza_&_subs
1000851820,Little Caesars Pizza,26471 Ynez Rd,TEMECULA,CA,92591-4654,United States of America,9512961577.0,little_caesars_pizza
2000242822,Little Caesars Pizza,Ave San Claudio,CUPEY,PR,926,United States of America,7877558888.0,little_caesars_pizza
2000024510,Johnnie's New York Pizzeria,3939 Portola Pkwy,IRVINE,CA,92602-0833,United States of America,7145053355.0,johnnies_new_york_pizzeria
2000015718,Pizza Hut,3972 Barranca Pkwy,IRVINE,CA,92606,United States of America,,pizza_hut
2000041258,California Pizza Kitchen,2957 Michelson Dr,IRVINE,CA,92612-0623,United States of America,9499751585.0,california_pizza_kitchen
2000041352,California Pizza Kitchen,55 Fortune Dr,IRVINE,CA,92618-2950,United States of America,9495859531.0,california_pizza_kitchen
2000041286,CPK ASAP,3333 Bear St,COSTA MESA,CA,92626-1793,United States of America,7145571279.0,cpk_asap
1000810279,Pizza Hut,19893 Brookhurst St,HUNTINGTON BEACH,CA,92646-4259,United States of America,,pizza_hut
2000182568,Sbarro,401 Newport Center Dr,NEWPORT BEACH,CA,92660-0918,United States of America,,sbarro
2000199957,Papa Murphy's Take 'N' Bake Pizza,638 Camino De Los Mares,SAN CLEMENTE,CA,92673,United States of America,9494872253.0,papa_murphys_take_n_bake_pizza
1000941888,Sbarro,2108 Westminster Mall,WESTMINSTER,CA,92683-4901,United States of America,7148939309.0,sbarro
1000897434,Villa Pizza,27000 Crown Valley Pkwy,MISSION VIEJO,CA,92691,United States of America,9493476830.0,villa_pizza
2000030650,Pizza Hut,28755 Santa Margarita Pkwy,MISSION VIEJO,CA,92691,United States of America,,pizza_hut
2000015916,Pizza Hut,8182 E Santa Ana Canyon Rd,ANAHEIM,CA,92808-1109,United States of America,,pizza_hut
2000199947,Papa Murphy's Take 'N' Bake Pizza,1105 S Euclid St,FULLERTON,CA,92832,United States of America,7145262253.0,papa_murphys_take_n_bake_pizza
2000199946,Papa Murphy's Take 'N' Bake Pizza,1032 E Bastanchury Rd,FULLERTON,CA,92835-2790,United States of America,7145292253.0,papa_murphys_take_n_bake_pizza
1000821532,Pizza Hut,9755 Chapman Ave,GARDEN GROVE,CA,92841-2708,United States of America,,pizza_hut
1000889594,Hungry Howie's Pizza & Subs,1087 Scandia Ave,VENTURA,CA,93004-2404,United States of America,8056478100.0,hungry_howies_pizza_&_subs
1000829906,Round Table Pizza,1111 S Victoria Ave,OXNARD,CA,93035-1298,United States of America,8053821300.0,round_table_pizza
1000852530,Little Caesars Pizza,2720 Cochran St,SIMI VALLEY,CA,93065-2781,United States of America,8055849300.0,little_caesars_pizza
1000812982,Pizza Hut,2840 De La Vina St,SANTA BARBARA,CA,93105-3465,United States of America,,pizza_hut
1000941177,Sbarro,2031 S Mooney Blvd,VISALIA,CA,93277,United States of America,5597398425.0,sbarro
1000808928,Pizza Hut,1620 N H St,LOMPOC,CA,93436-2832,United States of America,,pizza_hut
1000925873,Domino's Pizza,8201 Pearblossom Hwy,LITTLEROCK,CA,93543,United States of America,6619440404.0,dominos_pizza
2000012698,Little Caesars Pizza,40208 Highway 41,OAKHURST,CA,93644-8926,United States of America,5596417777.0,little_caesars_pizza
1000817853,Pizza Hut,597 I St,REEDLEY,CA,93654-2431,United States of America,5596438800.0,pizza_hut
1000812420,Pizza Hut,2590 Jensen Ave,SANGER,CA,93657-2250,United States of America,5598758888.0,pizza_hut
1000810973,Pizza Hut,2111 N Blackstone Ave,FRESNO,CA,93703-2109,United States of America,,pizza_hut
1000957828,Sbarro,521 E Shaw Ave,FRESNO,CA,93710,United States of America,5592294572.0,sbarro
2000012532,Little Caesars Pizza,1000 King Dr,DALY CITY,CA,94015-4454,United States of America,6508781181.0,little_caesars_pizza
1000810215,Pizza Hut,1955 W El Camino Real,MOUNTAIN VIEW,CA,94040-2262,United States of America,6509604028.0,pizza_hut
1000911838,Domino's Pizza,1408 Fillmore St,SAN FRANCISCO,CA,94115-4115,United States of America,4155939300.0,dominos_pizza
1000949025,Sbarro,3251 20th Ave,SAN FRANCISCO,CA,94132,United States of America,4152421746.0,sbarro
1000808471,Pizza Hut,1523 Sloat Blvd,SAN FRANCISCO,CA,94132-1222,United States of America,,pizza_hut
2000041349,California Pizza Kitchen,531 Cowper St,PALO ALTO,CA,94301-1802,United States of America,6503237332.0,california_pizza_kitchen
1000818758,Pizza Hut,670 E 3rd Ave,SAN MATEO,CA,94401-3305,United States of America,,pizza_hut
1000946561,Sbarro,284 Sun Valley Mall,CONCORD,CA,94520-5808,United States of America,9256719450.0,sbarro
2000182961,Papa John's Pizza,121 Hartz Ave,DANVILLE,CA,94526-3325,United States of America,9258373500.0,papa_johns_pizza
1000806377,Pizza Hut,11775 San Pablo Ave,EL CERRITO,CA,94530-1749,United States of America,5102322400.0,pizza_hut
1000911494,Domino's Pizza,1345 Oliver Rd,FAIRFIELD,CA,94534-3470,United States of America,7074263030.0,dominos_pizza
1000815108,Pizza Hut,39010 Argonaut Way,FREMONT,CA,94538-1302,United States of America,,pizza_hut
1000896764,Hungry Howie's Pizza & Subs,24456 Mission Blvd,HAYWARD,CA,94544-1618,United States of America,5108865100.0,hungry_howies_pizza_&_subs
2000051395,Marco's Pizza,1809 Holmes St,LIVERMORE,CA,94550-6013,United States of America,9254494440.0,marcos_pizza
1000941523,Sbarro,2077 Newpark Mall,NEWARK,CA,94560,United States of America,5107911102.0,sbarro
1000874902,Little Caesars Pizza,6180 Jarvis Ave,NEWARK,CA,94560-1200,United States of America,5107912500.0,little_caesars_pizza
1000850192,Little Caesars Pizza,250 Floresta Blvd,SAN LEANDRO,CA,94578-4164,United States of America,5108956818.0,little_caesars_pizza
1000898100,Papa Murphy's Take 'N' Bake Pizza,2991 Ygnacio Valley Rd,WALNUT CREEK,CA,94598-3535,United States of America,9259387272.0,papa_murphys_take_n_bake_pizza
1000805611,Pizza Hut,10807 Macarthur Blvd,OAKLAND,CA,94605-5256,United States of America,5106352000.0,pizza_hut
1000818436,Pizza Hut,6341 Shattuck Ave,OAKLAND,CA,94609-1238,United States of America,,pizza_hut
1000918562,Domino's Pizza,3219 Adeline St,BERKELEY,CA,94703-2467,United States of America,5106528077.0,dominos_pizza
1000809370,Pizza Hut,173 N McDowell Blvd,PETALUMA,CA,94954,United States of America,7077697888.0,pizza_hut
1000812424,Pizza Hut,2591 S Bascom Ave,CAMPBELL,CA,95008-5546,United States of America,4085596565.0,pizza_hut
2000015620,Pizza Hut,2591 S Bascom Ave,CAMPBELL,CA,95008-5546,United States of America,,pizza_hut
1000834750,Little Caesars Pizza,1440 41st Ave,CAPITOLA,CA,95010-2940,United States of America,8314769100.0,little_caesars_pizza
2000010109,Domino's Pizza,8155 Arroyo Cir,GILROY,CA,95020-7322,United States of America,4088485678.0,dominos_pizza
1000968520,Papa Murphy's Take 'N' Bake Pizza,119 N Milpitas Blvd,MILPITAS,CA,95035-4404,United States of America,4085869600.0,papa_murphys_take_n_bake_pizza
1000809215,Pizza Hut,17020 Condit Rd,MORGAN HILL,CA,95037-7230,United States of America,4087790666.0,pizza_hut
1000946627,Sbarro,2855 Stevens Creek Blvd,SANTA CLARA,CA,95050-6743,United States of America,4089841057.0,sbarro
1000942573,Sbarro,2200 Eastridge Loop,SAN JOSE,CA,95122-1414,United States of America,4082701142.0,sbarro
1000966222,Sbarro,925 Blossom Hill Rd,SAN JOSE,CA,95123-1252,United States of America,4082268808.0,sbarro
1000813616,Pizza Hut,3094a Story Rd,SAN JOSE,CA,95127,United States of America,,pizza_hut
1000948708,Sbarro,3200 Naglee Rd,TRACY,CA,95304,United States of America,2098357820.0,sbarro
2000051318,Marco's Pizza,1778 Mitchell Rd,CERES,CA,95307,United States of America,2095310400.0,marcos_pizza
2000047703,Figaro's Pizza,6724 E Whitmore Ave,HUGHSON,CA,95326,United States of America,2098831916.0,figaros_pizza
1000810428,Pizza Hut,2001 McHenry Ave,MODESTO,CA,95350-3252,United States of America,,pizza_hut
1000969528,Little Caesars Pizza,3771 Cleveland Ave,SANTA ROSA,CA,95403-2144,United States of America,7075441090.0,little_caesars_pizza
1000949201,Sbarro,3300 Broadway,EUREKA,CA,95501-3817,United States of America,7072683896.0,sbarro
1000847605,Round Table Pizza,2260 Grass Valley Hwy,AUBURN,CA,95603-2536,United States of America,5308230126.0,round_table_pizza
1000958582,Sbarro,6148 Sunrise Mall,CITRUS HEIGHTS,CA,95610-6906,United States of America,9167298481.0,sbarro
1000806490,Pizza Hut,120 Main St,WOODLAND,CA,95695,United States of America,5306691696.0,pizza_hut
1000958540,Sbarro,596 Downtown Plaza,SACRAMENTO,CA,95814,United States of America,9164442310.0,sbarro
1000820954,Pizza Hut,9011 Folsom Blvd,SACRAMENTO,CA,95826-3401,United States of America,9163633200.0,pizza_hut
2000041386,California Pizza Kitchen,6850 Airport Blvd,SACRAMENTO,CA,95837-1126,United States of America,9162832100.0,california_pizza_kitchen
1000940107,Sbarro,1950 E 20th St,CHICO,CA,95928,United States of America,5303457266.0,sbarro
1000819553,Pizza Hut,735 Colusa Ave,YUBA CITY,CA,95991-3734,United States of America,,pizza_hut
1000821007,Pizza Hut,905 S Main St,RED BLUFF,CA,96080-4362,United States of America,,pizza_hut
2000303529,Villa Fresh Italian Kitchen,Expreso De Diego Y Ave Comerio Espacio,BAYAMON,PR,961,United States of America,,villa_fresh_italian_kitchen
2000142077,Pizza Hut,3600 Lower Honoapiilani Rd,LAHAINA,HI,96761-9382,United States of America,8086613696.0,pizza_hut
1000835667,Round Table Pizza,150 Kaiulani Ave,HONOLULU,HI,96815-3227,United States of America,8089441199.0,round_table_pizza
1000918736,Domino's Pizza,3298 Campbell Ave,HONOLULU,HI,96815-3801,United States of America,8087370888.0,dominos_pizza
1000918297,Domino's Pizza,3131 N Nimitz Hwy,HONOLULU,HI,96819-1982,United States of America,8088393030.0,dominos_pizza
2000242823,Little Caesars Pizza,Apolo Shopping Ctr,GUAYNABO,PR,969,United States of America,7877208888.0,little_caesars_pizza
1000918513,Johnnie's New York Pizzeria,3205 SW Cedar Hills Blvd,BEAVERTON,OR,97005-1347,United States of America,5036436739.0,johnnies_new_york_pizzeria
1000821376,Pizza Hut,9460 SW Allen Blvd,BEAVERTON,OR,97005-4118,United States of America,,pizza_hut
2000047797,Figaro's Pizza,37409 Highway 26,SANDY,OR,97055-7206,United States of America,5036689798.0,figaros_pizza
2000173020,Little Caesars Pizza,30060 SW Boones Ferry Rd,WILSONVILLE,OR,97070,United States of America,5034272760.0,little_caesars_pizza
2000225193,Figaro's Pizza,123 NE 43rd Ave,HILLSBORO,OR,97124-7539,United States of America,5038447500.0,figaros_pizza
2000047769,Figaro's Pizza,1049 NE Highway 99W,MCMINNVILLE,OR,97128-2716,United States of America,5034721335.0,figaros_pizza
2000047745,Pizza Schmizza,1811 SW River Dr,PORTLAND,OR,97201-5180,United States of America,5032950400.0,pizza_schmizza
2000047799,Pizza Schmizza,732 SW Yamhill St,PORTLAND,OR,97205-3001,United States of America,5032270888.0,pizza_schmizza
1000807099,Pizza Hut,128 N Lombard St,PORTLAND,OR,97217-1530,United States of America,,pizza_hut
2000047702,Pizza Schmizza,7000 NE Airport Way,PORTLAND,OR,97218,United States of America,5032812339.0,pizza_schmizza
1000819592,Pizza Hut,7405 SW Barbur Blvd,PORTLAND,OR,97219-2288,United States of America,5034522919.0,pizza_hut
1000814768,Pizza Hut,3628 NE Sandy Blvd,PORTLAND,OR,97232-1963,United States of America,,pizza_hut
1000809704,Pizza Hut,18110 E Burnside St,PORTLAND,OR,97233-5309,United States of America,,pizza_hut
1000952160,Sbarro,401 Center St NE,SALEM,OR,97301,United States of America,5033917480.0,sbarro
2000047720,Figaro's Pizza,340 Lancaster Dr NE,SALEM,OR,97301-4722,United States of America,5035816074.0,figaros_pizza
2000047766,Figaro's Pizza,2528 Santiam Hwy SE,ALBANY,OR,97322-5211,United States of America,5419249303.0,figaros_pizza
1000938770,Sbarro,18 Valley River Ctr,EUGENE,OR,97401-2181,United States of America,5413491649.0,sbarro
2000047759,Figaro's Pizza,1205 N Pacific Hwy,COTTAGE GROVE,OR,97424,United States of America,5419428575.0,figaros_pizza
1000947414,Sbarro,3000 Gateway St,SPRINGFIELD,OR,97477-1014,United States of America,5417419923.0,sbarro
1000854948,Chuck E. Cheese's,3000 Gateway St,SPRINGFIELD,OR,97477-1131,United States of America,5417464463.0,chuck_e_cheeses
2000015384,Pizza Hut,130 S 32nd St,SPRINGFIELD,OR,97478-5849,United States of America,,pizza_hut
1000806689,Pizza Hut,1211 S Riverside Ave,MEDFORD,OR,97501-7847,United States of America,,pizza_hut
2000173010,Little Caesars Pizza,561 Walker Ave,ASHLAND,OR,97520-2382,United States of America,5417080527.0,little_caesars_pizza
1000808138,Pizza Hut,1465 NE 6th St,GRANTS PASS,OR,97526-1253,United States of America,,pizza_hut
2000047743,Figaro's Pizza,105 W Valley View Rd,TALENT,OR,97540-8643,United States of America,5415357949.0,figaros_pizza
1000811096,Pizza Hut,2139 NE 3rd St,BEND,OR,97701-3606,United States of America,5413895991.0,pizza_hut
1000903993,Papa Murphy's Take 'N' Bake Pizza,613 SW Emigrant Ave,PENDLETON,OR,97801-2042,United States of America,5412767272.0,papa_murphys_take_n_bake_pizza
1000914190,Domino's Pizza,1912 Main St,BAKER CITY,OR,97814-3350,United States of America,5415235415.0,dominos_pizza
1000813038,Pizza Hut,28851 Military Rd S,FEDERAL WAY,WA,98003-7912,United States of America,,pizza_hut
2000198832,Villa Fresh Italian Kitchen,276 Bellevue Sq,BELLEVUE,WA,98004-5020,United States of America,4256376904.0,villa_fresh_italian_kitchen
1000811725,Pizza Hut,23241 Pacific Hwy S,KENT,WA,98032-2721,United States of America,,pizza_hut
2000030845,Pizza Hut,6815 196th St SW,LYNNWOOD,WA,98036-5074,United States of America,7257745050.0,pizza_hut
1000947394,Sbarro,3000 184th St SW,LYNNWOOD,WA,98037-4723,United States of America,4257129028.0,sbarro
2000015469,Pizza Hut,16564 Cleveland St,REDMOND,WA,98052-4460,United States of America,,pizza_hut
2000173252,Little Caesars Pizza,17317 140th Ave NE,WOODINVILLE,WA,98072-6879,United States of America,4254080749.0,little_caesars_pizza
1000952044,Sbarro,400 Pine St,SEATTLE,WA,98101-1628,United States of America,2062879884.0,sbarro
1000957612,Sbarro,555 NE Northgate Way,SEATTLE,WA,98125,United States of America,2063642208.0,sbarro
1000965460,Sbarro,2600 Southcenter Mall,TUKWILA,WA,98188-2846,United States of America,,sbarro
2000003499,Sbarro,1402 SE Everett Mall Way,EVERETT,WA,98208-2824,United States of America,4254384393.0,sbarro
1000918299,Domino's Pizza,3131 Smokey Point Dr,ARLINGTON,WA,98223-7707,United States of America,3606591120.0,dominos_pizza
1000927672,Sbarro,1 Bellis Fair Pkwy,BELLINGHAM,WA,98226-5567,United States of America,3605270872.0,sbarro
2000053501,"We Toss'em, They're Awesome",947 Ault Field Rd,OAK HARBOR,WA,98277-3619,United States of America,3606790300.0,"we_tossem,_theyre_awesome"
2000303534,Villa Fresh Italian Kitchen,"Villa Fontana Plazoeta, 2Nd Piso, Space Vc04",CAROLINA,PR,983,United States of America,,villa_fresh_italian_kitchen
1000808930,Pizza Hut,1620 NE Riddell Rd,BREMERTON,WA,98310-3622,United States of America,,pizza_hut
1000950177,Sbarro,3500 S Meridian,PUYALLUP,WA,98373-3721,United States of America,2538419945.0,sbarro
2000003501,Sbarro,10315 Silverdale Way NW,SILVERDALE,WA,98383-7670,United States of America,3606986414.0,sbarro
1000899786,Villa Pizza,625 Black Lake Blvd SW,OLYMPIA,WA,98502-5066,United States of America,3607052220.0,villa_pizza
2000015425,Pizza Hut,1412 Yelm Ave,YELM,WA,98597,United States of America,,pizza_hut
1000913383,Johnnie's New York Pizzeria,17100 State Route 507 SE,YELM,WA,98597-7605,United States of America,3604003202.0,johnnies_new_york_pizzeria
1000859752,Chuck E. Cheese's,351 Three Rivers Dr,KELSO,WA,98626-3124,United States of America,3605778765.0,chuck_e_cheeses
1000806237,Pizza Hut,11501 NE 76th St,VANCOUVER,WA,98662,United States of America,,pizza_hut
1000965087,Sbarro,8700 NE Vancouver Mall Dr,VANCOUVER,WA,98662-7927,United States of America,3609446126.0,sbarro
1000810701,Pizza Hut,205 Commerce Center,VANCOUVER,WA,98684,United States of America,3609445457.0,pizza_hut
2000198829,Villa Fresh Italian Kitchen,100 N Hayford Rd,AIRWAY HEIGHTS,WA,99001-9402,United States of America,5094812131.0,villa_fresh_italian_kitchen
2000015431,Pizza Hut,1424 W 3rd Ave,SPOKANE,WA,99201-7024,United States of America,,pizza_hut
2000030946,Pizza Hut,9211 E Montgomery Ave,SPOKANE VALLEY,WA,99206-4291,United States of America,,pizza_hut
1000954979,Sbarro,4750 N Division St,SPOKANE,WA,99207-1433,United States of America,5094879012.0,sbarro
1000969047,Papa John's Pizza,2023 E Wellesley Ave,SPOKANE,WA,99207-4269,United States of America,5097557272.0,papa_johns_pizza
1000812296,Pizza Hut,2525 E 29th Ave,SPOKANE,WA,99223,United States of America,,pizza_hut
1000913289,Johnnie's New York Pizzeria,1700 SE Meadowbrook Blvd,COLLEGE PLACE,WA,99324-1798,United States of America,,johnnies_new_york_pizzeria
1000953581,Sbarro,433 N Columbia Center Blvd,KENNEWICK,WA,99336,United States of America,5093748494.0,sbarro
2000030552,Pizza Hut,1915 N Steptoe St,KENNEWICK,WA,99336-7120,United States of America,,pizza_hut
1000806383,Pizza Hut,118 E 6th Ave,ANCHORAGE,AK,99501-2524,United States of America,,pizza_hut
1000814383,Pizza Hut,341 Boniface Pkwy,ANCHORAGE,AK,99504-1031,United States of America,,pizza_hut
1000909345,Domino's Pizza,108 Muldoon Rd,ANCHORAGE,AK,99504-1403,United States of America,9073336150.0,dominos_pizza
1000810110,Pizza Hut,1921 W Dimond Blvd,ANCHORAGE,AK,99515-1468,United States of America,,pizza_hut
1000814892,Pizza Hut,3727 Spenard Rd,ANCHORAGE,AK,99517-2675,United States of America,,pizza_hut
1000806362,Pizza Hut,11740 Old Glenn Hwy,EAGLE RIVER,AK,99577-7732,United States of America,9076941086.0,pizza_hut
1000812536,Pizza Hut,2625 Mill Bay Rd,KODIAK,AK,99615-6638,United States of America,9074865454.0,pizza_hut
1000820813,Pizza Hut,89 College Rd,FAIRBANKS,AK,99701-1702,United States of America,,pizza_hut
1000815284,Pizza Hut,4005 Geist Rd,FAIRBANKS,AK,99709-3552,United States of America,,pizza_hut
