Store Company ID,Company Name,Address 1,City,State,Zip,Country,Phone,company_name
1000874557,Papa Gino's Pizzeria,611 Memorial Dr,CHICOPEE,MA,01020-5057,United States of America,4135938844.0,papa_ginos_pizzeria
1000855162,Papa Gino's Pizzeria,301 King St,NORTHAMPTON,MA,01060-2370,United States of America,4135867237.0,papa_ginos_pizzeria
1000807052,Pizza Hut,1269 Main St,WORCESTER,MA,01603-1834,United States of America,5087532701.0,pizza_hut
1000881788,D'Angelo Grilled Sandwiches,801 Grafton St,WORCESTER,MA,01604-2339,United States of America,5084597848.0,dangelo_grilled_sandwiches
1000856997,D'Angelo Grilled Sandwiches,318 Park Ave,WORCESTER,MA,01609-1805,United States of America,5087566335.0,dangelo_grilled_sandwiches
1000963488,Papa John's Pizza,8 Hildreth St,MARLBOROUGH,MA,01752-2958,United States of America,5084800900.0,papa_johns_pizza
1000830711,D'Angelo Grilled Sandwiches,1245 Worcester St,NATICK,MA,01760-1561,United States of America,5086558279.0,dangelo_grilled_sandwiches
2000447215,Papa John's Pizza,320 Washington St,DEDHAM,MA,02026-1829,United States of America,7814075888.0,papa_johns_pizza
1000852002,D'Angelo Grilled Sandwiches,267 Old Colony Ave,SOUTH BOSTON,MA,02127-3520,United States of America,6172696488.0,dangelo_grilled_sandwiches
2000041070,California Pizza Kitchen,100 Cambridgeside Pl,CAMBRIDGE,MA,02141-2220,United States of America,6172252772.0,california_pizza_kitchen
2000306489,Uno Fresco,101 Main St,STONEHAM,MA,02180-3305,United States of America,7818504940.0,uno_fresco
1000827680,Little Caesars Pizza,1130 Newport Ave,SOUTH ATTLEBORO,MA,02703-7033,United States of America,5087618770.0,little_caesars_pizza
1000945185,Papa John's Pizza,260 Coggeshall St,NEW BEDFORD,MA,02746-1919,United States of America,5089797171.0,papa_johns_pizza
1000939152,Papa John's Pizza,183 Broadway,TAUNTON,MA,02780-2549,United States of America,5088807272.0,papa_johns_pizza
1000929352,Papa John's Pizza,1049 Cass Ave,WOONSOCKET,RI,02895-4932,United States of America,4017628595.0,papa_johns_pizza
1000816291,Pizza Hut,46 Crystal Ave,DERRY,NH,03038-1717,United States of America,6034340101.0,pizza_hut
2000464175,Pizza Hut,312 Elm St,MILFORD,NH,03055-4715,United States of America,6036738571.0,pizza_hut
1000835788,D'Angelo Grilled Sandwiches,1500 S Willow St,MANCHESTER,NH,03103-3220,United States of America,6036340029.0,dangelo_grilled_sandwiches
2000393630,Little Caesars Pizza,1100 Bicentennial Dr,MANCHESTER,NH,03104-2140,United States of America,6036272400.0,little_caesars_pizza
2000464174,Pizza Hut,835 Central St,FRANKLIN,NH,03235-2026,United States of America,6039343742.0,pizza_hut
2000464176,Pizza Hut,36 John Stark Hwy,NEWPORT,NH,03773-1808,United States of America,6038633311.0,pizza_hut
1000812447,Pizza Hut,2600 Lafayette Rd,PORTSMOUTH,NH,03801-5618,United States of America,6034367488.0,pizza_hut
2000407389,Papa John's Pizza,10 Pettee Brook Ln,DURHAM,NH,03824-2345,United States of America,6038689999.0,papa_johns_pizza
2000464173,Pizza Hut,100 Portsmouth Ave,EXETER,NH,03833-2109,United States of America,6037724841.0,pizza_hut
1000813178,Pizza Hut,295 Forest Ave,PORTLAND,ME,04101-2018,United States of America,2077721915.0,pizza_hut
2000027231,Little Caesars Pizza,1080 Brighton Ave,PORTLAND,ME,04102-1030,United States of America,2078742800.0,little_caesars_pizza
1000816123,Pizza Hut,445 Center St,AUBURN,ME,04210-6215,United States of America,2077776688.0,pizza_hut
2000463935,Pizza Hut,791 Lisbon St,LEWISTON,ME,04240-6600,United States of America,2077841932.0,pizza_hut
1000877423,Little Caesars Pizza,688 Hogan Rd,BANGOR,ME,04401-3604,United States of America,2079425520.0,little_caesars_pizza
1000817532,Pizza Hut,557 Wilson St,BREWER,ME,04412-1418,United States of America,2079897788.0,pizza_hut
2000464761,Pizza Hut,471 Riverside Ave,BURLINGTON,VT,05401-1407,United States of America,8028620222.0,pizza_hut
2000464762,Pizza Hut,49 Heineberg Dr,COLCHESTER,VT,05446-7804,United States of America,8028607272.0,pizza_hut
2000329655,Papa John's Pizza,695 Park Ave,BLOOMFIELD,CT,06002-2402,United States of America,8602430250.0,papa_johns_pizza
1000960459,Papa John's Pizza,662 Farmington Ave,BRISTOL,CT,06010-3912,United States of America,8605897272.0,papa_johns_pizza
2000329548,Papa John's Pizza,333 Arch St,NEW BRITAIN,CT,06051-2520,United States of America,8602237272.0,papa_johns_pizza
2000329576,Papa John's Pizza,40 Windsorville Rd,VERNON ROCKVILLE,CT,06066-2385,United States of America,8604540493.0,papa_johns_pizza
2000182988,Papa John's Pizza,946 Cromwell Ave,ROCKY HILL,CT,06067-3004,United States of America,8607217272.0,papa_johns_pizza
2000182987,Papa John's Pizza,140 Main St,MIDDLETOWN,CT,06457-3437,United States of America,8603467272.0,papa_johns_pizza
2000407363,Papa John's Pizza,329 Old Gate Ln,MILFORD,CT,06460-8615,United States of America,2038762000.0,papa_johns_pizza
2000329393,Papa John's Pizza,116 Boston Post Rd,ORANGE,CT,06477-3223,United States of America,2037997272.0,papa_johns_pizza
2000407362,Papa John's Pizza,23 Hemingway Ave,EAST HAVEN,CT,06512-3443,United States of America,2034687272.0,papa_johns_pizza
2000463568,Pizza Hut,19 Glenville St,GREENWICH,CT,06831-3636,United States of America,2035314411.0,pizza_hut
2000464195,Pizza Hut,1003 Saint Georges Ave,RAHWAY,NJ,07065-2630,United States of America,7323817700.0,pizza_hut
2000198784,The Office Beer Bar & Grill,32 Chestnut St,RIDGEWOOD,NJ,07450-3804,United States of America,2016521070.0,the_office_beer_bar_&_grill
2000464181,Pizza Hut,407 E Madison Ave,DUMONT,NJ,07628-2637,United States of America,2013841100.0,pizza_hut
2000464196,Pizza Hut,431 Broad St,SHREWSBURY,NJ,07702-4001,United States of America,7325303330.0,pizza_hut
2000345002,Little Caesars Pizza,30 International Dr S,FLANDERS,NJ,07836-4107,United States of America,9736913313.0,little_caesars_pizza
1000905176,Villa Fresh Italian Kitchen,301 Mount Hope Ave,ROCKAWAY,NJ,07866-2130,United States of America,9733617986.0,villa_fresh_italian_kitchen
2000425652,Little Caesars Pizza,337 US Highway 46,ROCKAWAY,NJ,07866-3834,United States of America,9739570700.0,little_caesars_pizza
1000850089,Chuck E. Cheese's,2497 Mount Holly Rd,BURLINGTON,NJ,08016-4162,United States of America,6093869928.0,chuck_e_cheeses
2000464199,Pizza Hut,8010 Centennial Blvd,VOORHEES,NJ,08043-4681,United States of America,8564249115.0,pizza_hut
1000819918,Pizza Hut,789 E Route 70,MARLTON,NJ,08053-2342,United States of America,8569881818.0,pizza_hut
1000817930,Pizza Hut,6006 Route 130,DELRAN,NJ,08075-1865,United States of America,8567643500.0,pizza_hut
2000405851,Marco's Pizza,201 Egg Harbor Rd,SEWELL,NJ,08080-3107,United States of America,8563020616.0,marcos_pizza
2000405852,Marco's Pizza,511 Cross Keys Rd,SICKLERVILLE,NJ,08081-4368,United States of America,8565138000.0,marcos_pizza
2000464197,Pizza Hut,18 MacArthur Blvd,SOMERS POINT,NJ,08244-1776,United States of America,6099264545.0,pizza_hut
1000815446,Pizza Hut,406 W Rio Grande Ave,WILDWOOD,NJ,08260-1524,United States of America,6097294833.0,pizza_hut
2000575625,Pizza Hut,2100 N 2nd St,MILLVILLE,NJ,08332-1304,United States of America,8563271369.0,pizza_hut
2000242523,Little Caesars Pizza,1061 White Horse Ave,TRENTON,NJ,08610-1400,United States of America,6095850504.0,little_caesars_pizza
2000393641,Little Caesars Pizza,2695 S Broad St,TRENTON,NJ,08610-4017,United States of America,6098881414.0,little_caesars_pizza
2000242649,Little Caesars Pizza,2132 State Route 27,EDISON,NJ,08817-3332,United States of America,7326623252.0,little_caesars_pizza
1000818979,Pizza Hut,7 Ernston Rd,PARLIN,NJ,08859-1769,United States of America,7325259500.0,pizza_hut
1000942496,Sbarro,22 W 34th St,NEW YORK,NY,10001-3010,United States of America,2125643431.0,sbarro
2000037530,Papa John's Pizza,12 E 37th St,NEW YORK,NY,10016-2823,United States of America,2122529500.0,papa_johns_pizza
2000464268,Pizza Hut,800 2nd Ave,NEW YORK,NY,10017-4709,United States of America,2129225686.0,pizza_hut
1000958490,Papa John's Pizza,594 Amsterdam Ave,NEW YORK,NY,10024-2302,United States of America,2127241200.0,papa_johns_pizza
1000955448,Papa John's Pizza,4927 Broadway,NEW YORK,NY,10034-3101,United States of America,2129427272.0,papa_johns_pizza
2000464263,Pizza Hut,1515 Broadway,NEW YORK,NY,10036-8901,United States of America,2125601600.0,pizza_hut
2000464264,Pizza Hut,196 Broadway,NEW YORK,NY,10038,United States of America,2122401292.0,pizza_hut
2000464262,Pizza Hut,1 Penn Plz,NEW YORK,NY,10119-0002,United States of America,2126300312.0,pizza_hut
1000810325,Pizza Hut,2 Penn Plz,NEW YORK,NY,10121-1900,United States of America,2126300320.0,pizza_hut
1000938326,Papa John's Pizza,1732 2nd Ave,NEW YORK,NY,10128-3504,United States of America,2129964444.0,papa_johns_pizza
2000172944,Little Caesars Pizza,2236 Forest Ave,STATEN ISLAND,NY,10303-1747,United States of America,7187273737.0,little_caesars_pizza
2000242703,Little Caesars Pizza,3706 3rd Ave,BRONX,NY,10456-2145,United States of America,3472704740.0,little_caesars_pizza
2000393653,Little Caesars Pizza,2011A Williamsbridge Rd,BRONX,NY,10461,United States of America,7188228080.0,little_caesars_pizza
2000172902,Little Caesars Pizza,1504 Westchester Ave,BRONX,NY,10472-2907,United States of America,7186187144.0,little_caesars_pizza
2000464230,Pizza Hut,1967 Turnbull Ave,BRONX,NY,10473-2519,United States of America,7189181181.0,pizza_hut
1000888070,D'Angelo Grilled Sandwiches,MP 60 Mass Tpke W,LUDLOW,MA,1056,United States of America,4135899321.0,dangelo_grilled_sandwiches
2000303516,Pizza Italia,498 Red Apple Ct,CENTRAL VALLEY,NY,10917-6619,United States of America,8459282440.0,pizza_italia
2000464235,Pizza Hut,22 Court St,BROOKLYN,NY,11201-4303,United States of America,7186240446.0,pizza_hut
2000464236,Pizza Hut,451 Fulton St,BROOKLYN,NY,11201-5207,United States of America,7188583440.0,pizza_hut
2000393651,Little Caesars Pizza,8622 4th Ave,BROOKLYN,NY,11209-5108,United States of America,7188333999.0,little_caesars_pizza
2000172942,Little Caesars Pizza,20501 Linden Blvd,SAINT ALBANS,NY,11412-2925,United States of America,3475485566.0,little_caesars_pizza
2000242812,Little Caesars Pizza,9422 Liberty Ave,OZONE PARK,NY,11417-1550,United States of America,3474750411.0,little_caesars_pizza
1000812162,Pizza Hut,24933 Rockaway Blvd,ROSEDALE,NY,11422-3111,United States of America,5162858200.0,pizza_hut
2000393652,Little Caesars Pizza,10928 Merrick Blvd,JAMAICA,NY,11433-3038,United States of America,7184873570.0,little_caesars_pizza
2000172922,Little Caesars Pizza,12709 Merrick Blvd,JAMAICA,NY,11434-3421,United States of America,7182765505.0,little_caesars_pizza
1000957539,Papa John's Pizza,552 Westbury Ave,CARLE PLACE,NY,11514-1747,United States of America,5169977272.0,papa_johns_pizza
1000932743,Sbarro,125 Green Acres Rd,VALLEY STREAM,NY,11581-1502,United States of America,5168250968.0,sbarro
2000464246,Pizza Hut,551 Route 111,HAUPPAUGE,NY,11788-4350,United States of America,6312655003.0,pizza_hut
2000464225,Pizza Hut,265 Osborne Rd,ALBANY,NY,12211-1879,United States of America,5184388800.0,pizza_hut
2000463916,Pizza Hut,41 Park St,LEE,MA,1238,United States of America,4132434022.0,pizza_hut
2000464241,Pizza Hut,19 N Main St,ELLENVILLE,NY,12428-1023,United States of America,8456474356.0,pizza_hut
2000463917,Pizza Hut,329 State Rd,NORTH ADAMS,MA,1247,United States of America,4136633797.0,pizza_hut
2000464296,Pizza Hut,Simmons Plaza Route 9 West,SAUGERTIES,NY,12477,United States of America,8452463033.0,pizza_hut
2000464300,Pizza Hut,1013 Route 94,VAILS GATE,NY,12584,United States of America,8455626620.0,pizza_hut
2000464302,Pizza Hut,1515 Route 9,WAPPINGERS FALLS,NY,12590-4128,United States of America,8452970333.0,pizza_hut
2000183161,Papa John's Pizza,1817 South Rd,WAPPINGERS FALLS,NY,12590-7415,United States of America,8452987272.0,papa_johns_pizza
2000464247,Pizza Hut,32 Main St,HUDSON FALLS,NY,12839-1921,United States of America,5187474149.0,pizza_hut
2000464254,Pizza Hut,111 Canada St,LAKE GEORGE,NY,12845-1526,United States of America,5186684410.0,pizza_hut
1000847949,Little Caesars Pizza,230 W Main St,MALONE,NY,12953,United States of America,5184838975.0,little_caesars_pizza
2000012786,Little Caesars Pizza,854 State Route 13,CORTLAND,NY,13045-4516,United States of America,6077566495.0,little_caesars_pizza
2000012672,Little Caesars Pizza,315 Fayette St,MANLIUS,NY,13104-1600,United States of America,3156824720.0,little_caesars_pizza
2000464299,Pizza Hut,150 Swansea Dr,SYRACUSE,NY,13206-1939,United States of America,3154375623.0,pizza_hut
2000464288,Pizza Hut,Dutchtown Plaza,PALATINE BRIDGE,NY,13428,United States of America,5186733334.0,pizza_hut
2000144341,CiCi's Pizza,1222 Arsenal St,WATERTOWN,NY,13601-2230,United States of America,3156816061.0,cicis_pizza
1000845616,Little Caesars Pizza,21082 Pioneer Plaza Dr,WATERTOWN,NY,13601-5500,United States of America,3157820435.0,little_caesars_pizza
2000464228,Pizza Hut,13429 Broadway St,ALDEN,NY,14004-1401,United States of America,7169377743.0,pizza_hut
2000464245,Pizza Hut,2340 Grand Island Blvd,GRAND ISLAND,NY,14072-3113,United States of America,7167739557.0,pizza_hut
2000464258,Pizza Hut,11225 Maple Ridge Rd,MEDINA,NY,14103-1845,United States of America,5857981909.0,pizza_hut
2000464284,Pizza Hut,275 Meadow Dr,NORTH TONAWANDA,NY,14120-2813,United States of America,7166924622.0,pizza_hut
2000464229,Pizza Hut,3980 Bailey Ave,AMHERST,NY,14226-3207,United States of America,7168321210.0,pizza_hut
2000464283,Pizza Hut,765 Niagara St,NIAGARA FALLS,NY,14303,United States of America,7162848888.0,pizza_hut
2000464286,Pizza Hut,1208 State Route 104,ONTARIO,NY,14519-8953,United States of America,3155242020.0,pizza_hut
2000464290,Pizza Hut,2160 Penfield Rd,PENFIELD,NY,14526-1712,United States of America,5853777100.0,pizza_hut
2000407393,Papa John's Pizza,21 N Main St,RUSHVILLE,NY,14544-9725,United States of America,4442223333.0,papa_johns_pizza
1000822423,Little Caesars Pizza,10 Cobblestone Court Dr,VICTOR,NY,14564-1044,United States of America,5852232340.0,little_caesars_pizza
2000464292,Pizza Hut,1016 Culver Rd,ROCHESTER,NY,14609-6417,United States of America,5854820880.0,pizza_hut
2000464249,Pizza Hut,545 Titus Ave,IRONDEQUOIT,NY,14617-3538,United States of America,5852666666.0,pizza_hut
2000464242,Pizza Hut,402 404 N Main St,ELMIRA,NY,14901,United States of America,6077333445.0,pizza_hut
1000807210,Pizza Hut,1300 Pittsburgh St,CHESWICK,PA,15024-1447,United States of America,7242742800.0,pizza_hut
1000826472,Fox's Pizza Den,1100 Lincoln Hwy,NORTH VERSAILLES,PA,15137-2138,United States of America,4128232266.0,foxs_pizza_den
1000946977,Papa John's Pizza,2928 W Liberty Ave,PITTSBURGH,PA,15216-2526,United States of America,4123067272.0,papa_johns_pizza
1000815415,Pizza Hut,4048 Beechwood Blvd,PITTSBURGH,PA,15217-2618,United States of America,4124211111.0,pizza_hut
2000329553,Papa John's Pizza,3403 Saw Mill Run Blvd,PITTSBURGH,PA,15227-2717,United States of America,4128817272.0,papa_johns_pizza
1000888665,Villa Fresh Italian Kitchen,301 S Hills Vlg,PITTSBURGH,PA,15241-1400,United States of America,4128334270.0,villa_fresh_italian_kitchen
2000443333,Domino's,315 Jefferson Ave,WASHINGTON,PA,15301-4225,United States of America,7242282140.0,dominos
1000866038,Fox's Pizza Den,444 Route 519,EIGHTY FOUR,PA,15330-2039,United States of America,7242283408.0,foxs_pizza_den
1000814895,Pizza Hut,RR 40,FARMINGTON,PA,15401,United States of America,7243291445.0,pizza_hut
1000874974,Fox's Pizza Den,620 N 3rd St,JEANNETTE,PA,15644-1734,United States of America,7245279875.0,foxs_pizza_den
1000866430,Little Caesars Pizza,451 Hyde Park Rd,LEECHBURG,PA,15656-9417,United States of America,7248451819.0,little_caesars_pizza
1000888354,Little Caesars Pizza,Route 819 South,MT PLEASANT,PA,15666-2287,United States of America,7245470933.0,little_caesars_pizza
1000848533,Little Caesars Pizza,2334 Oakland Ave,INDIANA,PA,15701-3348,United States of America,7243493521.0,little_caesars_pizza
1000885649,Fox's Pizza Den,914 Philadelphia Ave,NORTHERN CAMBRIA,PA,15714-1337,United States of America,8149483697.0,foxs_pizza_den
2000254300,Fox's Pizza Den,41 S Main St,HOMER CITY,PA,15748-1314,United States of America,7249158039.0,foxs_pizza_den
2000329500,Papa John's Pizza,22 Hoover Ave,DUBOIS,PA,15801-2428,United States of America,8143717272.0,papa_johns_pizza
2000464485,Pizza Hut,1607 Jefferson Ave,WINDBER,PA,15963-1737,United States of America,8144675555.0,pizza_hut
1000868934,Fox's Pizza Den,500 W Penn St,BUTLER,PA,16001-4249,United States of America,7242857200.0,foxs_pizza_den
1000969910,Little Caesars Pizza,601 Hansen Ave,BUTLER,PA,16001-5663,United States of America,7242826840.0,little_caesars_pizza
1000833308,Fox's Pizza Den,137 Main St,GREENVILLE,PA,16125-2276,United States of America,7245885101.0,foxs_pizza_den
1000933074,Papa John's Pizza,1275 N Hermitage Rd,HERMITAGE,PA,16148-3110,United States of America,7249830740.0,papa_johns_pizza
1000876615,Fox's Pizza Den,661 Greenville Pike,CLARION,PA,16214-6127,United States of America,8142265555.0,foxs_pizza_den
2000464475,Pizza Hut,66 Paint Boulevard Ext,SHIPPENVILLE,PA,16254,United States of America,8142265020.0,pizza_hut
2000405833,Marco's Pizza,3301D 6th Ave,ALTOONA,PA,16602,United States of America,8149431144.0,marcos_pizza
2000015936,Pizza Hut,9003 William Penn Hwy,HUNTINGDON,PA,16652-6923,United States of America,8146436727.0,pizza_hut
2000012606,Little Caesars Pizza,1712 S Atherton St,STATE COLLEGE,PA,16801-6212,United States of America,8142725100.0,little_caesars_pizza
1000827275,Fox's Pizza Den,112 E Main St,WESTFIELD,PA,16950-1605,United States of America,8143675925.0,foxs_pizza_den
1000862415,Little Caesars Pizza,3975 Columbia Ave,COLUMBIA,PA,17512-9025,United States of America,7172852414.0,little_caesars_pizza
1000947966,Papa John's Pizza,300 High St,LOCK HAVEN,PA,17745,United States of America,5708931772.0,papa_johns_pizza
2000464473,Pizza Hut,391 Meridian Ave,SCRANTON,PA,18504-2630,United States of America,5709413222.0,pizza_hut
2000347299,Jet's Pizza,1550 Main St,DICKSON CITY,PA,18519,United States of America,5703828047.0,jets_pizza
2000464436,Pizza Hut,415 Memorial Hwy,DALLAS,PA,18612-1150,United States of America,5706751808.0,pizza_hut
1000849979,Little Caesars Pizza,248 W Side Mall,EDWARDSVILLE,PA,18704-3117,United States of America,5707144912.0,little_caesars_pizza
2000464437,Pizza Hut,200 S Main St,DOYLESTOWN,PA,18901-4832,United States of America,2153400777.0,pizza_hut
2000464454,Pizza Hut,2050 S Eagle Rd,NEWTOWN,PA,18940-1572,United States of America,2159686040.0,pizza_hut
2000464479,Pizza Hut,421 W Street Rd,WARMINSTER,PA,18974-3219,United States of America,2156745777.0,pizza_hut
2000464480,Pizza Hut,1409 Easton Rd,WARRINGTON,PA,18976-2850,United States of America,2154910100.0,pizza_hut
2000464447,Pizza Hut,449 York Rd,JENKINTOWN,PA,19046,United States of America,2158845500.0,pizza_hut
2000242799,Little Caesars Pizza,9 Bustleton Pike,FEASTERVILLE TREVOSE,PA,19053-6330,United States of America,2676846856.0,little_caesars_pizza
2000393683,Little Caesars Pizza,106 W Trenton Ave,MORRISVILLE,PA,19067,United States of America,2677975123.0,little_caesars_pizza
2000464453,Pizza Hut,229 Plaza Blvd,MORRISVILLE,PA,19067-7601,United States of America,2157361200.0,pizza_hut
2000464477,Pizza Hut,157 S 69th St,UPPER DARBY,PA,19082-3212,United States of America,6103526090.0,pizza_hut
2000464459,Pizza Hut,2439 Aramingo Ave,PHILADELPHIA,PA,19125-3707,United States of America,2156347810.0,pizza_hut
2000464467,Pizza Hut,6750 Ridge Ave,PHILADELPHIA,PA,19128-2430,United States of America,2154879454.0,pizza_hut
2000464463,Pizza Hut,3501 Aramingo Ave,PHILADELPHIA,PA,19134-4605,United States of America,2157438225.0,pizza_hut
2000198802,Villa Fresh Italian Kitchen,Philadelphia Airport,PHILADELPHIA,PA,19153,United States of America,2153651179.0,villa_fresh_italian_kitchen
1000813290,Pizza Hut,3000 Island Ave,PHILADELPHIA,PA,19153-2022,United States of America,2159371777.0,pizza_hut
2000464456,Pizza Hut,5 Paoli Plz,PAOLI,PA,19301-1303,United States of America,6102964300.0,pizza_hut
2000464433,Pizza Hut,2755 E Lincoln Hwy,COATESVILLE,PA,19320-2461,United States of America,6103834600.0,pizza_hut
2000464441,Pizza Hut,150 W Lincoln Hwy,EXTON,PA,19341,United States of America,6103631979.0,pizza_hut
2000464449,Pizza Hut,192 W Dekalb Pike,KING OF PRUSSIA,PA,19406-2327,United States of America,6102651780.0,pizza_hut
2000464434,Pizza Hut,290 E Main St,COLLEGEVILLE,PA,19426-3612,United States of America,6104893301.0,pizza_hut
2000393694,Little Caesars Pizza,640 Bridge St,PHOENIXVILLE,PA,19460-3323,United States of America,4843025920.0,little_caesars_pizza
2000464471,Pizza Hut,181 W Schuylkill Rd,POTTSTOWN,PA,19465-6951,United States of America,6103266166.0,pizza_hut
1000845286,D'Angelo Grilled Sandwiches,210 Andover St,PEABODY,MA,1960,United States of America,9789773246.0,dangelo_grilled_sandwiches
1000806472,Pizza Hut,1199 Berkshire Blvd,WYOMISSING,PA,19610-1245,United States of America,4847092364.0,pizza_hut
1000807216,Pizza Hut,1300 Veale Rd,WILMINGTON,DE,19810-4602,United States of America,3024788442.0,pizza_hut
1000842861,Little Caesars Pizza,4364 Highway 1,REHOBOTH BEACH,DE,19971,United States of America,3022260264.0,little_caesars_pizza
2000393511,Little Caesars Pizza,1918 14th St SE,WASHINGTON,DC,20020-4867,United States of America,2026781246.0,little_caesars_pizza
2000425604,Little Caesars Pizza,14111 Saint Germain Dr,CENTREVILLE,VA,20121-2310,United States of America,7035434923.0,little_caesars_pizza
2000393780,Little Caesars Pizza,43053 Pemberton Sq,SOUTH RIDING,VA,20152-6307,United States of America,7035422444.0,little_caesars_pizza
2000200120,Papa Murphy's Take 'N' Bake Pizza,13320 Franklin Farm Rd,HERNDON,VA,20171-4092,United States of America,5712030100.0,papa_murphys_take_n_bake_pizza
2000393818,Sbarro,2025 Concessions Pentagon,WASHINGTON,DC,20310-2025,United States of America,8007664949.0,sbarro
1000888069,Papa Gino's Pizzeria,Mass. Turnpike West,WESTBORO,MA,2062,United States of America,5083668792.0,papa_ginos_pizzeria
2000225396,D'Angelo Grilled Sandwiches,45 J Hammond Rd,CHARLTON CITY,MA,2062,United States of America,5082485216.0,dangelo_grilled_sandwiches
2000003397,Sbarro,22099 Cuddihy Rd,PATUXENT RIVER,MD,20670-1194,United States of America,3018632591.0,sbarro
2000393591,Little Caesars Pizza,36 Watkins Park Dr,UPPER MARLBORO,MD,20774-1628,United States of America,3013900700.0,little_caesars_pizza
2000463207,Little Caesars Pizza,820 Largo Center Dr,UPPER MARLBORO,MD,20774-3705,United States of America,3019090862.0,little_caesars_pizza
1000893860,Hungry Howie's Pizza & Subs,17609 Redland Rd,DERWOOD,MD,20855-1236,United States of America,3013309558.0,hungry_howies_pizza_&_subs
2000172750,Little Caesars Pizza,13438 New Hampshire Ave,SILVER SPRING,MD,20904-1264,United States of America,3013848488.0,little_caesars_pizza
2000242524,Little Caesars Pizza,3255 Solomons Island Rd,EDGEWATER,MD,21037-2714,United States of America,4109563538.0,little_caesars_pizza
2000379681,Papa Murphy's Take 'N' Bake Pizza,10039 Baltimore National Pike,ELLICOTT CITY,MD,21042-4010,United States of America,4104800900.0,papa_murphys_take_n_bake_pizza
2000443093,Domino's,3330 Paper Mill Rd,PHOENIX,MD,21131-1419,United States of America,4106839400.0,dominos
2000463924,Pizza Hut,2601 Centreville Rd,CENTREVILLE,MD,21617-2029,United States of America,4107584348.0,pizza_hut
2000144445,Fox's Pizza Den,18728 N Pointe Dr,HAGERSTOWN,MD,21742-2998,United States of America,2404206268.0,foxs_pizza_den
2000393772,Little Caesars Pizza,6025 Burke Centre Pkwy,BURKE,VA,22015-3752,United States of America,7035438404.0,little_caesars_pizza
2000479268,Vocelli Pizza,4401 Wilson Blvd,ARLINGTON,VA,22203-4194,United States of America,,vocelli_pizza
2000464751,Pizza Hut,201 Kings Hwy,STAFFORD,VA,22555,United States of America,5403741333.0,pizza_hut
2000464728,Pizza Hut,373 N Mason St,HARRISONBURG,VA,22802-4111,United States of America,5404334800.0,pizza_hut
2000464732,Pizza Hut,721 E Main St,LURAY,VA,22835-1615,United States of America,5407435177.0,pizza_hut
1000840616,Little Caesars Pizza,1801 Hydraulic Rd,CHARLOTTESVILLE,VA,22901-2839,United States of America,4342965646.0,little_caesars_pizza
1000849091,CiCi's Pizza,240 Zan Rd,CHARLOTTESVILLE,VA,22901-2859,United States of America,4349640001.0,cicis_pizza
2000173209,Little Caesars Pizza,620 Albemarle Sq,CHARLOTTESVILLE,VA,22901-7406,United States of America,4349641011.0,little_caesars_pizza
2000344109,Sbarro,Observatory Hill Dining Facility,CHARLOTTESVILLE,VA,22904,United States of America,4349825041.0,sbarro
2000464739,Pizza Hut,13244 James Madison Hwy,ORANGE,VA,22960-2810,United States of America,7036722747.0,pizza_hut
1000911094,Domino's,130 Cedar Grove Rd,RUCKERSVILLE,VA,22968-3603,United States of America,4349902000.0,dominos
2000464758,Pizza Hut,1380 W Broad St,WAYNESBORO,VA,22980-2436,United States of America,7039439092.0,pizza_hut
2000393819,Sbarro,1420 N Parham Rd,RICHMOND,VA,23229-5513,United States of America,2567645779.0,sbarro
1000887230,Little Caesars Pizza,9730 Gayton Rd,RICHMOND,VA,23238-4907,United States of America,8047416333.0,little_caesars_pizza
2000254311,Fox's Pizza Den,9742 Gayton Rd,RICHMOND,VA,23238-4907,United States of America,8047544369.0,foxs_pizza_den
2000464731,Pizza Hut,99 Brunswick Square Ct,LAWRENCEVILLE,VA,23868-3834,United States of America,4348483999.0,pizza_hut
2000464720,Pizza Hut,E 2Nd St,CHASE CITY,VA,23924,United States of America,4343720777.0,pizza_hut
1000834379,Little Caesars Pizza,1419 Hershberger Rd NW,ROANOKE,VA,24012-2225,United States of America,5403665450.0,little_caesars_pizza
2000443388,Domino's,3095 Colonial Ave SW,ROANOKE,VA,24015-4705,United States of America,5409855000.0,dominos
2000464747,Pizza Hut,3904 Brambleton Ave,ROANOKE,VA,24018-6403,United States of America,5409891241.0,pizza_hut
1000813664,Pizza Hut,3102 Linden Dr,BRISTOL,VA,24202-5985,United States of America,2764662771.0,pizza_hut
2000254309,Fox's Pizza Den,112 Cornerstone St,LYNCHBURG,VA,24502-5346,United States of America,4345343434.0,foxs_pizza_den
2000464722,Pizza Hut,1259 Piney Forest Rd,DANVILLE,VA,24540-1503,United States of America,4348365924.0,pizza_hut
2000464750,Pizza Hut,4033 Halifax Rd,SOUTH BOSTON,VA,24592-4831,United States of America,4345728550.0,pizza_hut
2000254313,Fox's Pizza Den,PO Box 1590,PINEVILLE,WV,24874-1590,United States of America,3047327777.0,foxs_pizza_den
1000810950,Pizza Hut,211 Crossings Mall Rd,ELKVIEW,WV,25071-9230,United States of America,3049651700.0,pizza_hut
2000393795,Little Caesars Pizza,201 Crossings Mall Rd,ELKVIEW,WV,25071-9230,United States of America,3049657371.0,little_caesars_pizza
1000828727,Fox's Pizza Den,118 W Main St,SOPHIA,WV,25921,United States of America,3046833232.0,foxs_pizza_den
1000821830,Pizza Hut,45 Clark Rd,BUCKHANNON,WV,26201,United States of America,3044720335.0,pizza_hut
1000879435,Little Caesars Pizza,731 Beverly Pike,ELKINS,WV,26241-9729,United States of America,3046364212.0,little_caesars_pizza
2000464799,Pizza Hut,Cherry River Plaza,RICHWOOD,WV,26261,United States of America,3048464007.0,pizza_hut
1000918096,Domino's,307 W Main St,GRAFTON,WV,26354-1179,United States of America,3042653332.0,dominos
2000443067,Domino's,280 Route 130,FORESTDALE,MA,2644,United States of America,5088887757.0,dominos
2000447238,Papa John's Pizza,131 Commerce Ln,MAYODAN,NC,27027-8500,United States of America,3364279999.0,papa_johns_pizza
2000200031,Papa Murphy's Take 'N' Bake Pizza,1981 Peace Haven Rd,WINSTON SALEM,NC,27106-4850,United States of America,3366592699.0,papa_murphys_take_n_bake_pizza
2000464096,Pizza Hut,2405 N Church St,BURLINGTON,NC,27217-3242,United States of America,9102273702.0,pizza_hut
2000464120,Pizza Hut,709 W Main St,JAMESTOWN,NC,27282-9561,United States of America,3368873729.0,pizza_hut
2000051796,Gatti's Pizza,839 Julian Ave,THOMASVILLE,NC,27360-5894,United States of America,3364721234.0,gattis_pizza
2000443116,Domino's,Greensboro Coliseum,GREENSBORO,NC,27403,United States of America,,dominos
1000949881,Sbarro,343 Four Seasons Town Ctr,GREENSBORO,NC,27407-4759,United States of America,3365479936.0,sbarro
2000464109,Pizza Hut,600 College Rd,GREENSBORO,NC,27410-4102,United States of America,3362946298.0,pizza_hut
2000464098,Pizza Hut,360 E Main St,CARRBORO,NC,27510-2312,United States of America,9199420343.0,pizza_hut
2000464132,Pizza Hut,3407 S Wilmington St,RALEIGH,NC,27603-3541,United States of America,9197728017.0,pizza_hut
2000423748,Papa Murphy's Take 'N' Bake Pizza,4458 Fayetteville Rd,RALEIGH,NC,27603-3612,United States of America,9842003792.0,papa_murphys_take_n_bake_pizza
2000172858,Little Caesars Pizza,3231 Avent Ferry Rd,RALEIGH,NC,27606-3171,United States of America,9198594100.0,little_caesars_pizza
2000464133,Pizza Hut,4450 Creedmoor Rd,RALEIGH,NC,27612,United States of America,9197820070.0,pizza_hut
2000464134,Pizza Hut,5800 Duraleigh Rd,RALEIGH,NC,27612-2550,United States of America,9197811133.0,pizza_hut
2000464103,Pizza Hut,5232 N Roxboro Rd,DURHAM,NC,27712,United States of America,9194791277.0,pizza_hut
2000443120,Domino's,205 W Granville St,WINDSOR,NC,27983-1813,United States of America,2527943433.0,dominos
2000134504,Pizza Pro,1973 E Main St,ALBEMARLE,NC,28001-5333,United States of America,7049833342.0,pizza_pro
1000871618,Little Caesars Pizza,545 Concord Pkwy N,CONCORD,NC,28027-6738,United States of America,7047929333.0,little_caesars_pizza
1000872840,D'Angelo Grilled Sandwiches,576 Metacom Ave,BRISTOL,RI,2809,United States of America,4012538885.0,dangelo_grilled_sandwiches
2000443111,Domino's,Ericsson Stadium,CHARLOTTE,NC,28202,United States of America,,dominos
1000901435,Villa Pizza,4400 Sharon Rd,CHARLOTTE,NC,28211-3696,United States of America,7043661770.0,villa_pizza
2000303998,Papa Murphy's Take 'N' Bake Pizza,8640 University City Blvd,CHARLOTTE,NC,28213-3501,United States of America,7045959470.0,papa_murphys_take_n_bake_pizza
2000464104,Pizza Hut,4551 Yadkin Rd,FAYETTEVILLE,NC,28303-3421,United States of America,9108640066.0,pizza_hut
2000443113,Domino's,3441 N Main St,FAYETTEVILLE,NC,28306,United States of America,9104244474.0,dominos
1000847824,CiCi's Pizza,229 Westwood Shopping Ctr,FAYETTEVILLE,NC,28314-1528,United States of America,9108687333.0,cicis_pizza
1000842557,Little Caesars Pizza,1931 Skibo Rd,FAYETTEVILLE,NC,28314-1541,United States of America,9108641413.0,little_caesars_pizza
2000443119,Domino's,106 Southport Supply Rd,SUPPLY,NC,28462,United States of America,9107543688.0,dominos
2000464156,Pizza Hut,101 Salisbury St W,WRIGHTSVILLE BEACH,NC,28480-1813,United States of America,9102563776.0,pizza_hut
2000464116,Pizza Hut,2358 Springs Rd NE,HICKORY,NC,28601-3066,United States of America,8282569822.0,pizza_hut
2000464094,Pizza Hut,321 Bypass,BLOWING ROCK,NC,28605,United States of America,8282957080.0,pizza_hut
2000464095,Pizza Hut,1435 Highway 105,BOONE,NC,28607-7883,United States of America,8282623535.0,pizza_hut
2000225018,Papa Murphy's Take 'N' Bake Pizza,1863 Hendersonville Rd,ASHEVILLE,NC,28803-3206,United States of America,8282747475.0,papa_murphys_take_n_bake_pizza
2000464092,Pizza Hut,4 S Tunnel Rd,ASHEVILLE,NC,28805-2237,United States of America,8282980999.0,pizza_hut
1000887349,Little Caesars Pizza,980 Brevard Rd,ASHEVILLE,NC,28806-2256,United States of America,8286651143.0,little_caesars_pizza
1000873447,D'Angelo Grilled Sandwiches,587 Taunton Ave,EAST PROVIDENCE,RI,2914,United States of America,4014344770.0,dangelo_grilled_sandwiches
2000464501,Pizza Hut,617 Main St,COLUMBIA,SC,29201,United States of America,8037995036.0,pizza_hut
2000464498,Pizza Hut,1929 Broad River Rd,COLUMBIA,SC,29210-7004,United States of America,8037726262.0,pizza_hut
2000464510,Pizza Hut,201 Inman Rd,LYMAN,SC,29365-1409,United States of America,8644395587.0,pizza_hut
2000134509,Pizza Pro,9330 Medical Plaza Dr,CHARLESTON,SC,29406-9104,United States of America,8437978848.0,pizza_pro
1000883851,Little Caesars Pizza,8571 Rivers Ave,NORTH CHARLESTON,SC,29406-9208,United States of America,8438639481.0,little_caesars_pizza
2000200053,Papa Murphy's Take 'N' Bake Pizza,2 Avondale Ave,CHARLESTON,SC,29407-7298,United States of America,8437893336.0,papa_murphys_take_n_bake_pizza
2000200055,Papa Murphy's Take 'N' Bake Pizza,216 Saint James Ave,GOOSE CREEK,SC,29445-2939,United States of America,8435764133.0,papa_murphys_take_n_bake_pizza
1000909879,Domino's,105 Highway 52,MONCKS CORNER,SC,29461,United States of America,8437613300.0,dominos
2000200058,Papa Murphy's Take 'N' Bake Pizza,1107 Johnnie Dodds Blvd,MT PLEASANT,SC,29464-3101,United States of America,8439716242.0,papa_murphys_take_n_bake_pizza
2000200059,Papa Murphy's Take 'N' Bake Pizza,1203 Old Trolley Rd,SUMMERVILLE,SC,29485-5296,United States of America,8438210041.0,papa_murphys_take_n_bake_pizza
2000464491,Pizza Hut,102 Hwy 15-401 Byp,BENNETTSVILLE,SC,29512,United States of America,8434791006.0,pizza_hut
2000134510,Pizza Pro,711 Market St,CHERAW,SC,29520-2642,United States of America,8435377417.0,pizza_pro
2000329611,Papa John's Pizza,517 Radford Blvd,DILLON,SC,29536-2469,United States of America,8437740444.0,papa_johns_pizza
2000200056,Papa Murphy's Take 'N' Bake Pizza,1494 Poinsett Hwy,GREENVILLE,SC,29609-3634,United States of America,8642717744.0,papa_murphys_take_n_bake_pizza
1000904528,Hungry Howie's Pizza & Subs,654 Fairview Rd,SIMPSONVILLE,SC,29680-6790,United States of America,8649628809.0,hungry_howies_pizza_&_subs
2000200060,Papa Murphy's Take 'N' Bake Pizza,6015 Wade Hampton Blvd,TAYLORS,SC,29687-5334,United States of America,8648480006.0,papa_murphys_take_n_bake_pizza
2000183629,Marco's Pizza,10092 Charlotte Hwy,INDIAN LAND,SC,29707-7202,United States of America,8035478000.0,marcos_pizza
2000047757,Figaro's Pizza,8167 Charlotte Hwy,FORT MILL,SC,29707-9658,United States of America,8038023800.0,figaros_pizza
2000172532,Little Caesars Pizza,2136 N Decatur Rd,DECATUR,GA,30033-5367,United States of America,4047280035.0,little_caesars_pizza
2000144454,Fox's Pizza Den,2115 Market Place Blvd,CUMMING,GA,30041-7955,United States of America,6785138878.0,foxs_pizza_den
2000301481,Jet's Pizza,2950 Buford Hwy,CUMMING,GA,30041-8249,United States of America,7708884220.0,jets_pizza
2000301487,Jet's Pizza,3101 Roswell Rd,MARIETTA,GA,30062-7621,United States of America,7705095774.0,jets_pizza
2000172521,Little Caesars Pizza,3030 Headland Dr SW,ATLANTA,GA,30311-5437,United States of America,4043449151.0,little_caesars_pizza
1000809888,Pizza Hut,1871 Memorial Dr SE,ATLANTA,GA,30317-2150,United States of America,4043701888.0,pizza_hut
2000172520,Little Caesars Pizza,1075 Fairburn Rd SW,ATLANTA,GA,30331-8564,United States of America,4046999190.0,little_caesars_pizza
2000222065,CheeZies Pizza,3979 Buford Hwy NE,ATLANTA,GA,30345-1683,United States of America,6787057769.0,cheezies_pizza
2000198810,Villa Fresh Italian Kitchen,4400 Ashford Dunwoody Rd NE,ATLANTA,GA,30346-1518,United States of America,7708041900.0,villa_fresh_italian_kitchen
1000822271,D'Angelo Grilled Sandwiches,1 Executive Park Dr,MERRIMACK,NH,3054,United States of America,6034244499.0,dangelo_grilled_sandwiches
1000843444,Fox's Pizza Den,200 General Daniels Ave,DANIELSVILLE,GA,30633,United States of America,7067950086.0,foxs_pizza_den
2000463649,Pizza Hut,251 GA Highway 49 N,BYRON,GA,31008,United States of America,9129565750.0,pizza_hut
2000463670,Pizza Hut,4075 Pio Nono Ave,MACON,GA,31206-3079,United States of America,4787851100.0,pizza_hut
2000463667,Pizza Hut,1068 Gray Hwy,MACON,GA,31211-1858,United States of America,4787436777.0,pizza_hut
2000199977,Papa Murphy's Take 'N' Bake Pizza,755 W Oglethorpe Hwy,HINESVILLE,GA,31313-4475,United States of America,9123687272.0,papa_murphys_take_n_bake_pizza
2000463678,Pizza Hut,211 US Highway 80 W,POOLER,GA,31322-2528,United States of America,9123308129.0,pizza_hut
1000811930,Pizza Hut,2406 Dawson Rd,ALBANY,GA,31707,United States of America,2294355991.0,pizza_hut
2000463693,Pizza Hut,303 E 10th St,WEST POINT,GA,31833-1719,United States of America,7066452121.0,pizza_hut
2000463654,Pizza Hut,3634 Victory Dr,COLUMBUS,GA,31903-2710,United States of America,7066871614.0,pizza_hut
2000463653,Pizza Hut,3515 Macon Rd,COLUMBUS,GA,31907-2529,United States of America,7065618888.0,pizza_hut
2000023845,Hungry Howie's Pizza & Subs,6852 Suwannee Plaza Ln,LIVE OAK,FL,32060-7495,United States of America,3863300331.0,hungry_howies_pizza_&_subs
2000259921,Hungry Howie's Pizza & Subs,3915 A1A S,SAINT AUGUSTINE,FL,32080-6917,United States of America,9044712700.0,hungry_howies_pizza_&_subs
2000328088,Pie Five Pizza,1388 W International Speedway Blvd,DAYTONA BEACH,FL,32114-1441,United States of America,3862655918.0,pie_five_pizza
1000885767,Little Caesars Pizza,918 W International Speedway Blvd,DAYTONA BEACH,FL,32114-6517,United States of America,3862581808.0,little_caesars_pizza
2000251284,Pie Five Pizza,1781 Dunlawton Ave,PORT ORANGE,FL,32127-2910,United States of America,3862563862.0,pie_five_pizza
2000503320,Pie Five Pizza,1290 W Granada Blvd,ORMOND BEACH,FL,32174-5921,United States of America,3869477654.0,pie_five_pizza
1000866231,CiCi's Pizza,4495 Roosevelt Blvd,JACKSONVILLE,FL,32210-3382,United States of America,9043882464.0,cicis_pizza
2000210841,Papa Murphy's Take 'N' Bake Pizza,4765 Hodges Blvd,JACKSONVILLE,FL,32224-5280,United States of America,9049924774.0,papa_murphys_take_n_bake_pizza
2000404688,Papa Murphy's Take 'N' Bake Pizza,628 Atlantic Blvd,NEPTUNE BEACH,FL,32266-4002,United States of America,9042460981.0,papa_murphys_take_n_bake_pizza
2000463614,Pizza Hut,1518 W 15th St,PANAMA CITY,FL,32401-1742,United States of America,8507846916.0,pizza_hut
2000216123,Domino's,5500 N Star Ave,PANAMA CITY,FL,32404-9144,United States of America,8508411476.0,dominos
2000303974,Papa Murphy's Take 'N' Bake Pizza,837 N Tyndall Pkwy,CALLAWAY,FL,32404-9495,United States of America,8502153533.0,papa_murphys_take_n_bake_pizza
2000303975,Papa Murphy's Take 'N' Bake Pizza,724 W 23rd St,PANAMA CITY,FL,32405-3923,United States of America,8502159954.0,papa_murphys_take_n_bake_pizza
2000463615,Pizza Hut,14324 Front Beach Rd,PANAMA CITY BEACH,FL,32413-3511,United States of America,8502349284.0,pizza_hut
2000353213,Domino's,8140 W Highway 388,PANAMA CITY BEACH,FL,32413-9512,United States of America,8505885346.0,dominos
2000216125,Domino's,1369 Jackson Ave,CHIPLEY,FL,32428-1775,United States of America,8506380900.0,dominos
2000463626,Pizza Hut,4942 US Highway 98 W,SANTA ROSA BEACH,FL,32459-4091,United States of America,8506221088.0,pizza_hut
2000199967,Papa Murphy's Take 'N' Bake Pizza,98 Eglin Pkwy NE,FORT WALTON BEACH,FL,32548-4904,United States of America,8506642830.0,papa_murphys_take_n_bake_pizza
2000463587,Pizza Hut,2320 NW 43rd St,GAINESVILLE,FL,32606-6615,United States of America,3523736699.0,pizza_hut
1000892150,Hungry Howie's Pizza & Subs,14209 W Newberry Rd,NEWBERRY,FL,32669-2753,United States of America,3523319997.0,hungry_howies_pizza_&_subs
2000199966,Papa Murphy's Take 'N' Bake Pizza,452 S Hunt Club Blvd,APOPKA,FL,32703-4948,United States of America,4076289933.0,papa_murphys_take_n_bake_pizza
2000393809,Sbarro,1819 W State Road 434,LONGWOOD,FL,32750-5001,United States of America,4073316300.0,sbarro
2000463613,Pizza Hut,8699 Palm Pkwy,ORLANDO,FL,32836-6416,United States of America,4072390950.0,pizza_hut
2000390374,Hungry Howie's Pizza & Subs,1515 Palm Bay Rd,MELBOURNE,FL,32905-3817,United States of America,3218025050.0,hungry_howies_pizza_&_subs
1000831228,CiCi's Pizza,1270 N Wickham Rd,MELBOURNE,FL,32935-8939,United States of America,3212531299.0,cicis_pizza
2000575869,Pizza Hut,1300 S Federal Hwy,DANIA,FL,33004-4347,United States of America,9549202377.0,pizza_hut
1000861445,Little Caesars Pizza,3800 Oakwood Blvd,HOLLYWOOD,FL,33020-7114,United States of America,9549227740.0,little_caesars_pizza
2000463616,Pizza Hut,9700 Pines Blvd,PEMBROKE PINES,FL,33024-6228,United States of America,9544358448.0,pizza_hut
2000463594,Pizza Hut,99020 Overseas Hwy,KEY LARGO,FL,33037-2452,United States of America,3054510945.0,pizza_hut
2000463620,Pizza Hut,1203 S Federal Hwy,POMPANO BEACH,FL,33062-7067,United States of America,9549421755.0,pizza_hut
2000463111,Domino's,1553 E Sample Rd,POMPANO BEACH,FL,33064-6248,United States of America,,dominos
2000390376,Hungry Howie's Pizza & Subs,3206 Grand Ave,MIAMI,FL,33133-5011,United States of America,7867038181.0,hungry_howies_pizza_&_subs
2000463603,Pizza Hut,11503 S Dixie Hwy,MIAMI,FL,33156-4445,United States of America,3052548484.0,pizza_hut
2000463629,Pizza Hut,17100 Collins Ave,SUNNY ISLES BEACH,FL,33160-3675,United States of America,3059563425.0,pizza_hut
2000463602,Pizza Hut,10795 SW 72nd St,MIAMI,FL,33173,United States of America,3052746690.0,pizza_hut
1000808146,Pizza Hut,14699 SW 104th St,MIAMI,FL,33186-2977,United States of America,3053828333.0,pizza_hut
1000844833,Little Caesars Pizza,20505 S Dixie Hwy,CUTLER BAY,FL,33189-1228,United States of America,3052337975.0,little_caesars_pizza
2000463584,Pizza Hut,1747 N Federal Hwy,FT LAUDERDALE,FL,33305-2575,United States of America,9545630506.0,pizza_hut
2000463619,Pizza Hut,6908 Cypress Rd,PLANTATION,FL,33317-2318,United States of America,9545873300.0,pizza_hut
1000901727,Hungry Howie's Pizza & Subs,4599 N University Dr,LAUDERHILL,FL,33351-4502,United States of America,9545726807.0,hungry_howies_pizza_&_subs
2000463634,Pizza Hut,7703 S Dixie Hwy,WEST PALM BEACH,FL,33405-4817,United States of America,5615865000.0,pizza_hut
2000041458,California Pizza Kitchen,846 Palm Bch Intl Airport,WEST PALM BEACH,FL,33406-1405,United States of America,5616830834.0,california_pizza_kitchen
2000463597,Pizza Hut,7041 Seacrest Blvd,LANTANA,FL,33462-5139,United States of America,5615865100.0,pizza_hut
2000041425,California Pizza Kitchen,827 Brandon Town Center Mall,BRANDON,FL,33511-4798,United States of America,8136842375.0,california_pizza_kitchen
1000882308,Little Caesars Pizza,811 E Bloomingdale Ave,BRANDON,FL,33511-8113,United States of America,8136812511.0,little_caesars_pizza
2000134442,Pizza Pro,14981 State Hwy 104,SUMMERDALE,AL,33570,United States of America,2519451391.0,pizza_pro
2000134452,Pizza Pro,14551 Hwy 16 E,FAIRFIELD BAY,AR,33570,United States of America,5017235007.0,pizza_pro
2000134455,Pizza Pro,20501 Arch St,EAST END,AR,33570,United States of America,5018882900.0,pizza_pro
2000134463,Pizza Pro,HWY 5,EL PASO,AR,33570,United States of America,5017962696.0,pizza_pro
2000134487,Pizza Pro,HWY 67,STATESBORO,GA,33570,United States of America,9128717779.0,pizza_pro
2000134495,Pizza Pro,36 Hwy 160,GAINESVILLE,MO,33570,United States of America,4176794666.0,pizza_pro
2000134498,Pizza Pro,1720 Columbia Ave,PRENTISS,MS,33570,United States of America,6017925280.0,pizza_pro
2000134499,Pizza Pro,230 Main St,PACHUTA,MS,33570,United States of America,6017760068.0,pizza_pro
2000134500,Pizza Pro,401 Monroe Ave,OKOLONA,MS,33570,United States of America,6624472034.0,pizza_pro
2000134501,Pizza Pro,Hwy 82 W Sunflower,ITTA BENA,MS,33570,United States of America,6622549575.0,pizza_pro
2000134507,Pizza Pro,HWY 82,HIGH ROLLS,NM,33570,United States of America,5756822955.0,pizza_pro
2000134515,Pizza Pro,101 W Octavia,SIERRA BLANCA,TX,33570,United States of America,9153693431.0,pizza_pro
2000134517,Pizza Pro,109011 Hwy 150,SHEPHERD,TX,33570,United States of America,9366283341.0,pizza_pro
2000134518,Pizza Pro,1220 Hwy 124,STOWELL,TX,33570,United States of America,4092962446.0,pizza_pro
2000134519,Pizza Pro,200 Concard Hilton Blvd,CISCO,TX,33570,United States of America,2544423200.0,pizza_pro
2000134523,Pizza Pro,426 Hwy 69,WELLS,TX,33570,United States of America,9368675300.0,pizza_pro
2000303973,Papa Murphy's Take 'N' Bake Pizza,13159 US Highway 301 S,RIVERVIEW,FL,33578-7401,United States of America,8138980260.0,papa_murphys_take_n_bake_pizza
2000345000,Little Caesars Pizza,401 Channelside Dr,TAMPA,FL,33602-5400,United States of America,,little_caesars_pizza
2000303977,Papa Murphy's Take 'N' Bake Pizza,6900 Daniels Pkwy,FORT MYERS,FL,33912-1584,United States of America,2397682600.0,papa_murphys_take_n_bake_pizza
2000463621,Pizza Hut,4200 Tamiami Trl,PORT CHARLOTTE,FL,33952-9252,United States of America,9417430500.0,pizza_hut
1000939419,Sbarro,1868 Tamiami Trl N,NAPLES,FL,34102-4813,United States of America,2394345595.0,sbarro
2000463606,Pizza Hut,675 Tamiami Trl N,NAPLES,FL,34102-8132,United States of America,2392618818.0,pizza_hut
1000819954,Pizza Hut,794 Neapolitan Way,NAPLES,FL,34103-8504,United States of America,2396433339.0,pizza_hut
1000899230,Hungry Howie's Pizza & Subs,3333 N Tamiami Trl,SARASOTA,FL,34234-5258,United States of America,9413518656.0,hungry_howies_pizza_&_subs
2000383602,Villa Fresh Italian Kitchen,8201 S Tamiami Trl,SARASOTA,FL,34238-2966,United States of America,,villa_fresh_italian_kitchen
2000303978,Papa Murphy's Take 'N' Bake Pizza,4123 Tamiami Trl S,VENICE,FL,34293-5109,United States of America,9414936270.0,papa_murphys_take_n_bake_pizza
2000334447,Papa Murphy's Take 'N' Bake Pizza,2611 SW 19th Avenue Rd,OCALA,FL,34471-7868,United States of America,3522911140.0,papa_murphys_take_n_bake_pizza
1000898585,Villa Fresh Italian Kitchen,3100 SW College Rd,OCALA,FL,34474-8434,United States of America,3528619772.0,villa_fresh_italian_kitchen
1000905456,Hungry Howie's Pizza & Subs,7325 Spring Hill Dr,SPRING HILL,FL,34606-4346,United States of America,3526830000.0,hungry_howies_pizza_&_subs
1000816665,Pizza Hut,4938 Ridgemoor Blvd,PALM HARBOR,FL,34685-1744,United States of America,7277711113.0,pizza_hut
1000847020,Little Caesars Pizza,2211 W Vine St,KISSIMMEE,FL,34741-3980,United States of America,4078461121.0,little_caesars_pizza
2000198816,Villa Fresh Italian Kitchen,Florida Turnpike Mile Marker 144,FORT PIERCE,FL,34984,United States of America,7728783838.0,villa_fresh_italian_kitchen
2000198815,Villa Fresh Italian Kitchen,Florida Turnpike Mile Marker 263,OCOEE,FL,34988,United States of America,4072930441.0,villa_fresh_italian_kitchen
2000463387,Pizza Hut,1264 Cherokee Rd,ALEXANDER CITY,AL,35010-3973,United States of America,2562347400.0,pizza_hut
2000134443,Pizza Pro,1661 Floyd Bradford Rd,TRUSSVILLE,AL,35173-5179,United States of America,2059569571.0,pizza_pro
2000041293,California Pizza Kitchen,3470 Galleria Cir,HOOVER,AL,35244-2367,United States of America,2054440777.0,california_pizza_kitchen
1000853461,Pizza Inn,28235 Al Highway 53,ARDMORE,AL,35739-8703,United States of America,2564232500.0,pizza_inn
2000463397,Pizza Hut,2304 Bob Wallace Ave SW,HUNTSVILLE,AL,35805-4715,United States of America,2565347961.0,pizza_hut
1000915434,Pizza Pro,219 Cedar St,GREENVILLE,AL,36037-2205,United States of America,3343822288.0,pizza_pro
1000889935,Hungry Howie's Pizza & Subs,1111 Highway 231 S,TROY,AL,36081-3001,United States of America,3348079998.0,hungry_howies_pizza_&_subs
2000393458,Little Caesars Pizza,4021 Atlanta Hwy,MONTGOMERY,AL,36109-2920,United States of America,3348194900.0,little_caesars_pizza
2000134445,Pizza Pro,470 W Lawrence Harris Hwy,SLOCOMB,AL,36375-5352,United States of America,3348862464.0,pizza_pro
2000425547,Little Caesars Pizza,310 W Front St,EVERGREEN,AL,36401-2837,United States of America,2513695014.0,little_caesars_pizza
2000003037,Pizza Pro,1912 S Highway 21 Byp,MONROEVILLE,AL,36460-3123,United States of America,2515753474.0,pizza_pro
2000329660,Papa John's Pizza,718 McMeans Ave,BAY MINETTE,AL,36507-3348,United States of America,2519373500.0,papa_johns_pizza
2000134447,Pizza Pro,9879 Moffett Rd,SEMMES,AL,36575-5260,United States of America,2516497200.0,pizza_pro
2000463402,Pizza Hut,3064 Dauphin Island Pkwy,MOBILE,AL,36605-3835,United States of America,2514731337.0,pizza_hut
2000147049,Hungry Howie's Pizza & Subs,2206 Airport Blvd,MOBILE,AL,36606-1740,United States of America,2514781616.0,hungry_howies_pizza_&_subs
1000814457,Pizza Hut,3450 Demetropolis Rd,MOBILE,AL,36693-4642,United States of America,2516667933.0,pizza_hut
1000852967,Little Caesars Pizza,2780 Wilma Rudolph Blvd,CLARKSVILLE,TN,37040-5897,United States of America,9316476688.0,little_caesars_pizza
1000896202,Papa Murphy's Take 'N' Bake Pizza,2277 Wilma Rudolph Blvd,CLARKSVILLE,TN,37040-6183,United States of America,9315514599.0,papa_murphys_take_n_bake_pizza
2000051803,Gatti's Pizza,532 Highway 46 S,DICKSON,TN,37055-2526,United States of America,6154467474.0,gattis_pizza
2000051803,Gatti's Pizza,532 Highway 46 S,DICKSON,TN,37055-2526,United States of America,6154467474.0,gattis_pizza
1000938214,Sbarro,1720 Old Fort Pkwy,MURFREESBORO,TN,37129-6370,United States of America,6158964486.0,sbarro
2000015155,Papa Murphy's Take 'N' Bake Pizza,1722 S Rutherford Blvd,MURFREESBORO,TN,37130-0712,United States of America,6158930009.0,papa_murphys_take_n_bake_pizza
2000225017,Papa Murphy's Take 'N' Bake Pizza,4209 Nolensville Pike,NASHVILLE,TN,37211-4716,United States of America,6158325700.0,papa_murphys_take_n_bake_pizza
2000334470,Papa Murphy's Take 'N' Bake Pizza,2535 Lebanon Pike,NASHVILLE,TN,37214-2414,United States of America,6154543465.0,papa_murphys_take_n_bake_pizza
2000031786,Papa Murphy's Take 'N' Bake Pizza,2510 Murfreesboro Pike,NASHVILLE,TN,37217-3624,United States of America,6157320373.0,papa_murphys_take_n_bake_pizza
2000173109,Little Caesars Pizza,8026 Highway 100,NASHVILLE,TN,37221-4212,United States of America,6159150797.0,little_caesars_pizza
2000348217,CheeZies Pizza,2153 N Ocoee St,CLEVELAND,TN,37311-3920,United States of America,4237907889.0,cheezies_pizza
2000464556,Pizza Hut,801 Ridgeway Ave,SIGNAL MOUNTAIN,TN,37377-3003,United States of America,4238862448.0,pizza_hut
1000814600,Pizza Hut,3525 Broad St,CHATTANOOGA,TN,37409-1028,United States of America,4237568961.0,pizza_hut
2000015163,Papa Murphy's Take 'N' Bake Pizza,2244 N Roan St,JOHNSON CITY,TN,37601-2547,United States of America,4232620221.0,papa_murphys_take_n_bake_pizza
2000464531,Pizza Hut,2849 W State St,BRISTOL,TN,37620-1716,United States of America,4239682988.0,pizza_hut
2000464539,Pizza Hut,807 Lynn Garden Dr,KINGSPORT,TN,37660-5605,United States of America,4232456659.0,pizza_hut
1000953176,Papa John's Pizza,4217 W Stone Dr,KINGSPORT,TN,37660-7254,United States of America,4232469998.0,papa_johns_pizza
1000897078,Villa Fresh Italian Kitchen,2550 E Morris Blvd,MORRISTOWN,TN,37813-5827,United States of America,4233178022.0,villa_fresh_italian_kitchen
2000404711,Pie Five Pizza,443 S Illinois Ave,OAK RIDGE,TN,37830-7510,United States of America,8654821356.0,pie_five_pizza
2000385618,Gatti's Pizza Buffet,1431 Parkway,SEVIERVILLE,TN,37862-2846,United States of America,8654288817.0,gattis_pizza_buffet
2000423740,Papa Murphy's Take 'N' Bake Pizza,4849 Kingston Pike,KNOXVILLE,TN,37919-5110,United States of America,8653302436.0,papa_murphys_take_n_bake_pizza
2000051808,Gatti's Pizza,6913 Kingston Pike,KNOXVILLE,TN,37919-5703,United States of America,8655588899.0,gattis_pizza
1000924372,Pizza Pro,6971 Highway 14,BRIGHTON,TN,38011-6673,United States of America,9014761670.0,pizza_pro
2000134512,Pizza Pro,708 W Main St,BROWNSVILLE,TN,38012-2427,United States of America,7317729968.0,pizza_pro
1000817687,Pizza Hut,575 Erin Dr,MEMPHIS,TN,38117-4211,United States of America,9017633459.0,pizza_hut
1000921675,Pizza Pro,4861 Austin Peay Hwy,MEMPHIS,TN,38135-0714,United States of America,9019378818.0,pizza_pro
2000134511,Pizza Pro,Highway 22,GLEASON,TN,38225,United States of America,7313643905.0,pizza_pro
1000916978,Pizza Pro,2650 Highway 100,REAGAN,TN,38368-6340,United States of America,7319682304.0,pizza_pro
1000845272,D'Angelo Grilled Sandwiches,21 Portsmouth Ave,STRATHAM,NH,3885,United States of America,6037739773.0,dangelo_grilled_sandwiches
2000134502,Pizza Pro,1103 Shell Oil Rd,BRANDON,MS,39042-9330,United States of America,6018244641.0,pizza_pro
2000003052,Pizza Pro,320 E Fifteenth St,YAZOO CITY,MS,39194-2632,United States of America,6627469628.0,pizza_pro
1000821248,Pizza Hut,927 Mississippi Dr,WAYNESBORO,MS,39367,United States of America,6017354315.0,pizza_hut
1000885148,Pizza Inn,902 Mississippi Dr,WAYNESBORO,MS,39367-2464,United States of America,6017355600.0,pizza_inn
2000134503,Pizza Pro,460 Highway 15 S,LAUREL,MS,39440-4609,United States of America,6014252879.0,pizza_pro
1000806956,Pizza Hut,1249 S Main St,POPLARVILLE,MS,39470-3313,United States of America,6017950100.0,pizza_hut
2000144472,Fox's Pizza Den,3179 Mallett Rd,DIBERVILLE,MS,39540-9303,United States of America,2283969825.0,foxs_pizza_den
2000464064,Pizza Hut,92 Highway 145 N,ABERDEEN,MS,39730-2348,United States of America,6623696603.0,pizza_hut
2000464082,Pizza Hut,707 Highway 12 E,STARKVILLE,MS,39759-3829,United States of America,6623242321.0,pizza_hut
2000200001,Papa Murphy's Take 'N' Bake Pizza,177 E Lincoln Trail Blvd,RADCLIFF,KY,40160-1253,United States of America,2703511515.0,papa_murphys_take_n_bake_pizza
2000172695,Little Caesars Pizza,1985 Brownsboro Rd,LOUISVILLE,KY,40206-2170,United States of America,5028918886.0,little_caesars_pizza
1000893132,Papa Murphy's Take 'N' Bake Pizza,161 Outer Loop,LOUISVILLE,KY,40214-6516,United States of America,5023613444.0,papa_murphys_take_n_bake_pizza
2000199999,Papa Murphy's Take 'N' Bake Pizza,3614 Buechel Byp,LOUISVILLE,KY,40218-2245,United States of America,5024737890.0,papa_murphys_take_n_bake_pizza
2000423727,Papa Murphy's Take 'N' Bake Pizza,4909 Outer Loop,LOUISVILLE,KY,40219-4051,United States of America,5028835576.0,papa_murphys_take_n_bake_pizza
2000030843,Pizza Hut,675 Beaumont Plz,HARRODSBURG,KY,40330-2139,United States of America,8597345143.0,pizza_hut
1000889679,Papa Murphy's Take 'N' Bake Pizza,110 Blueberry Ln,NICHOLASVILLE,KY,40356-2390,United States of America,8598872254.0,papa_murphys_take_n_bake_pizza
2000195557,Godfather's Pizza,233 Lexington St,LANCASTER,KY,40444-1184,United States of America,8597921300.0,godfathers_pizza
2000134488,Pizza Pro,,EAST BERNSTADT,KY,40729,United States of America,6068437198.0,pizza_pro
1000881993,Little Caesars Pizza,8040 Burlington Pike,FLORENCE,KY,41042-1232,United States of America,8592839190.0,little_caesars_pizza
1000820498,Pizza Hut,84 Carothers Rd,NEWPORT,KY,41071-2416,United States of America,8595817474.0,pizza_hut
2000241890,Marco's Pizza,119 Fairfield Ave,BELLEVUE,KY,41073-1184,United States of America,8592617770.0,marcos_pizza
2000385624,Gatti's Pizza Buffet,711 Martin Luther King Jr Blvd,ASHLAND,KY,41101-2668,United States of America,6063298381.0,gattis_pizza_buffet
2000134489,Pizza Pro,5104 Cairo Rd,PADUCAH,KY,42001-9005,United States of America,2704443987.0,pizza_pro
2000341456,Gatti's Pizza,292 U S 68,DRAFFENVILLE,KY,42025,United States of America,2705272727.0,gattis_pizza
2000051761,Gatti's Pizza,292 US Highway 68 E,BENTON,KY,42025-7119,United States of America,2705272727.0,gattis_pizza
2000463857,Pizza Hut,24 Outlet Ave,EDDYVILLE,KY,42038-7700,United States of America,5023884425.0,pizza_hut
2000195509,Godfather's Pizza,1080 Harding Rd,FRANKLIN,KY,42134-6919,United States of America,2705860000.0,godfathers_pizza
2000015323,Pizza Hut,661 N Main St,RUSSELLVILLE,KY,42276-1610,United States of America,2707269526.0,pizza_hut
2000134490,Pizza Pro,3901 US Highway 431 S,BEECHMONT,KY,42323-3937,United States of America,2704768394.0,pizza_pro
2000225002,Papa Murphy's Take 'N' Bake Pizza,138 S Green St,HENDERSON,KY,42420-3539,United States of America,2702122033.0,papa_murphys_take_n_bake_pizza
2000407376,Papa John's Pizza,175 Cumberland Xing,MONTICELLO,KY,42633-9001,United States of America,6063487272.0,papa_johns_pizza
1000929672,Sbarro,10672 Lancaster Rd,HEBRON,OH,43025,United States of America,6144672900.0,sbarro
2000464345,Pizza Hut,705 W Coshocton St,JOHNSTOWN,OH,43031-9581,United States of America,7409677272.0,pizza_hut
2000041308,California Pizza Kitchen,4007 Gramercy St,COLUMBUS,OH,43219-6078,United States of America,6144751952.0,california_pizza_kitchen
2000344108,Sbarro,888 N County Road 260,CLYDE,OH,43410,United States of America,4195474717.0,sbarro
1000859795,Little Caesars Pizza,3515 Maple Ave,ZANESVILLE,OH,43701-1017,United States of America,7404525566.0,little_caesars_pizza
1000877123,Little Caesars Pizza,67800 Mall Rd,SAINT CLAIRSVILLE,OH,43950,United States of America,7406952029.0,little_caesars_pizza
2000464357,Pizza Hut,795 Youngstown Warren Rd,NILES,OH,44446-3548,United States of America,3305445585.0,pizza_hut
1000902757,Hungry Howie's Pizza & Subs,5205 Market St,BOARDMAN,OH,44512-2247,United States of America,3307829999.0,hungry_howies_pizza_&_subs
2000301494,Jet's Pizza,2020 Lincoln Way E,MASSILLON,OH,44646-7084,United States of America,3308301500.0,jets_pizza
1000840422,Little Caesars Pizza,1797 Portage Rd,WOOSTER,OH,44691,United States of America,3302622824.0,little_caesars_pizza
1000861470,Little Caesars Pizza,3801 Harmont Ave NE,CANTON,OH,44705-4331,United States of America,3304535713.0,little_caesars_pizza
2000424701,Pizza Hut,4153 State Route 128,CLEVES,OH,45002-9393,United States of America,5133531999.0,pizza_hut
1000813107,Pizza Hut,6054 State Rd 48,MAINEVILLE,OH,45039,United States of America,5136773399.0,pizza_hut
2000198811,Villa Fresh Italian Kitchen,992 Premium Outlets Dr,MONROE,OH,45050-1842,United States of America,5135399950.0,villa_fresh_italian_kitchen
2000012782,Little Caesars Pizza,815 Main St,MILFORD,OH,45150-1725,United States of America,5138312500.0,little_caesars_pizza
2000464315,Pizza Hut,3726 Glenway Ave,CINCINNATI,OH,45205-1354,United States of America,5134713400.0,pizza_hut
2000172956,Little Caesars Pizza,2249 Beechmont Ave,CINCINNATI,OH,45230-5318,United States of America,5132013040.0,little_caesars_pizza
2000464318,Pizza Hut,5626 Cheviot Rd,CINCINNATI,OH,45247-7006,United States of America,5133850500.0,pizza_hut
1000885988,Fox's Pizza Den,924 W Main St,TIPP CITY,OH,45371-1337,United States of America,9376693697.0,foxs_pizza_den
2000464327,Pizza Hut,2917 Linden Ave,DAYTON,OH,45410-3038,United States of America,9372565222.0,pizza_hut
1000873995,Little Caesars Pizza,601 Woodman Dr,DAYTON,OH,45431-2731,United States of America,9372525613.0,little_caesars_pizza
1000866193,Little Caesars Pizza,4480 Indian Ripple Rd,BEAVERCREEK,OH,45440-3252,United States of America,9374294748.0,little_caesars_pizza
1000888494,Fox's Pizza Den,38710 State Route 7,NEWPORT,OH,45768,United States of America,7404739000.0,foxs_pizza_den
2000303837,Donatos Pizza,1790 Tiffin Ave,FINDLAY,OH,45840-6824,United States of America,4194221100.0,donatos_pizza
1000895757,Papa Murphy's Take 'N' Bake Pizza,2150 Independence Dr,GREENWOOD,IN,46143-3405,United States of America,3178825500.0,papa_murphys_take_n_bake_pizza
2000463824,Pizza Hut,1892 S Ohio St,MARTINSVILLE,IN,46151-3320,United States of America,3173427146.0,pizza_hut
2000051343,Marco's Pizza,805 W 10th St,INDIANAPOLIS,IN,46202-2906,United States of America,3174729600.0,marcos_pizza
2000137320,California Pizza Kitchen,49 W Maryland St,INDIANAPOLIS,IN,46204-3523,United States of America,3172171291.0,california_pizza_kitchen
1000899618,Papa Murphy's Take 'N' Bake Pizza,3512 W 86th St,INDIANAPOLIS,IN,46268-1992,United States of America,3178707272.0,papa_murphys_take_n_bake_pizza
1000889315,Hungry Howie's Pizza & Subs,1047 W 7th St,AUBURN,IN,46706-2014,United States of America,2609201000.0,hungry_howies_pizza_&_subs
2000172636,Little Caesars Pizza,5808 W Jefferson Blvd,FORT WAYNE,IN,46804-8907,United States of America,2604329000.0,little_caesars_pizza
2000463814,Pizza Hut,2101 E Coliseum Blvd,FORT WAYNE,IN,46805-1445,United States of America,2604815777.0,pizza_hut
2000195558,Godfather's Pizza,104 Wabash Rd,NORTH MANCHESTER,IN,46962-1412,United States of America,2609829291.0,godfathers_pizza
2000002267,Godfather's Pizza,568 E Pearl St,BATESVILLE,IN,47006-1528,United States of America,8129330500.0,godfathers_pizza
2000051751,Gatti's Pizza,330 Clifty Dr,MADISON,IN,47250-1606,United States of America,8122736216.0,gattis_pizza
2000051751,Gatti's Pizza,330 Clifty Dr,MADISON,IN,47250-1606,United States of America,8122736216.0,gattis_pizza
2000215688,Little Caesars Pizza,340 NW 5th St,RICHMOND,IN,47374-2923,United States of America,7654882465.0,little_caesars_pizza
2000379693,Papa Murphy's Take 'N' Bake Pizza,3295 W 3rd St,BLOOMINGTON,IN,47404-4839,United States of America,8128221049.0,papa_murphys_take_n_bake_pizza
2000405827,Marco's Pizza,607 W 6th St,JASPER,IN,47546-2628,United States of America,8124810055.0,marcos_pizza
2000463833,Pizza Hut,2813 N 6th St,VINCENNES,IN,47591-3626,United States of America,8128866733.0,pizza_hut
1000816398,Pizza Hut,4700 W Lloyd Expy,EVANSVILLE,IN,47712-6519,United States of America,8124256666.0,pizza_hut
2000199989,Papa Murphy's Take 'N' Bake Pizza,1199 Sagamore Pkwy W,WEST LAFAYETTE,IN,47906-1301,United States of America,7654977272.0,papa_murphys_take_n_bake_pizza
2000015156,Papa Murphy's Take 'N' Bake Pizza,1730 S US Highway 231,CRAWFORDSVILLE,IN,47933-9417,United States of America,7653077115.0,papa_murphys_take_n_bake_pizza
2000463942,Pizza Hut,6710 E 10 Mile Rd,CENTER LINE,MI,48015-1166,United States of America,5867567200.0,pizza_hut
2000183081,Papa John's Pizza,31255 Southfield Rd,BEVERLY HILLS,MI,48025-5455,United States of America,2486332120.0,papa_johns_pizza
2000463943,Pizza Hut,1180 S Gratiot Ave,CLINTON TOWNSHIP,MI,48036-3502,United States of America,5864654470.0,pizza_hut
2000463970,Pizza Hut,15199 E 12 Mile Rd,ROSEVILLE,MI,48066-1801,United States of America,5867741160.0,pizza_hut
1000856030,Little Caesars Pizza,30846 Schoenherr Rd,WARREN,MI,48088-6856,United States of America,5867751700.0,little_caesars_pizza
2000463980,Pizza Hut,5011 E 8 Mile Rd,WARREN,MI,48091-2839,United States of America,5867571940.0,pizza_hut
1000811586,Pizza Hut,2280 E 14 Mile Rd,WARREN,MI,48092-1037,United States of America,5869798080.0,pizza_hut
1000817585,Pizza Hut,5630 Jackson Rd,ANN ARBOR,MI,48103-9504,United States of America,3137417200.0,pizza_hut
1000952167,Papa John's Pizza,3397 Plymouth Rd,ANN ARBOR,MI,48105-2510,United States of America,7346237272.0,papa_johns_pizza
2000463963,Pizza Hut,3810 Oakwood Blvd,MELVINDALE,MI,48122-1504,United States of America,3133814455.0,pizza_hut
2000463959,Pizza Hut,1119 Southfield Rd,LINCOLN PARK,MI,48146-2408,United States of America,3133834700.0,pizza_hut
2000463984,Pizza Hut,2407 Washtenaw Rd,YPSILANTI,MI,48197-1547,United States of America,7344341448.0,pizza_hut
2000463955,Pizza Hut,14401 Woodward Ave,HIGHLAND PARK,MI,48203-2928,United States of America,3138682222.0,pizza_hut
1000890208,Hungry Howie's Pizza & Subs,11401 Joseph Campau St,HAMTRAMCK,MI,48212-3040,United States of America,3133655000.0,hungry_howies_pizza_&_subs
2000463948,Pizza Hut,20939 Grand River Ave,DETROIT,MI,48219-3920,United States of America,3135321021.0,pizza_hut
1000809831,Pizza Hut,18435 Plymouth Rd,DETROIT,MI,48228-1125,United States of America,3138366100.0,pizza_hut
2000463968,Pizza Hut,1360 Walton Blvd,ROCHESTER HILLS,MI,48309-1754,United States of America,2486527251.0,pizza_hut
2000463974,Pizza Hut,3983 17 Mile Rd,STERLING HEIGHTS,MI,48310-6835,United States of America,5862644949.0,pizza_hut
2000463975,Pizza Hut,43167 Van Dyke Ave,STERLING HEIGHTS,MI,48314-3339,United States of America,5867313222.0,pizza_hut
2000463982,Pizza Hut,33000 Northwestern Hwy,WEST BLOOMFIELD,MI,48322-3634,United States of America,2488516230.0,pizza_hut
1000859980,Little Caesars Pizza,3541 Highland Rd,WATERFORD,MI,48328-2324,United States of America,2486823884.0,little_caesars_pizza
2000407382,Papa John's Pizza,31383 Orchard Lake Rd,FARMINGTON HILLS,MI,48334-1345,United States of America,2488711999.0,papa_johns_pizza
2000463966,Pizza Hut,343 W Walton Blvd,PONTIAC,MI,48340-1058,United States of America,2482530200.0,pizza_hut
2000329630,Papa John's Pizza,5899 Dixie Hwy,CLARKSTON,MI,48346-4518,United States of America,2486236600.0,papa_johns_pizza
1000888935,Hungry Howie's Pizza & Subs,101 N Clinton Ave,SAINT JOHNS,MI,48879-1578,United States of America,9892270999.0,hungry_howies_pizza_&_subs
1000912093,Domino's,145 Columbia Ave W,BATTLE CREEK,MI,49015-3444,United States of America,2699686200.0,dominos
2000423734,Papa Murphy's Take 'N' Bake Pizza,4020 Alpine Ave NW,COMSTOCK PARK,MI,49321,United States of America,6162221949.0,papa_murphys_take_n_bake_pizza
1000920899,Domino's,4324 14 Mile Rd NE,ROCKFORD,MI,49341-7838,United States of America,6168667226.0,dominos
2000030831,Pizza Hut,6450 28th Ave,HUDSONVILLE,MI,49426-8811,United States of America,6166620100.0,pizza_hut
2000334456,Papa Murphy's Take 'N' Bake Pizza,2035 28th St SE,GRAND RAPIDS,MI,49508-1594,United States of America,6162266782.0,papa_murphys_take_n_bake_pizza
1000893258,Papa Murphy's Take 'N' Bake Pizza,1633 28th St SW,WYOMING,MI,49519-2608,United States of America,6162612213.0,papa_murphys_take_n_bake_pizza
1000893258,Papa Murphy's Take 'N' Bake Pizza,1633 28th St SW,WYOMING,MI,49519-2608,United States of America,6162612213.0,papa_murphys_take_n_bake_pizza
2000463957,Pizza Hut,222 E Cloverland Dr,IRONWOOD,MI,49938-1306,United States of America,9069324001.0,pizza_hut
1000813839,Pizza Hut,317 N Market St,AUDUBON,IA,50025-7562,United States of America,7125634380.0,pizza_hut
2000463749,Pizza Hut,Hwy 4 N,JEFFERSON,IA,50129,United States of America,5153868173.0,pizza_hut
2000057281,The Pizza Ranch,206 N Wilson Ave,JEFFERSON,IA,50129-1923,United States of America,5153864234.0,the_pizza_ranch
1000839545,Little Caesars Pizza,1720 S Center St,MARSHALLTOWN,IA,50158-4258,United States of America,6417533270.0,little_caesars_pizza
2000463743,Pizza Hut,7440 Hickman Rd,DES MOINES,IA,50324-4619,United States of America,5152530003.0,pizza_hut
2000057217,The Pizza Ranch,1010 Main St,MANSON,IA,50563-5156,United States of America,7124693320.0,the_pizza_ranch
2000463760,Pizza Hut,714 Laporte Rd,WATERLOO,IA,50702-1832,United States of America,3192335600.0,pizza_hut
2000463739,Pizza Hut,RR 2,CORNING,IA,50841,United States of America,6413224212.0,pizza_hut
2000463750,Pizza Hut,20 E 2nd St,KINGSLEY,IA,51028-7705,United States of America,7123783400.0,pizza_hut
2000463755,Pizza Hut,E Hwy 10,ORANGE CITY,IA,51041,United States of America,7127373030.0,pizza_hut
2000463757,Pizza Hut,E Hwy 9,ROCK RAPIDS,IA,51246,United States of America,7124722359.0,pizza_hut
1000878836,Little Caesars Pizza,715 W US Highway 30,CARROLL,IA,51401-2134,United States of America,7127926345.0,little_caesars_pizza
2000463745,Pizza Hut,607 Main St,HAMBURG,IA,51640-1118,United States of America,7123821186.0,pizza_hut
1000851311,Little Caesars Pizza,2600 Dodge St,DUBUQUE,IA,52003-7159,United States of America,5635881632.0,little_caesars_pizza
2000463742,Pizza Hut,1002 Short St,DECORAH,IA,52101-2422,United States of America,3193828717.0,pizza_hut
1000807260,Pizza Hut,1304 7th Ave,BELLE PLAINE,IA,52208-1542,United States of America,3194443555.0,pizza_hut
2000463746,Pizza Hut,1921 Keokuk St,IOWA CITY,IA,52240-4443,United States of America,3193518655.0,pizza_hut
1000906356,Papa Murphy's Take 'N' Bake Pizza,819 Albia Rd,OTTUMWA,IA,52501-4127,United States of America,6416842132.0,papa_murphys_take_n_bake_pizza
1000891979,Papa Murphy's Take 'N' Bake Pizza,1402 A Ave W,OSKALOOSA,IA,52577-1909,United States of America,6416767272.0,papa_murphys_take_n_bake_pizza
1000919621,Domino's,372 Falls Rd,GRAFTON,WI,53024-2621,United States of America,2623767790.0,dominos
2000464794,Pizza Hut,1214 Utah St,WATERTOWN,WI,53094-6424,United States of America,,pizza_hut
2000464788,Pizza Hut,5821 W Silver Spring Dr,MILWAUKEE,WI,53218-3269,United States of America,4144611600.0,pizza_hut
1000847014,Little Caesars Pizza,2211 S Green Bay Rd,RACINE,WI,53406-4919,United States of America,2626380871.0,little_caesars_pizza
1000898086,Papa Murphy's Take 'N' Bake Pizza,2980 Cahill Main,FITCHBURG,WI,53711-7146,United States of America,6082684444.0,papa_murphys_take_n_bake_pizza
1000901828,Papa Murphy's Take 'N' Bake Pizza,4664 Cottage Grove Rd,MADISON,WI,53716-1302,United States of America,6082220600.0,papa_murphys_take_n_bake_pizza
2000200124,Papa Murphy's Take 'N' Bake Pizza,6718 Raymond Rd,MADISON,WI,53719-3954,United States of America,6084427272.0,papa_murphys_take_n_bake_pizza
1000852738,Godfather's Pizza,2746 Freedom Rd,DE PERE,WI,54115-9317,United States of America,9209830049.0,godfathers_pizza
1000841875,Little Caesars Pizza,190 Medford Plz,MEDFORD,WI,54451-1595,United States of America,7157486444.0,little_caesars_pizza
2000304038,Papa Murphy's Take 'N' Bake Pizza,1024 W 20th Ave,OSHKOSH,WI,54902-6618,United States of America,9202307272.0,papa_murphys_take_n_bake_pizza
1000819476,Pizza Hut,728 W Fond Du Lac St,RIPON,WI,54971-1256,United States of America,9207487512.0,pizza_hut
2000242627,Little Caesars Pizza,17668 Kenwood Trl,LAKEVILLE,MN,55044-9764,United States of America,9524350999.0,little_caesars_pizza
1000898218,Villa Pizza,3001 White Bear Ave N,SAINT PAUL,MN,55109-1211,United States of America,6517484138.0,villa_pizza
2000200011,Papa Murphy's Take 'N' Bake Pizza,2051 Silver Lake Rd NW,NEW BRIGHTON,MN,55112-5346,United States of America,6516363038.0,papa_murphys_take_n_bake_pizza
2000225011,Papa Murphy's Take 'N' Bake Pizza,2526 Rice St,LITTLE CANADA,MN,55113-3753,United States of America,6514840004.0,papa_murphys_take_n_bake_pizza
2000503326,Pie Five Pizza,245 Radio Dr,WOODBURY,MN,55125-5810,United States of America,6517319349.0,pie_five_pizza
1000963352,Papa John's Pizza,7908 Eden Rd,EDEN PRAIRIE,MN,55344-5302,United States of America,9529442686.0,papa_johns_pizza
2000406753,Pie Five Pizza,16518 W 78Th St,EDEN PRAIRIE,MN,55346-4302,United States of America,9529346324.0,pie_five_pizza
1000895351,Papa Murphy's Take 'N' Bake Pizza,2073 W Wayzata Blvd,LONG LAKE,MN,55356-4534,United States of America,9524752222.0,papa_murphys_take_n_bake_pizza
1000897415,Papa Murphy's Take 'N' Bake Pizza,2700 39th Ave NE,MINNEAPOLIS,MN,55421-4387,United States of America,6127882646.0,papa_murphys_take_n_bake_pizza
2000012776,Little Caesars Pizza,7607 W Broadway Ave,BROOKLYN PARK,MN,55428-1278,United States of America,7633150018.0,little_caesars_pizza
2000463985,Pizza Hut,10529 University Ave NE,BLAINE,MN,55434-8029,United States of America,7637579460.0,pizza_hut
2000003107,CiCi's Pizza,221 28th St SE,ROCHESTER,MN,55904-6739,United States of America,5072822233.0,cicis_pizza
2000463989,Pizza Hut,1501 S State St,FAIRMONT,MN,56031-4467,United States of America,5072356676.0,pizza_hut
2000172783,Little Caesars Pizza,1601 Highway 11 E,INTERNATIONAL FALLS,MN,56649,United States of America,2182857000.0,little_caesars_pizza
2000463986,Pizza Hut,2315 N Acres Dr,CROOKSTON,MN,56716-2806,United States of America,2182811622.0,pizza_hut
2000464519,Pizza Hut,101 S Grant St,CANTON,SD,57013,United States of America,6059874346.0,pizza_hut
1000820291,Pizza Hut,817 9th Ave SE,WATERTOWN,SD,57201-4959,United States of America,6058867740.0,pizza_hut
1000808996,Pizza Hut,1639 Dakota Ave S,HURON,SD,57350-3845,United States of America,6053529065.0,pizza_hut
2000464518,Pizza Hut,1926 6th Ave SE,ABERDEEN,SD,57401-6557,United States of America,6052254227.0,pizza_hut
2000464523,Pizza Hut,405 W Hwy 212,REDFIELD,SD,57469,United States of America,6054723811.0,pizza_hut
2000464521,Pizza Hut,815 E Grand Xing,MOBRIDGE,SD,57601,United States of America,6058457710.0,pizza_hut
1000851000,Little Caesars Pizza,2553 32nd St S,FARGO,ND,58103,United States of America,7012352331.0,little_caesars_pizza
2000464162,Pizza Hut,E Hwy 200,MAYVILLE,ND,58257,United States of America,7017862905.0,pizza_hut
2000464163,Pizza Hut,W Hwy 2,RUGBY,ND,58368,United States of America,7017765827.0,pizza_hut
1000822210,Little Caesars Pizza,1 20th Ave SE,MINOT,ND,58701-6553,United States of America,7018525942.0,little_caesars_pizza
2000464087,Pizza Hut,104 Willow Ave,COLSTRIP,MT,59323,United States of America,4067484468.0,pizza_hut
2000015450,Pizza Hut,1515 W Bell St,GLENDIVE,MT,59330-3240,United States of America,4063656004.0,pizza_hut
2000464085,Pizza Hut,8270 Hwy 35,BIGFORK,MT,59911,United States of America,4068371111.0,pizza_hut
2000383596,South Philly Steaks & Fries,5220 Fashion Outlets Way,ROSEMONT,IL,60018-5330,United States of America,,south_philly_steaks_&_fries
2000242544,Little Caesars Pizza,108 Washington Ave,HIGHWOOD,IL,60040-1122,United States of America,8479267244.0,little_caesars_pizza
2000155317,Jet's Pizza,133 N Milwaukee Ave,LIBERTYVILLE,IL,60048-2233,United States of America,8475493371.0,jets_pizza
2000404708,Pie Five Pizza,3800 Willow Rd,NORTHBROOK,IL,60062-6147,United States of America,8475130209.0,pie_five_pizza
2000385641,Pie Five Pizza,787 E Dundee Rd,PALATINE,IL,60074-2819,United States of America,8479344622.0,pie_five_pizza
2000345618,Pie Five Pizza,3306 W Touhy Ave,SKOKIE,IL,60076,United States of America,8473290025.0,pie_five_pizza
2000378551,Pie Five Pizza,776 S Randall Rd,ALGONQUIN,IL,60102-5915,United States of America,8474580097.0,pie_five_pizza
1000836978,Little Caesars Pizza,156 S Gary Ave,BLOOMINGDALE,IL,60108-2225,United States of America,6303071433.0,little_caesars_pizza
2000329525,Papa John's Pizza,275 N York St,ELMHURST,IL,60126-2766,United States of America,6308337272.0,papa_johns_pizza
2000353232,Domino's,106 Broadview Village Sq,BROADVIEW,IL,60155-4874,United States of America,7087313163.0,dominos
2000345617,Pie Five Pizza,1428 N Meacham Rd,SCHAUMBURG,IL,60173-4808,United States of America,8477445161.0,pie_five_pizza
2000172614,Little Caesars Pizza,2417 Sycamore Dr,MORRIS,IL,60450-1020,United States of America,8159414000.0,little_caesars_pizza
2000503327,Pie Five Pizza,10916 S Cicero Ave,OAK LAWN,IL,60453,United States of America,7083466129.0,pie_five_pizza
2000254287,Fox's Pizza Den,2278 Ogden Ave,AURORA,IL,60504-7218,United States of America,6308988888.0,foxs_pizza_den
2000405763,Marco's Pizza,5600 Belmont Rd,DOWNERS GROVE,IL,60516-1107,United States of America,6309638855.0,marcos_pizza
2000345616,Pie Five Pizza,2555 W 75th St,NAPERVILLE,IL,60540-9441,United States of America,3314575098.0,pie_five_pizza
1000859226,Little Caesars Pizza,3443 W Addison St,CHICAGO,IL,60618-4249,United States of America,7734789081.0,little_caesars_pizza
2000353239,Domino's,8149 Cottage Grove,CHGO,IL,60619,United States of America,7738911446.0,dominos
2000329698,Papa John's Pizza,907 N Damen Ave,CHICAGO,IL,60622-4949,United States of America,7732357272.0,papa_johns_pizza
1000869548,Little Caesars Pizza,5050 S Kedzie Ave,CHICAGO,IL,60632-3009,United States of America,7734767887.0,little_caesars_pizza
2000003367,Sbarro,239 W Golf Road,NILES,IL,60714,United States of America,8472972130.0,sbarro
1000821909,Pizza Hut,1120 S Sangamon Ave,GIBSON CITY,IL,60936-1762,United States of America,2177848258.0,pizza_hut
2000463570,Pizza Hut,3011 Berlin Tpke,NEWINGTON,CT,6111,United States of America,8606663888.0,pizza_hut
2000463801,Pizza Hut,802 W Dakota St,SPRING VALLEY,IL,61362-1602,United States of America,8156631100.0,pizza_hut
2000463803,Pizza Hut,6 Calvary Dr,WENONA,IL,61377,United States of America,8158530024.0,pizza_hut
2000463779,Pizza Hut,125 SW 2nd St,GALVA,IL,61434,United States of America,3099328101.0,pizza_hut
2000463784,Pizza Hut,1315 W Jackson St,MACOMB,IL,61455-1929,United States of America,3098373949.0,pizza_hut
1000832575,Little Caesars Pizza,1325 E Jackson St,MACOMB,IL,61455-2525,United States of America,3098373344.0,little_caesars_pizza
2000463796,Pizza Hut,3616 Broadway St,QUINCY,IL,62305-2820,United States of America,2172232134.0,pizza_hut
2000379697,Papa Murphy's Take 'N' Bake Pizza,401 N Keller Dr,EFFINGHAM,IL,62401-1881,United States of America,,papa_murphys_take_n_bake_pizza
2000463789,Pizza Hut,310 E Jourdan St,NEWTON,IL,62448-1516,United States of America,6187838731.0,pizza_hut
2000385632,Pie Five Pizza,17215 Chesterfield Airport Rd,CHESTERFIELD,MO,63005-1423,United States of America,6367781903.0,pie_five_pizza
2000301445,Jet's Pizza,1635 Clarkson Rd,CHESTERFIELD,MO,63017-4616,United States of America,6367781050.0,jets_pizza
2000464007,Pizza Hut,2090 Rock Rd,DE SOTO,MO,63020-1052,United States of America,3145865155.0,pizza_hut
2000303991,Papa Murphy's Take 'N' Bake Pizza,3909 Gravois Ave,SAINT LOUIS,MO,63116-3620,United States of America,3148759199.0,papa_murphys_take_n_bake_pizza
2000195501,Godfather's Pizza,9038 Natural Bridge Rd,SAINT LOUIS,MO,63121-3919,United States of America,3144278382.0,godfathers_pizza
2000172811,Little Caesars Pizza,3192 Telegraph Rd,SAINT LOUIS,MO,63125-5500,United States of America,3148947500.0,little_caesars_pizza
2000301446,Jet's Pizza,11032 Olive Blvd,CREVE COEUR,MO,63141-7615,United States of America,3149423599.0,jets_pizza
2000503319,Pie Five Pizza,1778 S Hanley Rd,SAINT LOUIS,MO,63144-2908,United States of America,3143795119.0,pie_five_pizza
2000225000,Papa Murphy's Take 'N' Bake Pizza,20 Plaza 94,SAINT PETERS,MO,63376-7405,United States of America,6364471503.0,papa_murphys_take_n_bake_pizza
1000913727,Pizza Pro,1800 Wentzville Pkwy,WENTZVILLE,MO,63385-3817,United States of America,6363277774.0,pizza_pro
2000464039,Pizza Hut,302 N Center St,SHELBINA,MO,63468-1120,United States of America,5735882268.0,pizza_hut
2000464008,Pizza Hut,401 N State St,DESLOGE,MO,63601-3053,United States of America,5734316191.0,pizza_hut
2000464012,Pizza Hut,126 E Main St,FREDERICKTOWN,MO,63645-1124,United States of America,3147836474.0,pizza_hut
2000464037,Pizza Hut,Hwy 61,SAINTE GENEVIEVE,MO,63670,United States of America,5738837471.0,pizza_hut
1000927387,Pizza Pro,Highway 77 & Highway EE,CHAFFEE,MO,63740,United States of America,5738873099.0,pizza_pro
1000920308,Pizza Pro,4053 State Hwy E,OAK RIDGE,MO,63769-5111,United States of America,5732663622.0,pizza_pro
2000464034,Pizza Hut,525 N Main St,PERRYVILLE,MO,63775-1319,United States of America,6365478960.0,pizza_hut
2000464040,Pizza Hut,1103 E Malone Ave,SIKESTON,MO,63801-3405,United States of America,3144722778.0,pizza_hut
2000425625,Little Caesars Pizza,817 E North Ave,BELTON,MO,64012-2194,United States of America,8163315200.0,little_caesars_pizza
2000348228,Simple Simon's Pizza,3927 Frederick Ave,SAINT JOSEPH,MO,64506-3022,United States of America,8162325405.0,simple_simons_pizza
2000463569,Pizza Hut,595 Washington St,MIDDLETOWN,CT,6457,United States of America,8603440200.0,pizza_hut
2000050931,Simple Simon's Pizza,401 N Osage Blvd,NEVADA,MO,64772-2638,United States of America,4176678427.0,simple_simons_pizza
2000200017,Papa Murphy's Take 'N' Bake Pizza,2313 W 7th St,JOPLIN,MO,64801-3238,United States of America,4176237770.0,papa_murphys_take_n_bake_pizza
2000464010,Pizza Hut,1709 S Business 54,ELDON,MO,65026-1790,United States of America,3143926643.0,pizza_hut
2000464006,Pizza Hut,116 Brady Commons,COLUMBIA,MO,65211-0001,United States of America,5734435213.0,pizza_hut
2000464011,Pizza Hut,110 N Church St,FAYETTE,MO,65248-1402,United States of America,6602482201.0,pizza_hut
1000914541,Pizza Pro,200 W Main St,CALHOUN,MO,65323-1122,United States of America,6606940101.0,pizza_pro
1000908336,Pizza Pro,100 S 65 Hwy,LINCOLN,MO,65338,United States of America,6605473300.0,pizza_pro
2000443097,Domino's,3505 E State Highway 76,BRANSON,MO,65616,United States of America,4173347810.0,dominos
1000908807,Pizza Pro,102 W Dallas St,BUFFALO,MO,65622-8669,United States of America,4173452210.0,pizza_pro
1000916199,Pizza Pro,240 S Highway 60,MARIONVILLE,MO,65705-9407,United States of America,4172582808.0,pizza_pro
1000913760,Pizza Pro,1803 N Main St,MOUNTAIN GROVE,MO,65711-1055,United States of America,4179267831.0,pizza_pro
2000050996,Simple Simon's Pizza,Corner of V & Bb,MYRTLE,MO,65778,United States of America,4179384216.0,simple_simons_pizza
2000134496,Pizza Pro,9051 US Highway 54,MACKS CREEK,MO,65786-9352,United States of America,5733631300.0,pizza_pro
1000849683,Pizza Inn,2440 N Kansas Expy,SPRINGFIELD,MO,65803-1187,United States of America,4178315262.0,pizza_inn
1000834545,Pizza Inn,1425 W Battlefield St,SPRINGFIELD,MO,65807-4103,United States of America,4178899769.0,pizza_inn
2000051105,Simple Simon's Pizza,602 Market St,LACYGNE,KS,66040,United States of America,9137572168.0,simple_simons_pizza
1000888951,Papa Murphy's Take 'N' Bake Pizza,101 W 29th St,PITTSBURG,KS,66762-2664,United States of America,6202351700.0,papa_murphys_take_n_bake_pizza
2000463843,Pizza Hut,Hwy 50,STRONG CITY,KS,66869,United States of America,6202736328.0,pizza_hut
2000463839,Pizza Hut,115 Commercial,MANKATO,KS,66956,United States of America,7856256195.0,pizza_hut
2000463834,Pizza Hut,2504 N Summit St,ARKANSAS CITY,KS,67005-8800,United States of America,6204421900.0,pizza_hut
2000031782,Papa Murphy's Take 'N' Bake Pizza,2348 W Central Ave,EL DORADO,KS,67042-3465,United States of America,3163211100.0,papa_murphys_take_n_bake_pizza
2000463837,Pizza Hut,115 W Kansas Ave,GREENSBURG,KS,67054-1671,United States of America,6207232324.0,pizza_hut
2000463840,Pizza Hut,1525 N Main St,NEWTON,KS,67114-1919,United States of America,3162835686.0,pizza_hut
1000892062,Papa Murphy's Take 'N' Bake Pizza,1410 S Kansas Ave,NEWTON,KS,67114-5302,United States of America,3162838111.0,papa_murphys_take_n_bake_pizza
2000463845,Pizza Hut,15Th & North G,WELLINGTON,KS,67152,United States of America,6203265946.0,pizza_hut
2000334454,Papa Murphy's Take 'N' Bake Pizza,2111 W 21st St N,WICHITA,KS,67203-2110,United States of America,3162528282.0,papa_murphys_take_n_bake_pizza
2000328089,Pie Five Pizza,2755 N Maize Rd,WICHITA,KS,67205-7327,United States of America,3166132828.0,pie_five_pizza
2000310482,Pie Five Pizza,334 S Ridge Rd,WICHITA,KS,67209-2230,United States of America,3162677435.0,pie_five_pizza
2000050905,Simple Simon's Pizza,1010 N Independence Ave,BELOIT,KS,67420-2147,United States of America,7857385704.0,simple_simons_pizza
2000329415,Papa John's Pizza,1305 Kansas - 96,GREAT BEND,KS,67530,United States of America,6207939898.0,papa_johns_pizza
2000334453,Papa Murphy's Take 'N' Bake Pizza,1110 N Campus Dr,GARDEN CITY,KS,67846-6471,United States of America,6202767222.0,papa_murphys_take_n_bake_pizza
2000393706,Little Caesars Pizza,59 Martinez Nadal St,MAYAGUEZ,PR,680,United States of America,8092658888.0,little_caesars_pizza
1000966200,Papa John's Pizza,923 Galvin Rd S,BELLEVUE,NE,68005-2200,United States of America,4022937777.0,papa_johns_pizza
1000904974,Papa Murphy's Take 'N' Bake Pizza,701 Galvin Rd S,BELLEVUE,NE,68005-2255,United States of America,4022938710.0,papa_murphys_take_n_bake_pizza
1000905962,Papa Murphy's Take 'N' Bake Pizza,7885 S 83rd St,LA VISTA,NE,68128-2761,United States of America,4023395400.0,papa_murphys_take_n_bake_pizza
2000405715,Marco's Pizza,8124 S 84th St,LA VISTA,NE,68128-3305,United States of America,4025934011.0,marcos_pizza
2000385644,Pie Five Pizza,9820 S 71st Plz,PAPILLION,NE,68133-2251,United States of America,4029914343.0,pie_five_pizza
2000303999,Papa Murphy's Take 'N' Bake Pizza,8244 Northern Lights Dr,LINCOLN,NE,68505,United States of America,4024660088.0,papa_murphys_take_n_bake_pizza
1000817561,Pizza Hut,5601 S 56th St,LINCOLN,NE,68516-1886,United States of America,4024216300.0,pizza_hut
1000900335,Papa Murphy's Take 'N' Bake Pizza,3900 Old Cheney Rd,LINCOLN,NE,68516-2793,United States of America,4024667711.0,papa_murphys_take_n_bake_pizza
2000200032,Papa Murphy's Take 'N' Bake Pizza,2662 Cornhusker Hwy,LINCOLN,NE,68521-1464,United States of America,4024671147.0,papa_murphys_take_n_bake_pizza
1000818612,Pizza Hut,275 Hwy 275,WISNER,NE,68791-3544,United States of America,4025296115.0,pizza_hut
1000820052,Pizza Hut,801 Main St,ALMA,NE,68920,United States of America,3089282800.0,pizza_hut
2000183607,Marco's Pizza,9212 W Judge Perez Dr,CHALMETTE,LA,70043-4536,United States of America,5042079700.0,marcos_pizza
1000859669,CiCi's Pizza,3501 Chateau Blvd,KENNER,LA,70065-6207,United States of America,5044662442.0,cicis_pizza
2000303988,Papa Murphy's Take 'N' Bake Pizza,1855 Barataria Blvd,MARRERO,LA,70072-4251,United States of America,5043404585.0,papa_murphys_take_n_bake_pizza
2000334422,Villa Fresh Italian Kitchen,500 Port of New Orleans Pl,NEW ORLEANS,LA,70130-1662,United States of America,5048720001.0,villa_fresh_italian_kitchen
2000051011,Simple Simon's Pizza,16273 E Main St,CUT OFF,LA,70345-3805,United States of America,9853253240.0,simple_simons_pizza
2000259947,Hungry Howie's Pizza & Subs,287 S Morrison Blvd,HAMMOND,LA,70403-3705,United States of America,9855424694.0,hungry_howies_pizza_&_subs
2000183058,Papa John's Pizza,1100 W Oak St,AMITE,LA,70422-2757,United States of America,9857480444.0,papa_johns_pizza
2000134492,Pizza Pro,19520 Highway 40,LORANGER,LA,70446-3456,United States of America,9858780012.0,pizza_pro
2000051788,Gatti's Pizza,1367 Heather Dr,OPELOUSAS,LA,70570,United States of America,3379487521.0,gattis_pizza
2000134493,Pizza Pro,603 E Fourth St,DEQUINCY,LA,70633-3661,United States of America,3377862958.0,pizza_pro
1000905870,Papa Murphy's Take 'N' Bake Pizza,7755 Magnolia Beach Rd,DENHAM SPRINGS,LA,70726-8970,United States of America,2256653696.0,papa_murphys_take_n_bake_pizza
2000015146,Papa Murphy's Take 'N' Bake Pizza,13375 Highway 73,GEISMAR,LA,70734-3057,United States of America,2256739189.0,papa_murphys_take_n_bake_pizza
2000463902,Pizza Hut,228 Hospital Rd,NEW ROADS,LA,70760,United States of America,2256389900.0,pizza_hut
2000031790,Papa Murphy's Take 'N' Bake Pizza,28811 Walker Rd S,WALKER,LA,70785-6050,United States of America,2256655955.0,papa_murphys_take_n_bake_pizza
1000903535,Papa Murphy's Take 'N' Bake Pizza,5875 Main St,ZACHARY,LA,70791-4054,United States of America,2256585995.0,papa_murphys_take_n_bake_pizza
1000905750,Papa Murphy's Take 'N' Bake Pizza,7620 Corporate Blvd,BATON ROUGE,LA,70809-1183,United States of America,2259329073.0,papa_murphys_take_n_bake_pizza
1000907700,Papa Murphy's Take 'N' Bake Pizza,9655 Perkins Rd,BATON ROUGE,LA,70810-1534,United States of America,2257660366.0,papa_murphys_take_n_bake_pizza
1000893503,Papa Murphy's Take 'N' Bake Pizza,17002 Jefferson Hwy,BATON ROUGE,LA,70817-6974,United States of America,2257060774.0,papa_murphys_take_n_bake_pizza
2000134494,Pizza Pro,1002 Highway 107,CENTER POINT,LA,71323,United States of America,3182408950.0,pizza_pro
1000875270,Fox's Pizza Den,6252 Highway 167 N,WINNFIELD,LA,71483-6071,United States of America,3186480062.0,foxs_pizza_den
1000911657,Pizza Pro,13800 Dollarway Rd,PINE BLUFF,AR,71602-9142,United States of America,8702471533.0,pizza_pro
2000134457,Pizza Pro,302 E Speedway St,DERMOTT,AR,71638-2324,United States of America,8705385415.0,pizza_pro
2000134467,Pizza Pro,600 N Main St,HAMBURG,AR,71646-2716,United States of America,8708538939.0,pizza_pro
1000913507,Pizza Pro,1739 Airport Rd,HOT SPRINGS,AR,71913-7949,United States of America,5017678100.0,pizza_pro
2000134468,Pizza Pro,210 E Thompson St,AMITY,AR,71921,United States of America,8703425210.0,pizza_pro
2000051106,Simple Simon's Pizza,101 W Main,MURFREESBORO,AR,71958,United States of America,8702853110.0,simple_simons_pizza
2000134470,Pizza Pro,119 Highway 167 N,BALD KNOB,AR,72010-4061,United States of America,5017245076.0,pizza_pro
2000134471,Pizza Pro,337 S 5th St,CLARENDON,AR,72029-2842,United States of America,8707473873.0,pizza_pro
2000134472,Pizza Pro,129 Bone St,CLINTON,AR,72031-6609,United States of America,5017458133.0,pizza_pro
1000912198,Brick Oven Pizza Company,1475 Hogan Ln,CONWAY,AR,72034-8285,United States of America,5013369100.0,brick_oven_pizza_company
1000909340,Pizza Pro,108 E 2nd St,DE WITT,AR,72042-2004,United States of America,8709464358.0,pizza_pro
2000134458,Pizza Pro,319 N Main St,ENGLAND,AR,72046-1340,United States of America,5018420335.0,pizza_pro
2000134474,Pizza Pro,12295 US Highway 165 E,HUMNOKE,AR,72072,United States of America,5012758000.0,pizza_pro
1000829127,CiCi's Pizza,120 John Harden Dr,JACKSONVILLE,AR,72076-3773,United States of America,5012412224.0,cicis_pizza
2000463416,Pizza Hut,Po Box 1204,FAIRFIELD BAY,AR,72088-1204,United States of America,5018846896.0,pizza_hut
2000134476,Pizza Pro,113 Highway 64,FAIR OAKS,AR,72101-7505,United States of America,8706972600.0,pizza_pro
2000463431,Pizza Hut,10300 Shannon Hills Dr,SHANNON HILLS,AR,72103-3363,United States of America,5014552121.0,pizza_hut
2000134477,Pizza Pro,427 Highway 9,OPPELO,AR,72110-9329,United States of America,5013548293.0,pizza_pro
2000463423,Pizza Hut,115 Audubon Dr,MAUMELLE,AR,72113-7408,United States of America,5018517202.0,pizza_hut
1000918068,Pizza Pro,306 Highway 61 N,BASSETT,AR,72313,United States of America,8705374422.0,pizza_pro
2000134480,Pizza Pro,209 Main St,HUGHES,AR,72348-9751,United States of America,8703394020.0,pizza_pro
2000134481,Pizza Pro,101 Broad St,LEPANTO,AR,72354,United States of America,8704752581.0,pizza_pro
2000385645,Pizza Inn,988 Falls Blvd S,WYNNE,AR,72396-3503,United States of America,8702383714.0,pizza_inn
2000144450,Fox's Pizza Den,207 N Bay Dr,BAY,AR,72411-9405,United States of America,8707701900.0,foxs_pizza_den
2000134483,Pizza Pro,8222 Highway 49 N,BROOKLAND,AR,72417,United States of America,8709356600.0,pizza_pro
2000134484,Pizza Pro,300 S Main St,LEACHVILLE,AR,72438,United States of America,8705391410.0,pizza_pro
2000463412,Pizza Hut,Hwy 62-167 Junction,ASH FLAT,AR,72513,United States of America,8709947303.0,pizza_hut
2000134485,Pizza Pro,PO BOX 117,MT PLEASANT,AR,72561-0117,United States of America,8703465340.0,pizza_pro
2000015160,Papa Murphy's Take 'N' Bake Pizza,2006 W Walnut St,ROGERS,AR,72756-3244,United States of America,4796339393.0,papa_murphys_take_n_bake_pizza
2000348222,Simple Simon's Pizza,609 S 8th St,ROGERS,AR,72756-4455,United States of America,4798996306.0,simple_simons_pizza
2000575384,Pizza Hut,1905 W Sunset Ave,SPRINGDALE,AR,72762,United States of America,5017518400.0,pizza_hut
1000913765,Pizza Pro,1804 E Main St,BOONEVILLE,AR,72927,United States of America,4796753922.0,pizza_pro
2000199917,Papa Murphy's Take 'N' Bake Pizza,2254 Fayetteville Rd,VAN BUREN,AR,72956-6508,United States of America,4794710900.0,papa_murphys_take_n_bake_pizza
2000224987,Papa Murphy's Take 'N' Bake Pizza,2220 NW 23rd St,OKLAHOMA CITY,OK,73107-2404,United States of America,4056016869.0,papa_murphys_take_n_bake_pizza
2000304005,Papa Murphy's Take 'N' Bake Pizza,6401 NW Expressway,OKLAHOMA CITY,OK,73132-5170,United States of America,4056034646.0,papa_murphys_take_n_bake_pizza
2000132340,Gatti's Pizza,5833 NW Expressway,WARR ACRES,OK,73132-5240,United States of America,4057214227.0,gattis_pizza
2000050944,Simple Simon's Pizza,7801 S Sooner Rd,OKLAHOMA CITY,OK,73135-6606,United States of America,4056723495.0,simple_simons_pizza
1000804792,Pizza Hut,100 C E Colston Dr,MARIETTA,OK,73448,United States of America,5802763397.0,pizza_hut
2000051114,Simple Simon's Pizza,Hwy 70,RINGLING,OK,73456,United States of America,4056222348.0,simple_simons_pizza
2000464408,Pizza Hut,Hwy 281 S,WATONGA,OK,73772,United States of America,5806238041.0,pizza_hut
2000464394,Pizza Hut,317 S Osage Ave,DEWEY,OK,74029-2741,United States of America,9185341450.0,pizza_hut
2000051024,Simple Simon's Pizza,1302 Commercial Ave,MOUNDS,OK,74047,United States of America,9188276185.0,simple_simons_pizza
2000348234,Simple Simon's Pizza,3140 E 201st St S,MOUNDS,OK,74047,United States of America,9183668783.0,simple_simons_pizza
2000050912,Simple Simon's Pizza,Highway 99 & 5th Avenue,HALLETT,OK,74081,United States of America,9183564486.0,simple_simons_pizza
2000050906,Simple Simon's Pizza,30455 E State Highway 51,COWETA,OK,74429-7682,United States of America,9184862514.0,simple_simons_pizza
2000051066,Simple Simon's Pizza,40376 State Highway 51B,PORTER,OK,74454-5334,United States of America,9184837791.0,simple_simons_pizza
2000183171,Papa John's Pizza,1200 E Wade Watts Ave,MCALESTER,OK,74501-5654,United States of America,9184290800.0,papa_johns_pizza
2000051075,Simple Simon's Pizza,1st and Pine,CLAYTON,OK,74536,United States of America,9185694772.0,simple_simons_pizza
2000304007,Papa Murphy's Take 'N' Bake Pizza,901 E Prospect Ave,PONCA CITY,OK,74601-1611,United States of America,5807657272.0,papa_murphys_take_n_bake_pizza
2000348224,Simple Simon's Pizza,425 W Doolin Ave,BLACKWELL,OK,74631-1602,United States of America,5802622776.0,simple_simons_pizza
2000015982,Pizza Inn,415 Westside Dr,DURANT,OK,74701-2932,United States of America,5809246000.0,pizza_inn
1000955386,Sbarro,4901 N Kickapoo Ave,SHAWNEE,OK,74804-1305,United States of America,4052731913.0,sbarro
1000848411,Little Caesars Pizza,2323 N Harrison St,SHAWNEE,OK,74804-3134,United States of America,4052758500.0,little_caesars_pizza
2000464387,Pizza Hut,1230 N Mississippi Ave,ADA,OK,74820-2216,United States of America,4053325662.0,pizza_hut
2000348246,Simple Simon's Pizza,1206 Kentucky Ave,PANAMA,OK,74951,United States of America,9189630107.0,simple_simons_pizza
2000379696,Papa Murphy's Take 'N' Bake Pizza,3765 Belt Line Rd,ADDISON,TX,75001-4302,United States of America,9722471800.0,papa_murphys_take_n_bake_pizza
2000200078,Papa Murphy's Take 'N' Bake Pizza,1008 W McDermott Dr,ALLEN,TX,75013-6357,United States of America,2143830033.0,papa_murphys_take_n_bake_pizza
2000224981,Papa Murphy's Take 'N' Bake Pizza,8745 Gary Burns Dr,FRISCO,TX,75034-2540,United States of America,2148721802.0,papa_murphys_take_n_bake_pizza
1000866057,CiCi's Pizza,4441 Bass Pro Dr,GARLAND,TX,75043-4837,United States of America,9722262121.0,cicis_pizza
2000304017,Papa Murphy's Take 'N' Bake Pizza,2710 N Belt Line Rd,IRVING,TX,75062-5200,United States of America,4695864668.0,papa_murphys_take_n_bake_pizza
1000838458,Little Caesars Pizza,1651 Eldorado Pkwy,MCKINNEY,TX,75069-8075,United States of America,4699522322.0,little_caesars_pizza
1000811263,Pizza Hut,220 Pioneer Rd,MESQUITE,TX,75149-8735,United States of America,9723291122.0,pizza_hut
2000464695,Pizza Hut,701 W Moore Ave,TERRELL,TX,75160-3125,United States of America,4696143600.0,pizza_hut
2000157520,Pizza Inn,1305 N Highway 77,WAXAHACHIE,TX,75165-5117,United States of America,9729375600.0,pizza_inn
2000051843,Gatti's Pizza,9247 Skillman St,DALLAS,TX,75243-9000,United States of America,2143413300.0,gattis_pizza
2000134525,Pizza Pro,886 E Lennon Dr,EMORY,TX,75440-3246,United States of America,9034734050.0,pizza_pro
2000051104,Simple Simon's Pizza,107 S Main St,YANTIS,TX,75497-4772,United States of America,9033832565.0,simple_simons_pizza
1000894239,Papa Murphy's Take 'N' Bake Pizza,1847 Troup Hwy,TYLER,TX,75701-5873,United States of America,9035923100.0,papa_murphys_take_n_bake_pizza
1000844207,CiCi's Pizza,2018 Crockett Rd,PALESTINE,TX,75801-5908,United States of America,9037239992.0,cicis_pizza
2000222072,Simple Simon's Pizza,573 N Temple Dr,DIBOLL,TX,75941-1728,United States of America,9368295959.0,simple_simons_pizza
1000923799,Pizza Pro,630 Sabine St,HEMPHILL,TX,75948-9612,United States of America,4097873838.0,pizza_pro
2000003065,Pizza Pro,14542 N US Highway 59,NACOGDOCHES,TX,75965-9003,United States of America,9365642131.0,pizza_pro
1000921803,Pizza Pro,498 N George Bowers Dr,TENAHA,TX,75974,United States of America,4092484008.0,pizza_pro
1000861787,Little Caesars Pizza,3851 SW Green Oaks Blvd,ARLINGTON,TX,76017-4130,United States of America,8175635151.0,little_caesars_pizza
2000304022,Papa Murphy's Take 'N' Bake Pizza,300 Granbury St,CLEBURNE,TX,76033-4808,United States of America,8177742899.0,papa_murphys_take_n_bake_pizza
2000012746,Little Caesars Pizza,608 Grapevine Hwy,HURST,TX,76054-2775,United States of America,8172817644.0,little_caesars_pizza
1000908954,Pizza Pro,10326 S US Highway 287,RHOME,TX,76078,United States of America,8176382679.0,pizza_pro
2000157516,Pie Five Pizza,6370 Camp Bowie Blvd,FORT WORTH,TX,76116-5463,United States of America,8179897435.0,pie_five_pizza
2000196591,Pizza Inn,9100 North Fwy,FT WORTH,TX,76177-7629,United States of America,8177500700.0,pizza_inn
2000008991,CiCi's Pizza,1100 S FM 51,DECATUR,TX,76234-2431,United States of America,9406276273.0,cicis_pizza
2000015174,Papa Murphy's Take 'N' Bake Pizza,3701 Fairway Blvd,WICHITA FALLS,TX,76310-1036,United States of America,9407677272.0,papa_murphys_take_n_bake_pizza
2000051018,Simple Simon's Pizza,1003 E Omega St,HENRIETTA,TX,76365-3008,United States of America,9405384348.0,simple_simons_pizza
2000464580,Pizza Hut,1608 W Walker St,BRECKENRIDGE,TX,76424-3241,United States of America,2545598231.0,pizza_hut
1000897365,Papa Murphy's Take 'N' Bake Pizza,2668 S 31st St,TEMPLE,TX,76504-7104,United States of America,2547786600.0,papa_murphys_take_n_bake_pizza
1000806726,Pizza Hut,1215 S Fort Hood St,KILLEEN,TX,76542-1307,United States of America,2546343334.0,pizza_hut
1000890581,Papa Murphy's Take 'N' Bake Pizza,1200 Lowes Blvd,KILLEEN,TX,76542-5204,United States of America,2545547272.0,papa_murphys_take_n_bake_pizza
2000464622,Pizza Hut,520 Pan American Dr,HARKER HEIGHTS,TX,76548-1983,United States of America,2546996139.0,pizza_hut
2000200111,Papa Murphy's Take 'N' Bake Pizza,208 Hewitt Dr,WACO,TX,76712-6686,United States of America,2547727272.0,papa_murphys_take_n_bake_pizza
2000304034,Papa Murphy's Take 'N' Bake Pizza,2825 Sherwood Way,SAN ANGELO,TX,76901-3513,United States of America,3256177957.0,papa_murphys_take_n_bake_pizza
2000051874,Gatti's Pizza,4349 Sherwood Way,SAN ANGELO,TX,76901-5614,United States of America,3252231319.0,gattis_pizza
2000464691,Pizza Hut,401 Hwy 227 N,SONORA,TX,76950,United States of America,9153873549.0,pizza_hut
1000879896,CiCi's Pizza,7441 Tidwell Rd,HOUSTON,TX,77016,United States of America,7136902229.0,cicis_pizza
2000334474,Papa Murphy's Take 'N' Bake Pizza,14627 Memorial Dr,HOUSTON,TX,77079-7500,United States of America,8326724499.0,papa_murphys_take_n_bake_pizza
1000826903,CiCi's Pizza,111 Cypress Creek Pkwy,HOUSTON,TX,77090-3513,United States of America,2813978577.0,cicis_pizza
2000341486,Pizza Inn,11651 W Bellfort St,HOUSTON,TX,77099-4658,United States of America,2814981715.0,pizza_inn
1000833276,CiCi's Pizza,1345 Kingwood Dr,KINGWOOD,TX,77339-3037,United States of America,2813597776.0,cicis_pizza
1000878786,CiCi's Pizza,7140 FM 1960 Rd E,HUMBLE,TX,77346-2702,United States of America,2818526969.0,cicis_pizza
2000224976,Papa Murphy's Take 'N' Bake Pizza,7072 FM 1960 Rd E,HUMBLE,TX,77346-2787,United States of America,2819135658.0,papa_murphys_take_n_bake_pizza
1000831517,CiCi's Pizza,1287 W Church St,LIVINGSTON,TX,77351-3018,United States of America,9363277440.0,cicis_pizza
1000924304,Pizza Pro,6899 US Highway 190 W,POINTBLANK,TX,77364-7037,United States of America,9363774400.0,pizza_pro
2000051875,Gatti's Pizza,16882 Stuebner Airline Rd,SPRING,TX,77379-6207,United States of America,2813202222.0,gattis_pizza
2000051876,Gatti's Pizza,415 Rayford Rd,SPRING,TX,77386-3550,United States of America,2814650343.0,gattis_pizza
2000304024,Papa Murphy's Take 'N' Bake Pizza,5124 Bissonnet St,BELLAIRE,TX,77401-4050,United States of America,7136616000.0,papa_murphys_take_n_bake_pizza
1000861556,Fox's Pizza Den,3811 N Fry Rd,KATY,TX,77449-6738,United States of America,2818293699.0,foxs_pizza_den
2000340849,Pie Five Pizza,1473 S Mason Rd,KATY,TX,77450-4568,United States of America,2817174535.0,pie_five_pizza
2000304027,Papa Murphy's Take 'N' Bake Pizza,24601 Southwest Fwy,ROSENBERG,TX,77471-6266,United States of America,2812323000.0,papa_murphys_take_n_bake_pizza
2000241932,Marco's Pizza,15215 Southwest Fwy,SUGAR LAND,TX,77478-3872,United States of America,8329994242.0,marcos_pizza
2000183428,Gattitown,3412 Highway 6,SUGAR LAND,TX,77478-4408,United States of America,2813130307.0,gattitown
2000196588,Pizza Inn,10920 W Little York Rd,HOUSTON,TX,77479,United States of America,7139370414.0,pizza_inn
2000134527,Pizza Pro,13179 State Highway 35 N,VAN VLECK,TX,77482-6509,United States of America,9792457784.0,pizza_pro
1000844288,Pizza Inn,2020 Katy Hockley Cut Off Rd,KATY,TX,77493-5841,United States of America,2813911177.0,pizza_inn
2000134528,Pizza Pro,7105 N Highway 146,BAYTOWN,TX,77523-9034,United States of America,2815732472.0,pizza_pro
2000196685,CiCi's Pizza,14045 FM 2100 Rd,CROSBY,TX,77532-6135,United States of America,2813286464.0,cicis_pizza
2000050803,The Pizza Oven,7 Kemah Boardwalk,KEMAH,TX,77565,United States of America,2813349049.0,the_pizza_oven
2000224973,Papa Murphy's Take 'N' Bake Pizza,3320 Broadway St,PEARLAND,TX,77581,United States of America,2814122000.0,papa_murphys_take_n_bake_pizza
2000198850,Villa Fresh Italian Kitchen,5885 Gulf Fwy,TEXAS CITY,TX,77591-7054,United States of America,2813374214.0,villa_fresh_italian_kitchen
2000134520,Pizza Pro,213 Highway 90,CHINA,TX,77613,United States of America,4097523741.0,pizza_pro
1000905353,Papa Murphy's Take 'N' Bake Pizza,725 E Villa Maria Rd,BRYAN,TX,77802-5300,United States of America,9797752253.0,papa_murphys_take_n_bake_pizza
1000909453,Pizza Pro,1096 Highway 90 N,ANDERSON,TX,77830,United States of America,9368732550.0,pizza_pro
2000250652,CiCi's To Go,4461 State Highway 6 S,COLLEGE STATION,TX,77845-4428,United States of America,9796908888.0,cicis_to_go
2000393729,Little Caesars Pizza,4444 State Highway 6 S,COLLEGE STATION,TX,77845-7417,United States of America,9796904444.0,little_caesars_pizza
2000464690,Pizza Hut,Po Box 447,SOMERVILLE,TX,77879-0447,United States of America,9795961532.0,pizza_hut
2000464699,Pizza Hut,3404 N Navarro St,VICTORIA,TX,77901-3351,United States of America,3615739137.0,pizza_hut
2000254306,Fox's Pizza Den,110 Tamarack Dr,CANYON LAKE,TX,78133-2643,United States of America,8309353697.0,foxs_pizza_den
1000835326,Fox's Pizza Den,1478 FM 2673,CANYON LAKE,TX,78133-4583,United States of America,8309643695.0,foxs_pizza_den
2000464680,Pizza Hut,6630 San Pedro Ave,SAN ANTONIO,TX,78216-7215,United States of America,2108291924.0,pizza_hut
2000464679,Pizza Hut,6418 Callaghan Rd,SAN ANTONIO,TX,78229-5116,United States of America,2103416811.0,pizza_hut
2000464658,Pizza Hut,517 N State Highway 9,MATHIS,TX,78368-1513,United States of America,5125479127.0,pizza_hut
2000464687,Pizza Hut,210 W Sinton St,SINTON,TX,78387-2555,United States of America,5123644796.0,pizza_hut
2000464589,Pizza Hut,4815B Saratoga Blvd,CORPUS CHRISTI,TX,78413-2213,United States of America,3619913278.0,pizza_hut
2000051841,GattiTown,5513 Saratoga Blvd,CORPUS CHRISTI,TX,78413-2940,United States of America,3619060029.0,gattitown
1000837553,Little Caesars Pizza,1601 E Alton Gloor Blvd,BROWNSVILLE,TX,78526-3902,United States of America,9569860909.0,little_caesars_pizza
1000826678,CiCi's Pizza,1103 Rivery Dr,GEORGETOWN,TX,78628-3052,United States of America,5128689296.0,cicis_pizza
2000030678,Pizza Hut,312 US Hwy 90-A East,GONZALES,TX,78629,United States of America,8306729616.0,pizza_hut
2000464620,Pizza Hut,312 Nwy 90 A East,GONZALES,TX,78629,United States of America,2106729616.0,pizza_hut
2000464564,Pizza Hut,1201 W 6th St,AUSTIN,TX,78703-5208,United States of America,5124726363.0,pizza_hut
2000051825,Gatti's Pizza,2614 S Lamar Blvd,AUSTIN,TX,78704-4733,United States of America,5125838102.0,gattis_pizza
2000051834,Gatti's Pizza,10510 W Parmer Ln,AUSTIN,TX,78717-4875,United States of America,5122463939.0,gattis_pizza
1000833900,CiCi's Pizza,14005 N Highway 183,AUSTIN,TX,78717-5959,United States of America,5122588600.0,cicis_pizza
1000847347,CiCi's Pizza,2237 E Riverside Dr,AUSTIN,TX,78741-3051,United States of America,5124452400.0,cicis_pizza
2000464576,Pizza Hut,8400 Brodie Ln,AUSTIN,TX,78745-8161,United States of America,5122926444.0,pizza_hut
2000051839,Gatti's Pizza,12206 FM 620 North,CEDAR PARK,TX,78750,United States of America,5123316396.0,gattis_pizza
2000051832,Gatti's Pizza,12206 Ranch Road 620 N,AUSTIN,TX,78750-1074,United States of America,5123316396.0,gattis_pizza
1000905823,Villa Pizza,7701 W Interstate 40,AMARILLO,TX,79121-0204,United States of America,8063567117.0,villa_pizza
2000464668,Pizza Hut,1200 W 11th St,QUANAH,TX,79252-5218,United States of America,9406632726.0,pizza_hut
2000464667,Pizza Hut,402 S Broadway St,POST,TX,79356-3732,United States of America,8064952845.0,pizza_hut
2000222066,CheeZies Pizza,1803 7th St,LUBBOCK,TX,79401-2305,United States of America,8067495050.0,cheezies_pizza
2000464652,Pizza Hut,1905 50th St,LUBBOCK,TX,79412-2705,United States of America,8067498200.0,pizza_hut
1000876227,Little Caesars Pizza,6501 University Ave,LUBBOCK,TX,79413-5849,United States of America,8067851155.0,little_caesars_pizza
2000134514,Pizza Pro,2014 Lamar St,SWEETWATER,TX,79556-8214,United States of America,3252353011.0,pizza_pro
1000814616,Pizza Hut,3533 N 1st St,ABILENE,TX,79603-6915,United States of America,3256722722.0,pizza_hut
2000198836,Villa Fresh Italian Kitchen,7051 S Desert Blvd,CANUTILLO,TX,79835-8557,United States of America,9158774022.0,villa_fresh_italian_kitchen
2000134522,Pizza Pro,400 S Van Horn Dr,VAN HORN,TX,79855,United States of America,4322831044.0,pizza_pro
2000464698,Pizza Hut,1808 W Broadway,VAN HORN,TX,79855,United States of America,9152832860.0,pizza_hut
2000464605,Pizza Hut,4201 Alabama St,EL PASO,TX,79930-2506,United States of America,9155669613.0,pizza_hut
2000304015,Papa Murphy's Take 'N' Bake Pizza,12135 Montwood Dr,EL PASO,TX,79936-4573,United States of America,9155005991.0,papa_murphys_take_n_bake_pizza
2000348218,CheeZies Pizza,12379 Edgemere Blvd,EL PASO,TX,79938-4578,United States of America,9158556000.0,cheezies_pizza
2000463560,Pizza Hut,578 W Highway 105,MONUMENT,CO,80132-9125,United States of America,7194814800.0,pizza_hut
2000241936,Marco's Pizza,2207 E Colfax Ave,DENVER,CO,80206-1311,United States of America,7205088705.0,marcos_pizza
2000328101,Pizzeria Locale,3600 W 32nd Ave,DENVER,CO,80211-3193,United States of America,3039643323.0,pizzeria_locale
2000463540,Pizza Hut,305 N Main St,BRECKENRIDGE,CO,80424,United States of America,9704538000.0,pizza_hut
2000463559,Pizza Hut,2188 W Eisenhower Blvd,LOVELAND,CO,80537-3146,United States of America,9706676205.0,pizza_hut
2000464186,Pizza Hut,3102 Linden Drive,MEDFORD,NJ,8055,United States of America,6096546668.0,pizza_hut
2000464180,Pizza Hut,201 Rte 130 & Cinnaminson Ave,CINNAMINSON,NJ,8077,United States of America,8568293653.0,pizza_hut
2000463547,Pizza Hut,806 Arcturus Dr,COLORADO SPRINGS,CO,80905-7835,United States of America,7195774111.0,pizza_hut
2000463543,Pizza Hut,2840 S Academy Blvd,COLORADO SPRINGS,CO,80916-3002,United States of America,7193924442.0,pizza_hut
2000463563,Pizza Hut,1709 Swink Ave,ROCKY FORD,CO,81067-1844,United States of America,7192547477.0,pizza_hut
2000464191,Pizza Hut,1120 White Horse Pike,OAKLYN,NJ,8107,United States of America,8568544466.0,pizza_hut
2000463565,Pizza Hut,414 Nevada Ave,TRINIDAD,CO,81082-2506,United States of America,7198462200.0,pizza_hut
2000463539,Pizza Hut,40 Nottingham Rd,AVON,CO,81620,United States of America,9709490158.0,pizza_hut
2000425559,Little Caesars Pizza,SUNNY ISLES SHOP CTR-A,ST CROIX,VI,820,United States of America,3407197966.0,little_caesars_pizza
1000842908,Little Caesars Pizza,1960 N Federal Blvd,RIVERTON,WY,82501-5204,United States of America,3078572077.0,little_caesars_pizza
1000851111,Little Caesars Pizza,2571 N Main St,SHERIDAN,WY,82801-9227,United States of America,3076721814.0,little_caesars_pizza
2000303982,Papa Murphy's Take 'N' Bake Pizza,151 N Main St,HAILEY,ID,83333-8410,United States of America,2087883688.0,papa_murphys_take_n_bake_pizza
2000463761,Pizza Hut,245 S Capitol Blvd,BOISE,ID,83702-7220,United States of America,2083951150.0,pizza_hut
2000425558,Little Caesars Pizza,REMAINDER MARTICULATE 1,ST CROIX,VI,840,United States of America,3406922228.0,little_caesars_pizza
2000575054,Papa John's Pizza,8240 W Lower Buckeye Rd,PHOENIX,AZ,85043-7429,United States of America,6237429300.0,papa_johns_pizza
1000900686,Papa Murphy's Take 'N' Bake Pizza,4025 E Chandler Blvd,PHOENIX,AZ,85048-8833,United States of America,4807065500.0,papa_murphys_take_n_bake_pizza
2000303950,Papa Murphy's Take 'N' Bake Pizza,67 N Dobson Rd,MESA,AZ,85201-6822,United States of America,4804642121.0,papa_murphys_take_n_bake_pizza
2000406749,Pie Five Pizza,1230 E Baseline Rd,MESA,AZ,85204-6706,United States of America,4805034215.0,pie_five_pizza
1000834860,Little Caesars Pizza,1445 S Power Rd,MESA,AZ,85206-3705,United States of America,4809857705.0,little_caesars_pizza
2000199925,Papa Murphy's Take 'N' Bake Pizza,1229 S Power Rd,MESA,AZ,85206-3737,United States of America,4808301970.0,papa_murphys_take_n_bake_pizza
2000463450,Pizza Hut,8912 E Pinnacle Peak Rd,SCOTTSDALE,AZ,85255-3659,United States of America,4805153607.0,pizza_hut
1000940830,Papa John's Pizza,2009 N Scottsdale Rd,SCOTTSDALE,AZ,85257-2106,United States of America,4809703434.0,papa_johns_pizza
2000423725,Papa Murphy's Take 'N' Bake Pizza,1981 E Pecos Rd,GILBERT,AZ,85295-1396,United States of America,4807266770.0,papa_murphys_take_n_bake_pizza
2000199922,Papa Murphy's Take 'N' Bake Pizza,5830 W Thunderbird Rd,GLENDALE,AZ,85306-4655,United States of America,6028666949.0,papa_murphys_take_n_bake_pizza
2000199921,Papa Murphy's Take 'N' Bake Pizza,3780 W Happy Valley Rd,GLENDALE,AZ,85310-3284,United States of America,6235824000.0,papa_murphys_take_n_bake_pizza
2000464200,Pizza Hut,3495 Rte 1 at Emmons Dr,WINDSOR,NJ,8540,United States of America,6092439363.0,pizza_hut
2000463447,Pizza Hut,505 S McNab Pkwy,SAN MANUEL,AZ,85631-1314,United States of America,5203850744.0,pizza_hut
1000905703,Hungry Howie's Pizza & Subs,7575 W Twin Peaks Rd,TUCSON,AZ,85743-1537,United States of America,5205726767.0,hungry_howies_pizza_&_subs
2000224957,Papa Murphy's Take 'N' Bake Pizza,2118 W Grant Rd,TUCSON,AZ,85745-1141,United States of America,5208827992.0,papa_murphys_take_n_bake_pizza
2000303956,Papa Murphy's Take 'N' Bake Pizza,6960 E Sunrise Dr,TUCSON,AZ,85750-0737,United States of America,5205295632.0,papa_murphys_take_n_bake_pizza
2000463453,Pizza Hut,5655 E River Rd,TUCSON,AZ,85750-6744,United States of America,5202905661.0,pizza_hut
2000463442,Pizza Hut,6 S Lake Powell Blvd,PAGE,AZ,86040,United States of America,5206452455.0,pizza_hut
2000463451,Pizza Hut,2245 W State Route 89A,SEDONA,AZ,86336-5452,United States of America,9282824125.0,pizza_hut
2000464206,Pizza Hut,5803 Gibson Blvd SE,ALBUQUERQUE,NM,87108-4833,United States of America,5052621501.0,pizza_hut
2000464203,Pizza Hut,12700 San Rafael Ave NE,ALBUQUERQUE,NM,87122-1143,United States of America,5058651665.0,pizza_hut
2000464215,Pizza Hut,945 W Alameda St,SANTA FE,NM,87501-1681,United States of America,5059824300.0,pizza_hut
2000464213,Pizza Hut,25 Bonnie View Dr,LOS ALAMOS,NM,87544-3720,United States of America,5056721265.0,pizza_hut
2000464212,Pizza Hut,166 Central Park Sq,LOS ALAMOS,NM,87544-4029,United States of America,5056622411.0,pizza_hut
2000464211,Pizza Hut,908 Grand Ave,LAS VEGAS,NM,87701-4521,United States of America,5054259314.0,pizza_hut
2000464210,Pizza Hut,2502 7th St,LAS VEGAS,NM,87701-4969,United States of America,5054259321.0,pizza_hut
1000804990,Pizza Hut,1007 S 2nd St,RATON,NM,87740-2303,United States of America,5054458922.0,pizza_hut
2000134505,Pizza Pro,,COLUMBUS,NM,88029,United States of America,5755311234.0,pizza_pro
2000134506,Pizza Pro,801 W Kansas St,HOBBS,NM,88242-9659,United States of America,5753928319.0,pizza_pro
1000847331,CiCi's Pizza,2235 E Cheyenne Ave,NORTH LAS VEGAS,NV,89030-8436,United States of America,7026335228.0,cicis_pizza
2000405443,Pizza Factory,10420 Decatur Blvd,LAS VEGAS,NV,89141-8716,United States of America,7028375001.0,pizza_factory
2000224953,Papa Murphy's Take 'N' Bake Pizza,1035 S Rainbow Blvd,LAS VEGAS,NV,89145-6232,United States of America,7025227272.0,papa_murphys_take_n_bake_pizza
2000304002,Papa Murphy's Take 'N' Bake Pizza,4045 S Buffalo Dr,LAS VEGAS,NV,89147-7479,United States of America,7025387272.0,papa_murphys_take_n_bake_pizza
2000326130,Pizza Factory,2060 Aultman St,ELY,NV,89301-1824,United States of America,7752893739.0,pizza_factory
2000304000,Papa Murphy's Take 'N' Bake Pizza,4796 Caughlin Pkwy,RENO,NV,89519-1005,United States of America,7758001490.0,papa_murphys_take_n_bake_pizza
1000947970,Sbarro,308 Westwood Plz,LOS ANGELES,CA,90024-5657,United States of America,3107944080.0,sbarro
1000935726,Sbarro,150 Citadel Dr,COMMERCE,CA,90040-1584,United States of America,3237258882.0,sbarro
2000041463,California Pizza Kitchen,201 World Way N,LOS ANGELES,CA,90045,United States of America,3106463472.0,california_pizza_kitchen
2000041124,California Pizza Kitchen,121 N La Cienega Blvd,LOS ANGELES,CA,90048-3309,United States of America,3108546555.0,california_pizza_kitchen
2000041284,California Pizza Kitchen,330 S Hope St,LOS ANGELES,CA,90071-3108,United States of America,2136262616.0,california_pizza_kitchen
2000224950,Papa Murphy's Take 'N' Bake Pizza,14838 Whittier Blvd,WHITTIER,CA,90605-1727,United States of America,5626964832.0,papa_murphys_take_n_bake_pizza
1000934140,Papa John's Pizza,13553 Whittier Blvd,WHITTIER,CA,90605-1935,United States of America,5627899999.0,papa_johns_pizza
2000182590,Sbarro,9200 Valley View St,CYPRESS,CA,90630-5805,United States of America,7144847484.0,sbarro
2000344034,Mountain Mike's Pizza,1240 W Imperial Hwy,LA HABRA,CA,90631-0600,United States of America,5626973800.0,mountain_mikes_pizza
2000329693,Papa John's Pizza,8646 Whittier Blvd,PICO RIVERA,CA,90660-2655,United States of America,5629496555.0,papa_johns_pizza
1000824775,Little Caesars Pizza,10400 Rosecrans Ave,BELLFLOWER,CA,90706-2703,United States of America,5629259482.0,little_caesars_pizza
2000423736,Papa Murphy's Take 'N' Bake Pizza,456 W Huntington Dr,MONROVIA,CA,91016-3202,United States of America,6263575700.0,papa_murphys_take_n_bake_pizza
2000405765,Marco's Pizza,24820 Orchard Village Rd,SANTA CLARITA,CA,91355-3092,United States of America,6612592900.0,marcos_pizza
2000182977,Papa John's Pizza,21842 Ventura Blvd,WOODLAND HILLS,CA,91364-1837,United States of America,8188837272.0,papa_johns_pizza
1000833492,Little Caesars Pizza,13805 Roscoe Blvd,PANORAMA CITY,CA,91402-3836,United States of America,8188937991.0,little_caesars_pizza
1000850019,Round Table Pizza,2488 Foothill Blvd,LA VERNE,CA,91750-3062,United States of America,9095962600.0,round_table_pizza
2000405450,Round Table Pizza,2500 E Airport Dr,ONTARIO,CA,91761-2131,United States of America,9099372700.0,round_table_pizza
2000463461,Pizza Hut,1206 Broadway,CHULA VISTA,CA,91911-2911,United States of America,6194268710.0,pizza_hut
2000463469,Pizza Hut,2702 Fletcher Pkwy,EL CAJON,CA,92020-2110,United States of America,6194690600.0,pizza_hut
2000463472,Pizza Hut,456 W Felicita Ave,ESCONDIDO,CA,92025,United States of America,7607415918.0,pizza_hut
2000463483,Pizza Hut,8110 La Jolla Shores Dr,LA JOLLA,CA,92037-3100,United States of America,8585511011.0,pizza_hut
2000041297,California Pizza Kitchen,3665 N Harbor Dr,SAN DIEGO,CA,92101-1039,United States of America,6192315100.0,california_pizza_kitchen
1000820812,Pizza Hut,8895 Towne Centre Dr,SAN DIEGO,CA,92122-5542,United States of America,8584522299.0,pizza_hut
2000463517,Pizza Hut,11975 Carmel Mountain Rd,SAN DIEGO,CA,92128-4612,United States of America,8586757755.0,pizza_hut
2000334441,Papa Murphy's Take 'N' Bake Pizza,300 S Highland Springs Ave,BANNING,CA,92220-6504,United States of America,9518454922.0,papa_murphys_take_n_bake_pizza
1000835072,Little Caesars Pizza,1455 W Hobsonway,BLYTHE,CA,92225-1479,United States of America,7609218446.0,little_caesars_pizza
2000198844,Villa Fresh Italian Kitchen,48400 Seminole Dr,CABAZON,CA,92230-2155,United States of America,9518490700.0,villa_fresh_italian_kitchen
2000329557,Papa John's Pizza,35400 Date Palm Dr,CATHEDRAL CITY,CA,92234-7036,United States of America,7607706565.0,papa_johns_pizza
2000172369,Little Caesars Pizza,17099 Valley Blvd,FONTANA,CA,92335-6846,United States of America,9093490803.0,little_caesars_pizza
2000303965,Papa Murphy's Take 'N' Bake Pizza,16475 Sierra Lakes Pkwy,FONTANA,CA,92336-1259,United States of America,9093507272.0,papa_murphys_take_n_bake_pizza
2000326127,Pizza Factory,25970 Iris Ave,MORENO VALLEY,CA,92551-1660,United States of America,9512421407.0,pizza_factory
2000394387,Mountain Mike's Pizza,Moreno Valley,MORENO VALLEY,CA,92553,United States of America,4087796900.0,mountain_mikes_pizza
2000199949,Papa Murphy's Take 'N' Bake Pizza,39028 Winchester Rd,MURRIETA,CA,92563-3505,United States of America,9516987474.0,papa_murphys_take_n_bake_pizza
2000303966,Papa Murphy's Take 'N' Bake Pizza,27388 Sun City Blvd,SUN CITY,CA,92586-2569,United States of America,9516723322.0,papa_murphys_take_n_bake_pizza
2000199961,Papa Murphy's Take 'N' Bake Pizza,31805 Temecula Pkwy,TEMECULA,CA,92592-8203,United States of America,9513030202.0,papa_murphys_take_n_bake_pizza
2000260899,Mountain Mike's Pizza,25292 McIntyre St,LAGUNA HILLS,CA,92653-5434,United States of America,9493804242.0,mountain_mikes_pizza
1000844595,Round Table Pizza,204 E 17th St,COSTA MESA,CA,92660,United States of America,9497228888.0,round_table_pizza
1000862337,Round Table Pizza,3953 Irvine Blvd,IRVINE,CA,92701,United States of America,7145089800.0,round_table_pizza
1000887805,Round Table Pizza,CSU Fullerton - Pub,FULLERTON,CA,92831,United States of America,7142787377.0,round_table_pizza
2000379695,Papa Murphy's Take 'N' Bake Pizza,3505 E Chapman Ave,ORANGE,CA,92869-3852,United States of America,7149979228.0,papa_murphys_take_n_bake_pizza
2000199953,Papa Murphy's Take 'N' Bake Pizza,119 E Yorba Linda Blvd,PLACENTIA,CA,92870-3328,United States of America,7145775740.0,papa_murphys_take_n_bake_pizza
1000882414,Round Table Pizza,813 N Main St,CORONA,CA,92880-1442,United States of America,9513714841.0,round_table_pizza
1000884354,Round Table Pizza,880 Arneill Rd,CAMARILLO,CA,93012,United States of America,8054848900.0,round_table_pizza
1000850163,Little Caesars Pizza,25 W Polk St,COALINGA,CA,93210-2366,United States of America,5599353393.0,little_caesars_pizza
2000326752,Round Table Pizza,2060 White Ln,BAKERSFIELD,CA,93307,United States of America,6613978888.0,round_table_pizza
2000199941,Papa Murphy's Take 'N' Bake Pizza,8200 Stockdale Hwy,BAKERSFIELD,CA,93311-1091,United States of America,6618327272.0,papa_murphys_take_n_bake_pizza
2000463492,Pizza Hut,1628 Howard Rd,MADERA,CA,93637-5180,United States of America,5596735171.0,pizza_hut
2000463477,Pizza Hut,4195 E Belmont Ave,FRESNO,CA,93702-2205,United States of America,5594853362.0,pizza_hut
2000463479,Pizza Hut,4951 N West Ave,FRESNO,CA,93705-0427,United States of America,5592268888.0,pizza_hut
2000155379,California Pizza Kitchen,5175 E Clinton Way,FRESNO,CA,93727,United States of America,5594521112.0,california_pizza_kitchen
2000051630,Mountain Mike's Pizza,931 W Alisal St,SALINAS,CA,93901-1128,United States of America,8314244540.0,mountain_mikes_pizza
1000893085,Papa Murphy's Take 'N' Bake Pizza,1602 El Camino Real,BELMONT,CA,94002-3957,United States of America,6505944877.0,papa_murphys_take_n_bake_pizza
1000828278,Little Caesars Pizza,1155 Veterans Blvd,REDWOOD CITY,CA,94063-2036,United States of America,6503645793.0,little_caesars_pizza
1000806923,Pizza Hut,1241 W El Camino Real,SUNNYVALE,CA,94087-1028,United States of America,6509688100.0,pizza_hut
2000463523,Pizza Hut,1406 Fillmore St,SAN FRANCISCO,CA,94115-4115,United States of America,4154742600.0,pizza_hut
2000378786,Papa Murphy's Take 'N' Bake Pizza,3850 El Camino Real,PALO ALTO,CA,94306-3316,United States of America,6503208000.0,papa_murphys_take_n_bake_pizza
1000863447,Little Caesars Pizza,4060 S El Camino Real,SAN MATEO,CA,94403-4574,United States of America,6503416161.0,little_caesars_pizza
2000463463,Pizza Hut,5435 Clayton Rd,CLAYTON,CA,94517-1075,United States of America,9256727800.0,pizza_hut
1000857275,Round Table Pizza,3203 Crow Canyon Pl,SAN RAMON,CA,94526,United States of America,9258661331.0,round_table_pizza
2000463470,Pizza Hut,5020 El Cerrito Plz,EL CERRITO,CA,94530-4018,United States of America,,pizza_hut
2000051745,Mountain Mike's Pizza,35760 Fremont Blvd,FREMONT,CA,94536-3421,United States of America,5107958177.0,mountain_mikes_pizza
1000877972,Round Table Pizza,7000 Coliseum Way,OAKLAND,CA,94621-1917,United States of America,5104302593.0,round_table_pizza
2000041292,California Pizza Kitchen,347 Corte Madera Town Ctr,CORTE MADERA,CA,94925-1207,United States of America,4159450401.0,california_pizza_kitchen
1000868695,Round Table Pizza,50 Belvedere Dr,MILL VALLEY,CA,94941-2418,United States of America,4153835100.0,round_table_pizza
2000405449,Round Table Pizza,20080 Stevens Creek Blvd,CUPERTINO,CA,95014-2386,United States of America,4082525000.0,round_table_pizza
2000463494,Pizza Hut,179 Ranch Dr,MILPITAS,CA,95035-5105,United States of America,,pizza_hut
2000329373,Papa John's Pizza,1061 S Green Valley Rd,WATSONVILLE,CA,95076-4164,United States of America,8317227220.0,papa_johns_pizza
2000051740,Mountain Mike's Pizza,418 W Capitol Expy,SAN JOSE,CA,95136-1303,United States of America,4082817337.0,mountain_mikes_pizza
2000051651,Mountain Mike's Pizza,1471 B St,LIVINGSTON,CA,95334-1400,United States of America,2093944837.0,mountain_mikes_pizza
2000053410,Pizza Factory,111 Boatyard Dr,FORT BRAGG,CA,95437-5709,United States of America,7079610580.0,pizza_factory
2000463475,Pizza Hut,455 N Fortuna Blvd,FORTUNA,CA,95540-2724,United States of America,7077251116.0,pizza_hut
2000242699,Little Caesars Pizza,3490 Palmer Dr,CAMERON PARK,CA,95682-8235,United States of America,5306776666.0,little_caesars_pizza
2000383605,Villa Fresh Italian Kitchen,Expreso De Diego Y Ave,BAYAMON,PR,961,United States of America,,villa_fresh_italian_kitchen
1000864775,Little Caesars Pizza,424 Dairy Rd,KAHULUI,HI,96732-2311,United States of America,8088717566.0,little_caesars_pizza
2000326769,Round Table Pizza,2291 Kaanapali Pkwy,LAHAINA,HI,96761-1906,United States of America,8086623700.0,round_table_pizza
1000886398,Little Caesars Pizza,94-825 Lumiaina St,WAIPAHU,HI,96797-5025,United States of America,8086768191.0,little_caesars_pizza
2000463717,Pizza Hut,7688 Kapahulu Ave,HONOLULU,HI,96816,United States of America,8087385900.0,pizza_hut
1000866712,Little Caesars Pizza,4561 Salt Lake Blvd,HONOLULU,HI,96818-3167,United States of America,8084866464.0,little_caesars_pizza
2000463735,Pizza Hut,Naval Station Box 6,PEARL HARBOR,HI,96860,United States of America,8084710841.0,pizza_hut
2000405445,Pizza Factory,1088 NW Civic Dr,GRESHAM,OR,97030-5516,United States of America,5034895682.0,pizza_factory
2000047804,Pizza Schmizza,31 S State St,LAKE OSWEGO,OR,97034-3929,United States of America,5036361577.0,pizza_schmizza
1000806321,Pizza Hut,11699 SE 82nd Ave,HAPPY VALLEY,OR,97086-7708,United States of America,5036521361.0,pizza_hut
1000847443,Round Table Pizza,2247 SE Tualatin Valley Hwy,HILLSBORO,OR,97124,United States of America,5036931067.0,round_table_pizza
2000242573,Little Caesars Pizza,12280 SW Scholls Ferry Rd,TIGARD,OR,97223-3354,United States of America,5035213300.0,little_caesars_pizza
2000047763,Schmizza Pub & Grub,405 NW Saltzman Rd,PORTLAND,OR,97229-6019,United States of America,5039243645.0,schmizza_pub_&_grub
1000962090,Sbarro,1825 SW Broadway,PORTLAND,OR,97232,United States of America,5037254554.0,sbarro
2000015353,Pizza Hut,11699 SE 82nd Ave,PORTLAND,OR,97266,United States of America,5036521361.0,pizza_hut
2000047730,Figaro's Pizza,4688 Portland Rd NE,SALEM,OR,97305-1657,United States of America,5033900234.0,figaros_pizza
2000047760,Figaro's Pizza,4768 Royal Ave,EUGENE,OR,97402-1755,United States of America,5413931010.0,figaros_pizza
1000840110,Round Table Pizza,17600 140th Ave NE,WOODINVILLE,WA,98011,United States of America,4254817117.0,round_table_pizza
2000173239,Little Caesars Pizza,3901 NE 4th St,RENTON,WA,98056-4100,United States of America,4252553130.0,little_caesars_pizza
1000879379,Round Table Pizza,730 NW Gilman Blvd,ISSAQUAH,WA,98075,United States of America,4253917117.0,round_table_pizza
2000173241,Little Caesars Pizza,9776 Holman Rd NW,SEATTLE,WA,98117-2000,United States of America,2067825005.0,little_caesars_pizza
1000898453,Papa Murphy's Take 'N' Bake Pizza,306 23rd Ave S,SEATTLE,WA,98144-2371,United States of America,2063257272.0,papa_murphys_take_n_bake_pizza
2000383590,Villa Fresh Italian Kitchen,"2Nd Piso, Space Vc04",CAROLINA,PR,983,United States of America,,villa_fresh_italian_kitchen
1000873403,Little Caesars Pizza,5738 N 26th St,TACOMA,WA,98407-2426,United States of America,2537599357.0,little_caesars_pizza
2000329621,Papa John's Pizza,550 Barnes Blvd,JOINT BASE LEWIS MCCHORD,WA,98438-1304,United States of America,2535881122.0,papa_johns_pizza
1000833937,Round Table Pizza,1401 Marvin Rd NE,LACEY,WA,98516-5710,United States of America,3604388844.0,round_table_pizza
1000848126,Little Caesars Pizza,2304 E Nob Hill Blvd,YAKIMA,WA,98901-9502,United States of America,5092488163.0,little_caesars_pizza
2000329536,Papa John's Pizza,2926 S Regal St,SPOKANE,WA,99223-4823,United States of America,5098680059.0,papa_johns_pizza
2000463383,Pizza Hut,2205 E Tudor Rd,ANCHORAGE,AK,99507,United States of America,9073372323.0,pizza_hut
