Store Company ID,Company Name,Address 1,City,State,Zip,Country,Phone,company_name
2000383582,Villa Fresh Italian Kitchen,1 Premium Outlets Blvd,BARCELONETA,PR,00617-2694,United States of America,,villa_fresh_italian_kitchen
1000814964,Pizza Hut,380 John Fitch Hwy,FITCHBURG,MA,01420-4502,United States of America,9783428555.0,pizza_hut
2000172727,Little Caesars Pizza,107 Drum Hill Rd,CHELMSFORD,MA,01824-1505,United States of America,9784551263.0,little_caesars_pizza
1000854690,Papa Gino's Pizzeria,30 Boston St,LYNN,MA,01904-2540,United States of America,7815938240.0,papa_ginos_pizzeria
1000956775,Papa John's Pizza,525 Washington St,STOUGHTON,MA,02072-4219,United States of America,7812975698.0,papa_johns_pizza
1000844614,Papa Gino's Pizzeria,204 N Beacon St,BRIGHTON,MA,02135-2027,United States of America,6172024250.0,papa_ginos_pizzeria
1000812947,Pizza Hut,282 Mystic Ave,MEDFORD,MA,02155-6305,United States of America,7813930404.0,pizza_hut
1000823549,Fox's Pizza Den,101 President Ave,FALL RIVER,MA,02720-2652,United States of America,5086760707.0,foxs_pizza_den
1000858284,D'Angelo Grilled Sandwiches,3321 S County Trl,EAST GREENWICH,RI,02818-1434,United States of America,4018842162.0,dangelo_grilled_sandwiches
1000832962,Godfather's Pizza,135 Dover Rd,CHICHESTER,NH,03258-6518,United States of America,6037983345.0,godfathers_pizza
1000875765,Godfather's Pizza,639 Lafayette Rd,HAMPTON,NH,03842-3350,United States of America,6039290596.0,godfathers_pizza
1000818845,Pizza Hut,680 Minot Ave,AUBURN,ME,04210-3922,United States of America,2077776688.0,pizza_hut
1000945713,Papa John's Pizza,270 Kennedy Memorial Dr,WATERVILLE,ME,04901-4536,United States of America,2078777272.0,papa_johns_pizza
1000824146,Godfather's Pizza,1021 US Highway 9 S,WOODBRIDGE,NJ,07095-1218,United States of America,7325960174.0,godfathers_pizza
1000875153,Godfather's Pizza,623 Spring St,ELIZABETH,NJ,07201-2019,United States of America,9083519284.0,godfathers_pizza
2000198798,Villa Fresh Italian Kitchen,578 Newark Ave,JERSEY CITY,NJ,07306-2302,United States of America,2017955001.0,villa_fresh_italian_kitchen
2000242674,Little Caesars Pizza,285 Broadway,PATERSON,NJ,07501-2029,United States of America,9737422100.0,little_caesars_pizza
1000814423,Pizza Hut,343 Matawan Rd,MATAWAN,NJ,07747-3903,United States of America,7325828881.0,pizza_hut
1000821350,Pizza Hut,941 State Route 35,MIDDLETOWN,NJ,07748-2601,United States of America,7326716800.0,pizza_hut
2000001531,Chuck E. Cheese's,310 State Route 36,WEST LONG BRANCH,NJ,07764-1027,United States of America,7325424300.0,chuck_e_cheeses
2000198769,Cafe Villa,465 Main St,CHATHAM,NJ,07928-2102,United States of America,9736350880.0,cafe_villa
2000198768,The Black Horse Tavern,1 W Main St,MENDHAM,NJ,07945-1220,United States of America,9735437300.0,the_black_horse_tavern
2000198776,Piattino,88 E Main St,MENDHAM,NJ,07945-1832,United States of America,9735430025.0,piattino
2000198788,The Office Beer Bar & Grill,3 South St,MORRISTOWN,NJ,07960-4135,United States of America,9732850220.0,the_office_beer_bar_&_grill
1000817434,Pizza Hut,547 Route 72 W,MANAHAWKIN,NJ,08050-2821,United States of America,6099788330.0,pizza_hut
1000909550,Domino's,1100 US Highway 130,ROBBINSVILLE,NJ,08691-1108,United States of America,6092080600.0,dominos
1000900519,Everything Yogurt Salad Cafe,400 Commons Way,BRIDGEWATER,NJ,08807-2829,United States of America,9085266072.0,everything_yogurt_salad_cafe
2000195584,Godfather's Pizza,1746 State Route 31,CLINTON,NJ,08809-2005,United States of America,9087136300.0,godfathers_pizza
1000881194,Godfather's Pizza,789 Amboy Ave,EDISON,NJ,08837-3212,United States of America,7327386516.0,godfathers_pizza
2000195585,Godfather's Pizza,119 W Pond Rd,HOPELAWN,NJ,08861-1541,United States of America,7324420377.0,godfathers_pizza
1000968750,Little Caesars Pizza,1501 Finnegan Ln,NORTH BRUNSWICK,NJ,08902-1061,United States of America,7322971133.0,little_caesars_pizza
2000393815,Sbarro,42 W 56Th St,NEW YORK,NY,10019,United States of America,,sbarro
2000242739,Little Caesars Pizza,525 W 207th St,NEW YORK,NY,10034-2645,United States of America,6466494136.0,little_caesars_pizza
1000941678,Papa John's Pizza,21 Maiden Ln,NEW YORK,NY,10038-4076,United States of America,2126087272.0,papa_johns_pizza
2000172903,Little Caesars Pizza,961 E 174th St,BRONX,NY,10460,United States of America,3475905566.0,little_caesars_pizza
2000172898,Little Caesars Pizza,5625 Broadway,BRONX,NY,10463,United States of America,7185435431.0,little_caesars_pizza
1000815088,Pizza Hut,39 Marble Ave,PLEASANTVILLE,NY,10570-2918,United States of America,9147696136.0,pizza_hut
1000916631,Domino's,2528 Jackson Ave,LONG ISLAND CITY,NY,11101-4317,United States of America,7187865800.0,dominos
2000393659,Little Caesars Pizza,2797 86Th St,BROOKLYN,NY,11223-4433,United States of America,7182652500.0,little_caesars_pizza
1000969817,Bananas Ultimate Juice Bar,5371 Kings Plz,BROOKLYN,NY,11234-5220,United States of America,7182583828.0,bananas_ultimate_juice_bar
1000969818,Everything Yogurt Salad Cafe,5371 Kings Plz,BROOKLYN,NY,11234-5220,United States of America,7182583828.0,everything_yogurt_salad_cafe
1000806390,Pizza Hut,1180 Grand Ave,NORTH BALDWIN,NY,11510-1113,United States of America,5164894500.0,pizza_hut
1000904213,Green Leaf's Grill,630 Old Country Rd,GARDEN CITY,NY,11530,United States of America,5167468735.0,green_leafs_grill
1000904239,Bananas Ultimate Juice Bar,630 Old Country Rd,GARDEN CITY,NY,11530,United States of America,5167468735.0,bananas_ultimate_juice_bar
1000855950,Godfather's Pizza,3072 Veterans Memorial Hwy,BOHEMIA,NY,11716-1004,United States of America,6315880495.0,godfathers_pizza
1000853633,Godfather's Pizza,285 Wading River Rd,MANORVILLE,NY,11949-3433,United States of America,6313955017.0,godfathers_pizza
2000329635,Papa John's Pizza,60 Northern Blvd,SHIRLEY,NY,11967,United States of America,6317727272.0,papa_johns_pizza
1000873964,Godfather's Pizza,601 Saratoga St,COHOES,NY,12047-4646,United States of America,5182355741.0,godfathers_pizza
1000836200,Godfather's Pizza,1513 Crescent Rd,CLIFTON PARK,NY,12065-7803,United States of America,5183480690.0,godfathers_pizza
1000853627,Godfather's Pizza,285 N Comrie Ave,JOHNSTOWN,NY,12095-1501,United States of America,5187626214.0,godfathers_pizza
1000810335,Pizza Hut,20 Delatour Rd,WATERVLIET,NY,12189-2393,United States of America,5187836363.0,pizza_hut
1000888274,Godfather's Pizza,42598 New York 28,MARGARETVILLE,NY,12455,United States of America,8455861736.0,godfathers_pizza
2000195586,Godfather's Pizza,2599 Route 9,FISHKILL,NY,12524,United States of America,8458970646.0,godfathers_pizza
2000195587,Godfather's Pizza,491 State Route 299,HIGHLAND,NY,12528-2834,United States of America,8456912128.0,godfathers_pizza
1000912734,Domino's,1582 Route 9,WAPPINGERS FALLS,NY,12590,United States of America,8452970181.0,dominos
1000880293,Godfather's Pizza,756 Quaker Rd,QUEENSBURY,NY,12804-3960,United States of America,5187610310.0,godfathers_pizza
1000877149,Godfather's Pizza,68 North St,AUBURN,NY,13021-2502,United States of America,3152539118.0,godfathers_pizza
1000844860,Godfather's Pizza,2053 W Genesee Tpke,CAMILLUS,NY,13031-9627,United States of America,3156728803.0,godfathers_pizza
1000867809,Godfather's Pizza,4803 W Taft Rd,LIVERPOOL,NY,13088-4809,United States of America,3154537345.0,godfathers_pizza
1000825714,Godfather's Pizza,1075 7th North St,LIVERPOOL,NY,13088-6104,United States of America,3154610448.0,godfathers_pizza
1000828529,Godfather's Pizza,117 State Highway 7,BAINBRIDGE,NY,13733-2305,United States of America,6075639616.0,godfathers_pizza
1000878504,Godfather's Pizza,709 Harry L Dr,JOHNSON CITY,NY,13790-1117,United States of America,6077981653.0,godfathers_pizza
1000881012,Godfather's Pizza,781 State Route 7,PORT CRANE,NY,13833-2134,United States of America,6076482700.0,godfathers_pizza
1000824975,Godfather's Pizza,105 Delaware St,WALTON,NY,13856,United States of America,6078654080.0,godfathers_pizza
1000837948,Godfather's Pizza,162 Lakeshore Dr,CANANDAIGUA,NY,14424-2310,United States of America,5853939680.0,godfathers_pizza
1000865571,Godfather's Pizza,4371 Buffalo Rd,NORTH CHILI,NY,14514-1233,United States of America,5855945923.0,godfathers_pizza
1000884028,D'Angelo Grilled Sandwiches,850 Merriam Ave,LEOMINSTER,MA,1453,United States of America,9784665798.0,dangelo_grilled_sandwiches
1000842839,Godfather's Pizza,1954 Lyell Ave,ROCHESTER,NY,14606,United States of America,5852543345.0,godfathers_pizza
2000249447,Godfather's Pizza,2328 Chili Ave,ROCHESTER,NY,14624-3326,United States of America,5852476750.0,godfathers_pizza
2000329658,Papa John's Pizza,709 W 3rd St,JAMESTOWN,NY,14701-4706,United States of America,7164830300.0,papa_johns_pizza
1000843365,Fox's Pizza Den,20 S Main St,PORTVILLE,NY,14770,United States of America,7169332300.0,foxs_pizza_den
1000831218,Fox's Pizza Den,84 Wheaton Rd,ERIN,NY,14838-9508,United States of America,6077393369.0,foxs_pizza_den
1000860653,Godfather's Pizza,366 Elmira Rd,ITHACA,NY,14850-5115,United States of America,6072734073.0,godfathers_pizza
1000851935,Little Caesars Pizza,2660 Constitution Blvd,BEAVER FALLS,PA,15010-1276,United States of America,7248439485.0,little_caesars_pizza
1000901574,Villa Fresh Italian Kitchen,449 Pittsburgh Mills Cir,TARENTUM,PA,15084-3833,United States of America,7242744215.0,villa_fresh_italian_kitchen
1000958616,Sbarro,213 5th Ave,PITTSBURGH,PA,15122,United States of America,4122817755.0,sbarro
2000060547,Vocelli Pizza,2644 Mosside Blvd,MONROEVILLE,PA,15146-3362,United States of America,4128565000.0,vocelli_pizza
1000940438,Sbarro,2 Ppg Pl,PITTSBURGH,PA,15222-5402,United States of America,4122812070.0,sbarro
1000888664,Everything Yogurt Salad Cafe,100 Hill St,PITTSBURGH,PA,15223-1602,United States of America,4128541130.0,everything_yogurt_salad_cafe
2000173037,Little Caesars Pizza,250 Mount Lebanon Blvd,PITTSBURGH,PA,15234,United States of America,4122079730.0,little_caesars_pizza
1000863320,Little Caesars Pizza,4041 Washington Rd,MCMURRAY,PA,15317-2520,United States of America,7249424930.0,little_caesars_pizza
1000907721,Villa Fresh Italian Kitchen,5256 State Route 30,GREENSBURG,PA,15601,United States of America,7248368805.0,villa_fresh_italian_kitchen
1000806702,Pizza Hut,12120 State Route 30,IRWIN,PA,15642-5840,United States of America,7248630300.0,pizza_hut
1000821921,Pizza Hut,Southtowne Plz,INDIANA,PA,15701,United States of America,7244654286.0,pizza_hut
1000871627,Fox's Pizza Den,545 Market St,JOHNSONBURG,PA,15845-1239,United States of America,8149652551.0,foxs_pizza_den
1000823415,Chuck E. Cheese's,101 Clearview Cir,BUTLER,PA,16001,United States of America,7242824659.0,chuck_e_cheeses
1000837184,Fox's Pizza Den,314 Main St,ELDRED,PA,16731-4628,United States of America,8142259990.0,foxs_pizza_den
2000144477,Fox's Pizza Den,982 Peters Mountain Rd,DAUPHIN,PA,17018-9688,United States of America,7179213697.0,foxs_pizza_den
1000822299,Godfather's Pizza,1 Lickdale Rd,JONESTOWN,PA,17038-8713,United States of America,7178652142.0,godfathers_pizza
1000914466,Domino's,2 W Allen St,MECHANICSBURG,PA,17055-6211,United States of America,7176918111.0,dominos
1000853416,Fox's Pizza Den,2819 Willow Street Pike N,WILLOW STREET,PA,17584,United States of America,7174643599.0,foxs_pizza_den
2000242638,Little Caesars Pizza,1963 Fruitville Pike,LANCASTER,PA,17601-3915,United States of America,7175695814.0,little_caesars_pizza
1000868651,Godfather's Pizza,5 Hartman Bridge Rd,LANCASTER,PA,17602-1411,United States of America,7172950658.0,godfathers_pizza
2000145376,Vocelli Pizza,96 S Courtland St,EAST STROUDSBURG,PA,18301-2827,United States of America,5704241949.0,vocelli_pizza
2000329592,Papa John's Pizza,459 W Butler Ave,CHALFONT,PA,18914-2227,United States of America,2158223300.0,papa_johns_pizza
2000329659,Papa John's Pizza,717 S West End Blvd,QUAKERTOWN,PA,18951-2613,United States of America,2155297992.0,papa_johns_pizza
2000393690,Little Caesars Pizza,704 Route 13,SOUDERTON,PA,18964,United States of America,2157217300.0,little_caesars_pizza
1000923687,Domino's,1268 Broadway,SAUGUS,MA,1906,United States of America,7812313031.0,dominos
1000936540,Papa John's Pizza,1555 E Wadsworth Ave,PHILADELPHIA,PA,19150-1617,United States of America,2152421199.0,papa_johns_pizza
1000820035,Pizza Hut,8001 Castor Ave,PHILADELPHIA,PA,19152-2701,United States of America,2155370888.0,pizza_hut
2000025185,Domino's,148 Painters Xing,WEST CHESTER,PA,19382-8310,United States of America,6105589088.0,dominos
1000968900,Green Leaf's Grill,18 W Lightcap Rd,POTTSTOWN,PA,19464,United States of America,6107054896.0,green_leafs_grill
1000893957,South Philly Steaks & Fries,18 W Lightcap Rd,POTTSTOWN,PA,19464-7827,United States of America,6107054896.0,south_philly_steaks_&_fries
1000855675,Little Caesars Pizza,3045 N 5th Street Hwy,READING,PA,19605,United States of America,6109219859.0,little_caesars_pizza
1000814537,Pizza Hut,3501 Pottsville Pike,READING,PA,19605-1717,United States of America,6109212121.0,pizza_hut
1000891323,Bananas Ultimate Juice Bar,1300 Pennsylvania Ave NW,WASHINGTON,DC,20004,United States of America,2022897966.0,bananas_ultimate_juice_bar
1000891325,Everything Yogurt Salad Cafe,1300 Pennsylvania Ave NW,WASHINGTON,DC,20004-3004,United States of America,2022897966.0,everything_yogurt_salad_cafe
2000060498,Vocelli Pizza,5663 Stone Rd,CENTREVILLE,VA,20120-1618,United States of America,7038020100.0,vocelli_pizza
2000345626,Pie Five Pizza,47010 Community Plz,STERLING,VA,20164-1889,United States of America,5715264886.0,pie_five_pizza
1000908151,Villa Pizza,Washington Dulles Int'l Airport,DULLES,VA,20166,United States of America,7035725120.0,villa_pizza
2000198765,Bananas Ultimate Juice Bar,Washington Dulles International Airport,ARLINGTON,VA,20166,United States of America,2483901893.0,bananas_ultimate_juice_bar
2000303528,Green Leaf's Grill,Dulles Airport,ARLINGTON,VA,20166,United States of America,2483901893.0,green_leafs_grill
2000060530,Vocelli Pizza,13079 Worldgate Dr,HERNDON,VA,20170-4374,United States of America,7034810444.0,vocelli_pizza
2000334965,Pie Five Pizza,927 Washington Blvd S,LAUREL,MD,20707-4811,United States of America,2402944604.0,pie_five_pizza
1000964656,Papa John's Pizza,8020 Bayside Rd,CHESAPEAKE BEACH,MD,20732-3116,United States of America,4102571700.0,papa_johns_pizza
1000906461,Villa Fresh Italian Kitchen,825 Dulaney  Rd,TOWSON,MD,21204,United States of America,4102968128.0,villa_fresh_italian_kitchen
1000906479,Bananas Ultimate Juice Bar,825 Delaney Valley Rd,TOWSON,MD,21204,United States of America,4103397699.0,bananas_ultimate_juice_bar
2000182609,Sbarro,Boston Logan Int Airport,BOSTON,MA,2128,United States of America,6175610295.0,sbarro
2000198793,Villa Fresh Italian Kitchen,300 Terminal E,BOSTON,MA,2128,United States of America,6175681900.0,villa_fresh_italian_kitchen
1000868740,Fox's Pizza Den,50 N McCain Dr,FREDERICK,MD,21702-3967,United States of America,3012282300.0,foxs_pizza_den
1000838143,Fox's Pizza Den,264 N Pennsylvania Ave,HANCOCK,MD,21750-1013,United States of America,3016787000.0,foxs_pizza_den
1000807346,Pizza Hut,13117 Coastal Hwy,OCEAN CITY,MD,21842-4623,United States of America,4102503288.0,pizza_hut
1000821460,Pizza Hut,9581 Braddock Rd,FAIRFAX,VA,22032-2539,United States of America,7033231621.0,pizza_hut
2000393779,Little Caesars Pizza,5175 Lee Hwy,ARLINGTON,VA,22207-1603,United States of America,5713354470.0,little_caesars_pizza
1000819736,Pizza Hut,7611 Richmond Hwy,ALEXANDRIA,VA,22306,United States of America,7037650101.0,pizza_hut
1000875238,Fox's Pizza Den,625 Mount Clinton Pike,HARRISONBURG,VA,22802-2547,United States of America,5404323697.0,foxs_pizza_den
1000916060,Domino's,2335 Seminole Ln,CHARLOTTESVILLE,VA,22901-8303,United States of America,4349731243.0,dominos
1000819250,Pizza Hut,7114 Mechanicsville Tpke,MECHANICSVILLE,VA,23111-3628,United States of America,8047032010.0,pizza_hut
2000182591,Sbarro,9220 Old Stage Rd,TOANO,VA,23168-9423,United States of America,7575669716.0,sbarro
1000813926,Pizza Hut,3200 S Crater Rd,PETERSBURG,VA,23805-9217,United States of America,8048613519.0,pizza_hut
2000385648,Pizza Inn,Us Hwy 58 & Interstate Hwy 77,HILLSVILLE,VA,24343,United States of America,2767282799.0,pizza_inn
1000885789,Little Caesars Pizza,919 S Craig Ave,COVINGTON,VA,24426-1954,United States of America,5409658888.0,little_caesars_pizza
2000254308,Fox's Pizza Den,4327 Boonsboro Rd,LYNCHBURG,VA,24503,United States of America,4343843636.0,foxs_pizza_den
2000254307,Fox's Pizza Den,4046 Abbs Valley Rd,BLUEFIELD,VA,24605-8758,United States of America,2769459274.0,foxs_pizza_den
1000821856,Pizza Hut,2004 Jerry W Hwy,WILKINSON,WV,25653,United States of America,3047522127.0,pizza_hut
2000030966,Pizza Hut,Route 445,WILKINSON,WV,25653,United States of America,3047522127.0,pizza_hut
2000015877,Pizza Hut,730 Linden Dr,EDEN,NC,27288-5372,United States of America,3366233333.0,pizza_hut
1000912285,Domino's,150 Forest Hill Rd,LEXINGTON,NC,27295-2008,United States of America,3362387272.0,dominos
1000915547,Domino's,2208 c Fleming Rd,GREENSBORO,NC,27410,United States of America,3366651744.0,dominos
1000821563,Pizza Hut,982 High House Rd,CARY,NC,27513-3575,United States of America,9194699991.0,pizza_hut
2000132300,Pizza Inn,3906 N Duke St,DURHAM,NC,27704-1730,United States of America,9192946700.0,pizza_inn
2000172841,Little Caesars Pizza,4900 NC Highway 55,DURHAM,NC,27713-7805,United States of America,9193617000.0,little_caesars_pizza
2000383599,Salsarita's,8111 Concord Mills Blvd,CONCORD,NC,28027,United States of America,7049799015.0,salsaritas
2000383600,South Philly Steaks & Fries,8111 Concord Mills Blvd,CONCORD,NC,28027,United States of America,7049799015.0,south_philly_steaks_&_fries
2000383601,Villa Fresh Italian Kitchen,8111 Concord Mills Blvd,CONCORD,NC,28027,United States of America,7049799015.0,villa_fresh_italian_kitchen
1000896795,Villa Fresh Italian Kitchen,246 N New Hope Rd,GASTONIA,NC,28054,United States of America,7048698586.0,villa_fresh_italian_kitchen
1000860145,Little Caesars Pizza,3580 E Franklin Blvd,GASTONIA,NC,28056-6297,United States of America,7048689271.0,little_caesars_pizza
2000340811,Papa Murphy's Take 'N' Bake Pizza,9818 Gilead Rd,HUNTERSVILLE,NC,28078-7511,United States of America,7049225900.0,papa_murphys_take_n_bake_pizza
2000199565,The Original Italian Pie,1608 East Blvd,CHARLOTTE,NC,28203-5822,United States of America,7043358167.0,the_original_italian_pie
1000810951,Pizza Hut,606 E 4th Ave,RED SPRINGS,NC,28377-1667,United States of America,9108432053.0,pizza_hut
1000851318,Pizza Inn,2600 Highway 378,GILBERT,SC,29054-9654,United States of America,8038926772.0,pizza_inn
1000882498,Godfather's Pizza,815 N Lake Dr,LEXINGTON,SC,29072-2909,United States of America,8038089750.0,godfathers_pizza
2000216137,Domino's,1688 Neeses Hwy,ORANGEBURG,SC,29115-8737,United States of America,8035343933.0,dominos
1000834179,CiCi's Pizza,141 Pelham Dr,COLUMBIA,SC,29209-1398,United States of America,8037768900.0,cicis_pizza
1000839429,Godfather's Pizza,1714 Broad River Rd,COLUMBIA,SC,29210-7306,United States of America,8037315350.0,godfathers_pizza
2000329456,Papa John's Pizza,1744 Highway 14 E,LANDRUM,SC,29356-9727,United States of America,8644573005.0,papa_johns_pizza
1000884728,Godfather's Pizza,8976 University Blvd,NORTH CHARLESTON,SC,29406-9115,United States of America,8437978568.0,godfathers_pizza
1000865018,Godfather's Pizza,429 Saint James Ave,GOOSE CREEK,SC,29445-2701,United States of America,8437978393.0,godfathers_pizza
2000010013,Domino's,2722 Highway 15 N,HARLEYVILLE,SC,29448-3443,United States of America,8436369936.0,dominos
1000860468,Godfather's Pizza,3622 Savannah Hwy,JOHNS ISLAND,SC,29455-7936,United States of America,8435564207.0,godfathers_pizza
1000835852,CiCi's Pizza,1501 N Highway 17,MOUNT PLEASANT,SC,29464-3342,United States of America,8432162122.0,cicis_pizza
1000854077,Godfather's Pizza,2908 W 5th North St,SUMMERVILLE,SC,29483-9606,United States of America,8438730286.0,godfathers_pizza
1000836297,Godfather's Pizza,1518 N Main St,SUMMERVILLE,SC,29486-7817,United States of America,8438737212.0,godfathers_pizza
2000198813,Villa Fresh Italian Kitchen,10835 Kings Rd,MYRTLE BEACH,SC,29572-6078,United States of America,8434491042.0,villa_fresh_italian_kitchen
2000353351,Domino's,272 Whaley Dr,GREENVILLE,SC,29609,United States of America,6622525252.0,dominos
2000254304,Fox's Pizza Den,2435 E North St,GREENVILLE,SC,29615,United States of America,8642445559.0,foxs_pizza_den
2000015692,Pizza Hut,336 W Butler Rd,MAULDIN,SC,29662-2538,United States of America,8642881600.0,pizza_hut
2000216101,Domino's,131 Independence Blvd,HARDEEVILLE,SC,29927,United States of America,8437845030.0,dominos
2000303522,South Philly Steaks & Fries,5900 Sugarloaf Pkwy,LAWRENCEVILLE,GA,30043,United States of America,6788470253.0,south_philly_steaks_&_fries
2000303523,Villa Fresh Italian Kitchen,5900 Sugarloaf Pkwy,LAWRENCEVILLE,GA,30043,United States of America,6788470255.0,villa_fresh_italian_kitchen
2000037243,Hungry Howie's Pizza & Subs,745 Beaver Ruin Rd NW,LILBURN,GA,30047-3442,United States of America,7702799500.0,hungry_howies_pizza_&_subs
2000390372,Hungry Howie's Pizza & Subs,400 Village Green Cir Se,SMYRNA,GA,30080,United States of America,6783091112.0,hungry_howies_pizza_&_subs
1000819777,Pizza Hut,7681 Southlake Pkwy,JONESBORO,GA,30236-2460,United States of America,7704712626.0,pizza_hut
1000927883,Papa John's Pizza,10 Northside Dr NW,ATLANTA,GA,30314-4768,United States of America,4045247272.0,papa_johns_pizza
1000903877,Hungry Howie's Pizza & Subs,607 Brannen St,STATESBORO,GA,30458-2025,United States of America,9127646565.0,hungry_howies_pizza_&_subs
2000015633,Pizza Hut,272 E Franklin St,HARTWELL,GA,30643-2294,United States of America,9363483705.0,pizza_hut
1000918945,Domino's,337 S Belair Rd,MARTINEZ,GA,30907-8865,United States of America,7068636211.0,dominos
1000922585,Domino's,538 Oak St,EASTMAN,GA,31023-9105,United States of America,4784481000.0,dominos
2000025133,Domino's,205 Commercial Hts,FORT VALLEY,GA,31030-3362,United States of America,4788221112.0,dominos
1000921102,Domino's,4437 Columbus Rd,MACON,GA,31206-8711,United States of America,4784779575.0,dominos
1000923526,Domino's,610 Shurling Dr,MACON,GA,31211,United States of America,4787416777.0,dominos
1000918031,Domino's,3045 Hartley Bridge Rd,MACON,GA,31216-5702,United States of America,4787858100.0,dominos
2000334432,Villa Fresh Italian Kitchen,7804 Abercorn St,SAVANNAH,GA,31406,United States of America,9123544440.0,villa_fresh_italian_kitchen
2000383598,Villa Fresh Italian Kitchen,7804 Abercorn St,SAVANNAH,GA,31406,United States of America,,villa_fresh_italian_kitchen
1000919997,Domino's,395 W Parker St,BAXLEY,GA,31513,United States of America,9123661800.0,dominos
2000329545,Papa John's Pizza,32 Midway Sq,SAINT SIMONS ISLAND,GA,31522-6701,United States of America,9122684684.0,papa_johns_pizza
1000807573,Pizza Hut,1351 E Boone Rd,KINGSLAND,GA,31548,United States of America,9127292424.0,pizza_hut
2000015609,Pizza Hut,25 Doc Darbyshire Rd,MOULTRIE,GA,31768-4023,United States of America,2299852513.0,pizza_hut
2000329386,Papa John's Pizza,1124 S 14th St,FERNANDINA BEACH,FL,32034-2920,United States of America,9044918689.0,papa_johns_pizza
1000836740,Godfather's Pizza,1545 Blanding Blvd,MIDDLEBURG,FL,32068-4091,United States of America,9042823635.0,godfathers_pizza
1000920563,Domino's,4158 County Road 218,MIDDLEBURG,FL,32068-4847,United States of America,9048280234.0,dominos
2000144342,CiCi's Pizza,115 Jenkins St,SAINT AUGUSTINE,FL,32086-5167,United States of America,9044297787.0,cicis_pizza
1000850436,Godfather's Pizza,2505 US Highway 1 S,SAINT AUGUSTINE,FL,32086-6190,United States of America,9047974522.0,godfathers_pizza
1000835664,Godfather's Pizza,150 Hampton Point Dr,SAINT AUGUSTINE,FL,32092-3063,United States of America,9042302031.0,godfathers_pizza
1000926885,Domino's,933 Beville Rd,SOUTH DAYTONA,FL,32119-1756,United States of America,3867564440.0,dominos
1000877939,Godfather's Pizza,700 S Nova Rd,ORMOND BEACH,FL,32174-7333,United States of America,3866710447.0,godfathers_pizza
1000865320,Godfather's Pizza,4324 Atlantic Blvd,JACKSONVILLE,FL,32207-2043,United States of America,9043987800.0,godfathers_pizza
1000872452,Godfather's Pizza,5642 Bowden Rd,JACKSONVILLE,FL,32216-6132,United States of America,9044482700.0,godfathers_pizza
1000882115,Godfather's Pizza,8079 Ramona Blvd W,JACKSONVILLE,FL,32221-3306,United States of America,9046959553.0,godfathers_pizza
1000886885,Godfather's Pizza,9561 Argyle Forest Blvd,JACKSONVILLE,FL,32222,United States of America,9043177446.0,godfathers_pizza
1000833243,Godfather's Pizza,13637 Beach Blvd,JACKSONVILLE,FL,32224-1205,United States of America,9042239390.0,godfathers_pizza
1000878627,Godfather's Pizza,7106 Blanding Blvd,JACKSONVILLE,FL,32244-4502,United States of America,9047717882.0,godfathers_pizza
2000047752,Figaro's Pizza,6703 Pine Forest Rd,PENSACOLA,FL,32526,United States of America,8509441818.0,figaros_pizza
1000887537,Godfather's Pizza,246 Eglin Pkwy NE,FORT WALTON BEACH,FL,32547-2878,United States of America,8502444841.0,godfathers_pizza
1000857075,Godfather's Pizza,3190 S US Highway 17/92,CASSELBERRY,FL,32707-2904,United States of America,4072659387.0,godfathers_pizza
1000882509,Godfather's Pizza,815 State Road 436,CASSELBERRY,FL,32707-5366,United States of America,4073391058.0,godfathers_pizza
1000835839,Godfather's Pizza,1501 E State Road 434,WINTER SPRINGS,FL,32708-5630,United States of America,4079773088.0,godfathers_pizza
1000851588,Godfather's Pizza,2617 W Fairbanks Ave,WINTER PARK,FL,32789-3312,United States of America,4076281161.0,godfathers_pizza
1000861398,Godfather's Pizza,38 S Goldenrod Rd,ORLANDO,FL,32807-8214,United States of America,4072774166.0,godfathers_pizza
1000871931,Godfather's Pizza,5511 Clarcona Ocoee Rd,ORLANDO,FL,32810-4057,United States of America,4072946484.0,godfathers_pizza
1000851906,Godfather's Pizza,2655 S Kirkman Rd,ORLANDO,FL,32811-3200,United States of America,4072953931.0,godfathers_pizza
2000334964,Pie Five Pizza,11325 University Blvd,ORLANDO,FL,32817,United States of America,4072738772.0,pie_five_pizza
1000827696,Godfather's Pizza,11300 University Blvd,ORLANDO,FL,32817-2107,United States of America,4073841950.0,godfathers_pizza
1000854032,Godfather's Pizza,2902 W Sand Lake Rd,ORLANDO,FL,32819-9024,United States of America,4072640707.0,godfathers_pizza
1000871298,Godfather's Pizza,5365 International Dr,ORLANDO,FL,32819-9428,United States of America,4073455088.0,godfathers_pizza
1000902844,Villa Pizza,5250 International Dr,ORLANDO,FL,32819-9468,United States of America,4073636733.0,villa_pizza
1000881271,Godfather's Pizza,7900 World Center Dr,ORLANDO,FL,32821-5414,United States of America,4072390098.0,godfathers_pizza
2000333960,CiCi's Pizza,8788 Vineland Ave,ORLANDO,FL,32821-6504,United States of America,4078288814.0,cicis_pizza
1000965732,Sbarro,9029 Airport Blvd E,ORLANDO,FL,32827,United States of America,4078253270.0,sbarro
1000823172,Godfather's Pizza,10024 Lee Vista Blvd,ORLANDO,FL,32829-8030,United States of America,4076582670.0,godfathers_pizza
1000832767,Godfather's Pizza,13352 S Orange Blossom Trl,ORLANDO,FL,32837,United States of America,4078545055.0,godfathers_pizza
1000886790,Godfather's Pizza,9520 S Orange Blossom Trl,ORLANDO,FL,32837-8306,United States of America,4072405510.0,godfathers_pizza
1000862781,Godfather's Pizza,4000 N Highway 1,COCOA,FL,32927-5933,United States of America,3216321281.0,godfathers_pizza
1000881671,Godfather's Pizza,800 US Highway 1,VERO BEACH,FL,32960-5948,United States of America,7727943587.0,godfathers_pizza
1000880269,Godfather's Pizza,7550 NW 186th St,HIALEAH,FL,33015-2928,United States of America,3058212386.0,godfathers_pizza
1000902216,Cozzoli's Pizzeria,4961 Sheridan St,HOLLYWOOD,FL,33021-2830,United States of America,9549893033.0,cozzolis_pizzeria
1000830722,Godfather's Pizza,12461 Miramar Pkwy,MIRAMAR,FL,33027-2900,United States of America,9543221550.0,godfathers_pizza
1000842921,Godfather's Pizza,19600 Pines Blvd,PEMBROKE PINES,FL,33029-1316,United States of America,9544381029.0,godfathers_pizza
2000195582,Godfather's Pizza,24435 SW 112th Ct,HOMESTEAD,FL,33032,United States of America,3052572052.0,godfathers_pizza
1000843134,Godfather's Pizza,19880 NW 27th Ave,OPA LOCKA,FL,33056-2519,United States of America,3056289883.0,godfathers_pizza
1000912657,Domino's,1553 E Sample Rd,POMPANO BEACH,FL,33064-6248,United States of America,9549418900.0,dominos
1000883059,Godfather's Pizza,8300 W McNab Rd,NORTH LAUDERDALE,FL,33068-4165,United States of America,9547215990.0,godfathers_pizza
1000848701,Godfather's Pizza,2350 N Powerline Rd,POMPANO BEACH,FL,33069-1211,United States of America,9549711120.0,godfathers_pizza
1000970332,Bananas Ultimate Juice Bar,9469 W Atlantic Blvd,CORAL SPRINGS,FL,33071,United States of America,9543457448.0,bananas_ultimate_juice_bar
1000864197,Godfather's Pizza,4150 N State Road 7,CORAL SPRINGS,FL,33073-3801,United States of America,9547533223.0,godfathers_pizza
1000907997,Villa Pizza,2100 NW 42nd Ave,MIAMI,FL,33122,United States of America,3058694616.0,villa_pizza
2000195567,Godfather's Pizza,1508 79th Street Cswy,NORTH BAY VILLAGE,FL,33141-4131,United States of America,3058686908.0,godfathers_pizza
1000882637,Godfather's Pizza,8190 Bird Rd,MIAMI,FL,33155-6745,United States of America,3055530010.0,godfathers_pizza
1000905640,Villa Fresh Italian Kitchen,7501 N Kendall Dr,MIAMI,FL,33156-7724,United States of America,3056659170.0,villa_fresh_italian_kitchen
1000825550,Godfather's Pizza,10675 NW 41st St,DORAL,FL,33178-4288,United States of America,3055998662.0,godfathers_pizza
1000827930,Godfather's Pizza,11401 Biscayne Blvd,NORTH MIAMI,FL,33181-3410,United States of America,3059818990.0,godfathers_pizza
2000390377,Hungry Howie's Pizza & Subs,4370 N Federal Hwy,FT LAUDERDALE,FL,33308-5208,United States of America,9549004068.0,hungry_howies_pizza_&_subs
1000853716,Godfather's Pizza,2860 Davie Rd,DAVIE,FL,33314-1607,United States of America,9545834764.0,godfathers_pizza
2000010544,Villa Fresh Italian Kitchen,320 Terminal Dr,FORT LAUDERDALE,FL,33315,United States of America,9546057792.0,villa_fresh_italian_kitchen
1000877339,Godfather's Pizza,6840 Okeechobee Blvd,WEST PALM BEACH,FL,33411-2510,United States of America,5614780834.0,godfathers_pizza
1000873562,Godfather's Pizza,5975 S State Road 7,LAKE WORTH,FL,33449-5429,United States of America,5616415883.0,godfathers_pizza
1000862388,Godfather's Pizza,3965 S Congress Ave,LAKE WORTH,FL,33461-4107,United States of America,5614394477.0,godfathers_pizza
1000885686,Godfather's Pizza,915 Providence Rd,BRANDON,FL,33511-8843,United States of America,8136542947.0,godfathers_pizza
1000853460,Godfather's Pizza,28232 Wesley Chapel Blvd,ZEPHYRHILLS,FL,33543,United States of America,8139919608.0,godfathers_pizza
1000833063,Godfather's Pizza,13508 State Road 54,ODESSA,FL,33556-3526,United States of America,8139200868.0,godfathers_pizza
2000406591,Green Leaf's Grill,2398 Grand Cypress Dr,LUTZ,FL,33559,United States of America,,green_leafs_grill
2000406804,South Philly Steaks & Fries,2398 Grand Cypress Dr,LUTZ,FL,33559,United States of America,,south_philly_steaks_&_fries
2000406876,Villa Fresh Italian Kitchen,2398 Grand Cypress Dr,LUTZ,FL,33559,United States of America,8139491135.0,villa_fresh_italian_kitchen
1000828425,Godfather's Pizza,11615 Boyette Rd,RIVERVIEW,FL,33569-5531,United States of America,8136714949.0,godfathers_pizza
1000824630,Godfather's Pizza,10320 Big Bend Rd,RIVERVIEW,FL,33578,United States of America,8136729989.0,godfathers_pizza
1000845487,Godfather's Pizza,2101 E Brandon Blvd,VALRICO,FL,33594,United States of America,8136622798.0,godfathers_pizza
1000858295,Godfather's Pizza,3323 Lithia Pinecrest Rd,VALRICO,FL,33596,United States of America,8136434505.0,godfathers_pizza
1000872308,Godfather's Pizza,5602 S Dale Mabry Hwy,TAMPA,FL,33611-4228,United States of America,8138358260.0,godfathers_pizza
1000822961,Godfather's Pizza,10001 N Florida Ave,TAMPA,FL,33612-7410,United States of America,8139317400.0,godfathers_pizza
1000835495,Godfather's Pizza,14903 Bruce B Downs Blvd,TAMPA,FL,33613-2860,United States of America,8139792863.0,godfathers_pizza
1000875602,Godfather's Pizza,6332 N Dale Mabry Hwy,TAMPA,FL,33614-3987,United States of America,8132496450.0,godfathers_pizza
1000902027,Hungry Howie's Pizza & Subs,4810 E Busch Blvd,TAMPA,FL,33617-6020,United States of America,8139882222.0,hungry_howies_pizza_&_subs
2000195583,Godfather's Pizza,5149 E Adamo Dr,TAMPA,FL,33619-3214,United States of America,8132483420.0,godfathers_pizza
2000172513,Little Caesars Pizza,1155 S Dale Mabry Hwy,TAMPA,FL,33629-5020,United States of America,8132869827.0,little_caesars_pizza
1000827989,Godfather's Pizza,11425 W Hillsborough Ave,TAMPA,FL,33635-9610,United States of America,8138141590.0,godfathers_pizza
1000834708,Godfather's Pizza,14361 Gulf Blvd,MADEIRA BEACH,FL,33708-2238,United States of America,7273986853.0,godfathers_pizza
1000857506,Godfather's Pizza,3225 34th St N,SAINT PETERSBURG,FL,33713-2407,United States of America,7275227854.0,godfathers_pizza
1000838064,Godfather's Pizza,1625 N McMullen Booth Rd,CLEARWATER,FL,33759-2522,United States of America,7277961812.0,godfathers_pizza
1000852148,Godfather's Pizza,2698 Roosevelt Blvd,CLEARWATER,FL,33760-2507,United States of America,7275310538.0,godfathers_pizza
1000830990,Godfather's Pizza,12550 49th St N,CLEARWATER,FL,33762-4314,United States of America,7275711253.0,godfathers_pizza
1000851137,Godfather's Pizza,2577 Harn Blvd,CLEARWATER,FL,33764-3104,United States of America,7275248870.0,godfathers_pizza
1000872966,Godfather's Pizza,580 Mandalay Ave,CLEARWATER BEACH,FL,33767-1652,United States of America,7274462701.0,godfathers_pizza
1000825212,Godfather's Pizza,10544 Park Blvd,SEMINOLE,FL,33772-5436,United States of America,7273932577.0,godfathers_pizza
1000828748,Godfather's Pizza,11800 66th St,LARGO,FL,33773-3611,United States of America,7275242756.0,godfathers_pizza
1000864961,Godfather's Pizza,4275 Park Blvd N,PINELLAS PARK,FL,33781-3646,United States of America,7275476745.0,godfathers_pizza
2000015513,Pizza Hut,190 State Road 60 E,LAKE WALES,FL,33853-4116,United States of America,8636761406.0,pizza_hut
1000963810,Sbarro,804 Eagle Ridge Dr,LAKE WALES,FL,33859,United States of America,8636789405.0,sbarro
1000814859,Pizza Hut,3706 Cleveland Ave,FORT MYERS,FL,33901-7907,United States of America,2399368333.0,pizza_hut
1000840405,Godfather's Pizza,17951 N Tamiami Trl,NORTH FORT MYERS,FL,33903-1448,United States of America,2395670125.0,godfathers_pizza
1000835217,Godfather's Pizza,14690 Metro Pkwy,FORT MYERS,FL,33912-4362,United States of America,2395619638.0,godfathers_pizza
1000872117,Godfather's Pizza,5551 Lee Blvd,LEHIGH ACRES,FL,33971-6310,United States of America,2393683564.0,godfathers_pizza
2000060497,Vocelli Pizza,728 SW Pine Island Rd,CAPE CORAL,FL,33991-1969,United States of America,2395731717.0,vocelli_pizza
1000853289,Godfather's Pizza,28070 Quails Nest Ln,BONITA SPRINGS,FL,34135-6927,United States of America,2394956029.0,godfathers_pizza
1000883936,Godfather's Pizza,8406 E State Road 70,BRADENTON,FL,34202,United States of America,9417529647.0,godfathers_pizza
1000876897,Godfather's Pizza,6706 14th St W,BRADENTON,FL,34207-5806,United States of America,9417396991.0,godfathers_pizza
1000826539,Godfather's Pizza,11002 E State Road 64,BRADENTON,FL,34212-9704,United States of America,9417476766.0,godfathers_pizza
2000172508,Little Caesars Pizza,5808 S Tamiami Trl,SARASOTA,FL,34231-3928,United States of America,9413126965.0,little_caesars_pizza
1000873759,Godfather's Pizza,600 N Washington Blvd,SARASOTA,FL,34236-4242,United States of America,9413653079.0,godfathers_pizza
1000830747,Godfather's Pizza,1291 Tamiami Trl S,NOKOMIS,FL,34275,United States of America,9414851380.0,godfathers_pizza
1000859559,Godfather's Pizza,350 Commercial Ct,VENICE,FL,34292-1647,United States of America,9414834788.0,godfathers_pizza
1000851685,Godfather's Pizza,26260 Cortez Blvd,BROOKSVILLE,FL,34601-7900,United States of America,3527962250.0,godfathers_pizza
1000822630,Godfather's Pizza,100 Mariner Blvd,BROOKSVILLE,FL,34609-5687,United States of America,3526880808.0,godfathers_pizza
1000827455,Godfather's Pizza,11224 Land O Lakes Blvd,LAND O LAKES,FL,34638-6026,United States of America,8132356259.0,godfathers_pizza
2000051371,Marco's Pizza,9338 Little Rd,NEW PORT RICHEY,FL,34654-3415,United States of America,7278636000.0,marcos_pizza
1000871553,Godfather's Pizza,5426 Little Rd,NEW PORT RICHEY,FL,34655-1199,United States of America,7273724547.0,godfathers_pizza
1000884645,Godfather's Pizza,8923 State Road 54,NEW PORT RICHEY,FL,34655-3006,United States of America,7273755580.0,godfathers_pizza
1000881865,Godfather's Pizza,8011 US Highway 19,PORT RICHEY,FL,34668-6635,United States of America,7278471085.0,godfathers_pizza
1000860716,Godfather's Pizza,36763 US Highway 19 N,PALM HARBOR,FL,34684-1231,United States of America,7279342951.0,godfathers_pizza
1000858598,Godfather's Pizza,33600 US Highway 19 N,PALM HARBOR,FL,34684-2640,United States of America,7277893579.0,godfathers_pizza
1000844374,Godfather's Pizza,2023 US Highway 19,HOLIDAY,FL,34691-4346,United States of America,7279459855.0,godfathers_pizza
1000839879,Godfather's Pizza,17431 US Highway 192,CLERMONT,FL,34714-9663,United States of America,3522417478.0,godfathers_pizza
1000847857,Godfather's Pizza,2294 E Irlo Bronson Memorial Hwy,KISSIMMEE,FL,34744-4422,United States of America,4079331373.0,godfathers_pizza
2000329619,Papa John's Pizza,5345 Irlo Bronson Memorial Hwy,KISSIMMEE,FL,34746,United States of America,4073977272.0,papa_johns_pizza
1000857226,Godfather's Pizza,3200 S John Young Pkwy,KISSIMMEE,FL,34746-8813,United States of America,4073434751.0,godfathers_pizza
1000852436,Godfather's Pizza,2710 Maguire Rd,OCOEE,FL,34761-4796,United States of America,4079058862.0,godfathers_pizza
1000866349,Godfather's Pizza,4500 E Irlo Bronson Memorial Hwy,SAINT CLOUD,FL,34771,United States of America,4079570915.0,godfathers_pizza
1000833347,Godfather's Pizza,13707 W Colonial Dr,WINTER GARDEN,FL,34787-4201,United States of America,4079059520.0,godfathers_pizza
1000857266,Godfather's Pizza,3202 Daniels Rd,WINTER GARDEN,FL,34787-7018,United States of America,4076546376.0,godfathers_pizza
1000886816,Godfather's Pizza,9532 US Highway 441,LEESBURG,FL,34788-3948,United States of America,3527873141.0,godfathers_pizza
1000835466,Godfather's Pizza,149 NW Bayshore Blvd,PORT SAINT LUCIE,FL,34983-1501,United States of America,7723447445.0,godfathers_pizza
1000822731,Godfather's Pizza,100 SW Monterey Rd,STUART,FL,34994-4610,United States of America,7722199284.0,godfathers_pizza
1000857255,Godfather's Pizza,3201 SE Federal Hwy,STUART,FL,34997-4911,United States of America,7727819455.0,godfathers_pizza
1000881936,Little Caesars Pizza,803 Martin St S,PELL CITY,AL,35128-2135,United States of America,2058843102.0,little_caesars_pizza
1000807728,Pizza Hut,14 Green Springs Hwy,HOMEWOOD,AL,35209-4902,United States of America,,pizza_hut
1000873575,Little Caesars Pizza,5850 Chalkville Rd,BIRMINGHAM,AL,35235,United States of America,2056555311.0,little_caesars_pizza
1000843876,Pizza Inn,2007 Hughes Rd,MADISON,AL,35758-6422,United States of America,2568900254.0,pizza_inn
2000155305,Jet's Pizza,11700 Memorial Pkwy SW,HUNTSVILLE,AL,35803,United States of America,2568852345.0,jets_pizza
1000912188,Domino's,1470 W Main St,CENTRE,AL,35960-1129,United States of America,2569271700.0,dominos
1000917568,Domino's,2912 Dauphin Island Pkwy,MOBILE,AL,36605,United States of America,2514794552.0,dominos
1000857364,Godfather's Pizza,845 Hillcrest Rd,MOBILE,AL,36695-3909,United States of America,2513433000.0,godfathers_pizza
2000225207,Pizza Schmizza,1100 S College St,AUBURN,AL,36832-7200,United States of America,3345020011.0,pizza_schmizza
1000808816,Pizza Hut,1605 Fort Campbell Blvd,CLARKSVILLE,TN,37042-3513,United States of America,9316456564.0,pizza_hut
2000173097,Little Caesars Pizza,2020 Fieldstone Pkwy,FRANKLIN,TN,37069-4378,United States of America,6158072022.0,little_caesars_pizza
1000810036,Pizza Hut,1908 W End Ave,NASHVILLE,TN,37203-2309,United States of America,,pizza_hut
1000850051,Little Caesars Pizza,2491 Murfreesboro Pike,NASHVILLE,TN,37217-3554,United States of America,6153997734.0,little_caesars_pizza
2000036970,Hungry Howie's Pizza & Subs,4345 Ringgold Rd,CHATTANOOGA,TN,37412,United States of America,4236297007.0,hungry_howies_pizza_&_subs
1000821770,Pizza Hut,Hwy 36,JOHNSON CITY,TN,37601,United States of America,4232825551.0,pizza_hut
1000840579,Pizza Inn,1800 W Market St,JOHNSON CITY,TN,37604-6023,United States of America,4239286116.0,pizza_inn
1000922854,Domino's,560 Highway 321 N,LENOIR CITY,TN,37771-6853,United States of America,8659887777.0,dominos
1000914046,Domino's,18750 Alberta St,ONEIDA,TN,37841-2128,United States of America,4235692000.0,dominos
1000885157,Little Caesars Pizza,902 S Main St,SWEETWATER,TN,37874-1829,United States of America,4233372766.0,little_caesars_pizza
2000341484,Pizza Inn,1149 Highway 11 E,TALBOTT,TN,37877-3125,United States of America,8652629294.0,pizza_inn
2000182602,Sbarro,1502 W Cumberland Ave,KNOXVILLE,TN,37996-4537,United States of America,8659742404.0,sbarro
2000025271,Domino's,291 S Washington St,RIPLEY,TN,38063-1732,United States of America,7316353020.0,dominos
1000812713,Pizza Hut,2711 Lamar Ave,MEMPHIS,TN,38114-4317,United States of America,9013623333.0,pizza_hut
1000816328,Pizza Hut,4630 American Way,MEMPHIS,TN,38118-8404,United States of America,9013623333.0,pizza_hut
1000812565,Pizza Hut,26383 Main St,ARDMORE,TN,38449-3299,United States of America,9314274500.0,pizza_hut
2000015328,Pizza Hut,1103 N Locust Ave,LAWRENCEBURG,TN,38464-2708,United States of America,9317626037.0,pizza_hut
1000810625,Pizza Hut,203 Dexter L Woods Memorial Blvd,WAYNESBORO,TN,38485-2416,United States of America,9317223032.0,pizza_hut
1000808083,Pizza Hut,145 Clarice Dr,HOLLY SPRINGS,MS,38635-9139,United States of America,6622527200.0,pizza_hut
2000353295,Domino's,311 West Mark Rd,MARKS,MS,38646,United States of America,8034698000.0,dominos
2000221457,Hungry Howie's Pizza & Subs,105 Highway 80 E,CLINTON,MS,39056-4738,United States of America,6017080001.0,hungry_howies_pizza_&_subs
1000843255,Pizza Inn,201 Fir Ave,COLLINS,MS,39428,United States of America,6017655151.0,pizza_inn
1000926814,Domino's,625 Highway 98 E,COLUMBIA,MS,39429,United States of America,6017360773.0,dominos
2000030835,Pizza Hut,6528 Highway 63,ESCATAWPA,MS,39552,United States of America,2284757771.0,pizza_hut
2000015294,Pizza Hut,101 Stacy Dawn Dr,MCCOMB,MS,39648-4627,United States of America,6016845997.0,pizza_hut
2000385638,Pizza Inn,429 E Broad St,MONTICELLO,MS,39654,United States of America,6015874041.0,pizza_inn
1000862101,Little Caesars Pizza,3911 Taylorsville Rd,LOUISVILLE,KY,40220-1414,United States of America,5024737960.0,little_caesars_pizza
1000830653,Little Caesars Pizza,12418 La Grange Rd,LOUISVILLE,KY,40245-2906,United States of America,5022415445.0,little_caesars_pizza
1000821966,Pizza Hut,US Highway 25 S,GEORGETOWN,KY,40324,United States of America,5028635461.0,pizza_hut
1000859834,CiCi's Pizza,352 Kroger Ctr,MOREHEAD,KY,40351-8895,United States of America,6067831550.0,cicis_pizza
2000329634,Papa John's Pizza,593 Main St,GORHAM,ME,4038,United States of America,2078397272.0,papa_johns_pizza
1000851034,CiCi's Pizza,256 Richmond Mall,RICHMOND,KY,40475,United States of America,8596231555.0,cicis_pizza
1000813615,Pizza Hut,3094 Richmond Rd,LEXINGTON,KY,40509-1538,United States of America,,pizza_hut
2000334402,Villa Fresh Italian Kitchen,2080 Florence Mall,FLORENCE,KY,41042-1443,United States of America,8595256000.0,villa_fresh_italian_kitchen
1000967921,Papa John's Pizza,Route 40 Blacklog Road,INEZ,KY,41224,United States of America,6062983232.0,papa_johns_pizza
1000847941,Little Caesars Pizza,230 S L Rogers Wells Blvd,GLASGOW,KY,42141-1129,United States of America,2706516965.0,little_caesars_pizza
2000015758,Pizza Hut,4576 Fort Campbell Blvd,HOPKINSVILLE,KY,42240-8753,United States of America,2708855244.0,pizza_hut
2000002288,Godfather's Pizza,203 US Highway 62 W,PRINCETON,KY,42445-2404,United States of America,2703657676.0,godfathers_pizza
2000015662,Pizza Hut,305 Marion Rd,PRINCETON,KY,42445-6205,United States of America,2703657382.0,pizza_hut
1000840804,Little Caesars Pizza,1807 N Dixie Hwy,ELIZABETHTOWN,KY,42701,United States of America,2707374209.0,little_caesars_pizza
2000049176,Jet's Pizza,4900 N McCord Rd,SYLVANIA,OH,43560-3131,United States of America,4198851500.0,jets_pizza
2000242525,Little Caesars Pizza,3315 N Ridge Rd E,ASHTABULA,OH,44004,United States of America,4409920017.0,little_caesars_pizza
2000172975,Little Caesars Pizza,5350 Leavitt Rd,LORAIN,OH,44053-2158,United States of America,4402824301.0,little_caesars_pizza
2000342054,Fox's Pizza Den,402 Great Northern Mall,NORTH OLMSTED,OH,44070-3344,United States of America,,foxs_pizza_den
1000805492,Pizza Hut,10613 Lorain Ave,CLEVELAND,OH,44111-5412,United States of America,,pizza_hut
2000198773,Green Leaf's Grill,5801 Cargo Rd,CLEVELAND,OH,44135-3111,United States of America,2162658456.0,green_leafs_grill
2000198806,Villa Fresh Italian Kitchen,5801 Cargo Rd,CLEVELAND,OH,44135-3111,United States of America,2162658457.0,villa_fresh_italian_kitchen
2000303521,Bananas Ultimate Juice Bar,5801 Cargo Rd,CLEVELAND,OH,44135-3111,United States of America,2162658456.0,bananas_ultimate_juice_bar
2000383597,Green Leaf's Grill & Bananas Ultimate Juice Bar,5801 Cargo Rd,CLEVELAND,OH,44135-3111,United States of America,2162658458.0,green_leafs_grill_&_bananas_ultimate_juice_bar
1000889214,Hungry Howie's Pizza & Subs,1033 S Court St,MEDINA,OH,44256-4389,United States of America,3307229888.0,hungry_howies_pizza_&_subs
1000851322,Little Caesars Pizza,2600 Lincoln Way E,MASSILLON,OH,44646-5055,United States of America,3308332133.0,little_caesars_pizza
1000829896,Fox's Pizza Den,1213 3rd St NW,NEW PHILADELPHIA,OH,44663-1303,United States of America,3303434600.0,foxs_pizza_den
1000875251,Little Caesars Pizza,625 W Central Ave,SPRINGBORO,OH,45066-1111,United States of America,9377435599.0,little_caesars_pizza
1000958206,Papa John's Pizza,5800 Hamilton Ave,CINCINNATI,OH,45224-2921,United States of America,5135418800.0,papa_johns_pizza
1000838943,Fox's Pizza Den,17 N Xenia Dr,ENON,OH,45323-1019,United States of America,9378643663.0,foxs_pizza_den
1000841434,Little Caesars Pizza,1851 S Limestone St,SPRINGFIELD,OH,45505-4063,United States of America,9373250300.0,little_caesars_pizza
1000910106,Domino's,1155 Western Ave,CHILLICOTHE,OH,45601-1169,United States of America,7407757777.0,dominos
1000810079,Pizza Hut,1916 Mounds Rd,ANDERSON,IN,46016-5708,United States of America,,pizza_hut
2000172656,Little Caesars Pizza,2458 N Lebanon St,LEBANON,IN,46052-1100,United States of America,7654821000.0,little_caesars_pizza
1000902106,Villa Fresh Italian Kitchen,49 W Maryland St,INDIANAPOLIS,IN,46204-3588,United States of America,3176860618.0,villa_fresh_italian_kitchen
2000198767,Bananas Ultimate Juice Bar,7800 Col H Weir Cook Mem Dr,INDIANAPOLIS,IN,46241,United States of America,3176023572.0,bananas_ultimate_juice_bar
2000303526,Green Leaf's Grill,7800 Col H Weir Memorial Drive,INDIANAPOLIS,IN,46241,United States of America,3176023572.0,green_leafs_grill
1000814764,Pizza Hut,3624 McKinley Ave,SOUTH BEND,IN,46615-3143,United States of America,5742888990.0,pizza_hut
2000015423,Pizza Hut,1411 N Wayne St,ANGOLA,IN,46703-2350,United States of America,2606657574.0,pizza_hut
2000030614,Pizza Hut,2387 Pacer Ct NW,CORYDON,IN,47112-2075,United States of America,8127388238.0,pizza_hut
1000859889,Little Caesars Pizza,3525 Grant Line Rd,NEW ALBANY,IN,47150-2147,United States of America,8129487774.0,little_caesars_pizza
1000867137,Little Caesars Pizza,4651 S US Highway 41,TERRE HAUTE,IN,47802-6801,United States of America,8122990604.0,little_caesars_pizza
2000385635,Pie Five Pizza,24532 W 12 MILE RD,SOUTHFIELD,MI,48034-1207,United States of America,2483567435.0,pie_five_pizza
1000857667,CiCi's Pizza,32415 John R Rd,MADISON HEIGHTS,MI,48071-4726,United States of America,2485833900.0,cicis_pizza
2000385636,Pie Five Pizza,25110 EVERGREEN RD,SOUTHFIELD,MI,48075-1759,United States of America,,pie_five_pizza
2000183082,Papa John's Pizza,45530 Cherry Hill Rd,CANTON,MI,48187-4851,United States of America,7348441771.0,papa_johns_pizza
1000895747,Hungry Howie's Pizza & Subs,215 S Ford Blvd,YPSILANTI,MI,48198-6066,United States of America,7344820522.0,hungry_howies_pizza_&_subs
2000023981,Hungry Howie's Pizza & Subs,8991 Linwood St,DETROIT,MI,48206-1954,United States of America,3138963540.0,hungry_howies_pizza_&_subs
1000894398,Hungry Howie's Pizza & Subs,18950 W McNichols Rd,DETROIT,MI,48219-4158,United States of America,3135346400.0,hungry_howies_pizza_&_subs
1000907938,Hungry Howie's Pizza & Subs,Detroit Metropolitan Airport Edward H M,DETROIT,MI,48242,United States of America,7342290616.0,hungry_howies_pizza_&_subs
1000953836,Sbarro,4402 Baldwin Rd,AUBURN HILLS,MI,48326,United States of America,2483325307.0,sbarro
1000949978,Papa John's Pizza,34527 Grand River Ave,FARMINGTON,MI,48335-3311,United States of America,2484767272.0,papa_johns_pizza
2000051349,Marco's Pizza,875 S Clinton St,STOCKBRIDGE,MI,49285-9555,United States of America,5178519339.0,marcos_pizza
2000347304,Jet's Pizza,2237 Ashmun St,SAULT S MARIE,MI,49783-3704,United States of America,9066355387.0,jets_pizza
1000814009,Pizza Hut,3221 Adventureland Dr,ALTOONA,IA,50009-9571,United States of America,5159670085.0,pizza_hut
1000815981,Pizza Hut,436 S Duff Ave,AMES,IA,50010-6602,United States of America,5152333300.0,pizza_hut
2000195526,Godfather's Pizza,110 Union Dr,AMES,IA,50012-0001,United States of America,5152948330.0,godfathers_pizza
2000002270,Godfather's Pizza,101 N Market St,AUDUBON,IA,50025-1173,United States of America,7125632681.0,godfathers_pizza
2000002283,Godfather's Pizza,101 Main St W,STATE CENTER,IA,50247-7769,United States of America,6414832324.0,godfathers_pizza
1000884391,Godfather's Pizza,8801 Hickman Rd,URBANDALE,IA,50322-5302,United States of America,5152788100.0,godfathers_pizza
1000882313,Godfather's Pizza,811 Lake Ave,STORM LAKE,IA,50588-2467,United States of America,7127322965.0,godfathers_pizza
1000855701,Godfather's Pizza,305 Cora St,IRWIN,IA,51446-7574,United States of America,7127823104.0,godfathers_pizza
1000864075,Godfather's Pizza,4133 Main St,ELK HORN,IA,51531-8016,United States of America,7127648962.0,godfathers_pizza
1000829745,Godfather's Pizza,121 W 7th St,LOGAN,IA,51546-1219,United States of America,7126443104.0,godfathers_pizza
1000823374,Godfather's Pizza,1009 S Fremont St,SHENANDOAH,IA,51601-2171,United States of America,7122464100.0,godfathers_pizza
1000846217,Godfather's Pizza,2150 Twin Valley Dr,DUBUQUE,IA,52003-7983,United States of America,5635838011.0,godfathers_pizza
1000879694,Godfather's Pizza,740 Field of Dreams Way,DYERSVILLE,IA,52040-2502,United States of America,5638758490.0,godfathers_pizza
2000030408,Pizza Hut,1204 German St,MAQUOKETA,IA,52060-2000,United States of America,5636525193.0,pizza_hut
1000834063,Godfather's Pizza,14046 County Road A21,LIME SPRINGS,IA,52155,United States of America,5635662209.0,godfathers_pizza
2000195538,Godfather's Pizza,13410 Highway 78,WAPELLO,IA,52653-9617,United States of America,3198683100.0,godfathers_pizza
1000885166,Godfather's Pizza,902 W Kimberly Rd,DAVENPORT,IA,52806-5720,United States of America,5633866110.0,godfathers_pizza
2000379700,Papa Murphy's Take 'N' Bake Pizza,4623 75Th St,KENOSHA,WI,53142-3701,United States of America,2625517200.0,papa_murphys_take_n_bake_pizza
1000814229,Pizza Hut,3322 W Loomis Rd,GREENFIELD,WI,53221-1129,United States of America,,pizza_hut
1000944624,Sbarro,2500 N Mayfair Rd,WAUWATOSA,WI,53226-1420,United States of America,4144533354.0,sbarro
2000002310,Godfather's Pizza,2282 S Ridge Rd,GREEN BAY,WI,54304-4355,United States of America,9204969999.0,godfathers_pizza
1000824416,Godfather's Pizza,2106 Schofield Ave,WESTON,WI,54476-2412,United States of America,7153551118.0,godfathers_pizza
1000959585,Papa John's Pizza,623 E Clairemont Ave,EAU CLAIRE,WI,54701-6479,United States of America,7158399393.0,papa_johns_pizza
1000815073,Pizza Hut,38830 Forest Blvd,NORTH BRANCH,MN,55056-6117,United States of America,6516748888.0,pizza_hut
1000813515,Pizza Hut,3048 N Service Dr,RED WING,MN,55066-1921,United States of America,,pizza_hut
2000393813,Sbarro,4300 Glumack Dr,SAINT PAUL,MN,55111,United States of America,6127265360.0,sbarro
1000809376,Pizza Hut,1730 Robert St S,WEST SAINT PAUL,MN,55118,United States of America,6514571855.0,pizza_hut
2000172787,Little Caesars Pizza,16338 County Road 30,MAPLE GROVE,MN,55311-1207,United States of America,7634160336.0,little_caesars_pizza
2000002291,Godfather's Pizza,620 US Highway 12 SW,COKATO,MN,55321-4742,United States of America,3202860009.0,godfathers_pizza
1000950644,Papa John's Pizza,3615 W 50th St,EDINA,MN,55410-2015,United States of America,6129241902.0,papa_johns_pizza
1000949390,Papa John's Pizza,333 E Hennepin Ave,MINNEAPOLIS,MN,55414,United States of America,6127897272.0,papa_johns_pizza
1000949899,Papa John's Pizza,3431 22nd Ave NW,ROCHESTER,MN,55901-0519,United States of America,5072820252.0,papa_johns_pizza
1000944995,Papa John's Pizza,2550 S Broadway,ROCHESTER,MN,55904,United States of America,5072819000.0,papa_johns_pizza
1000835792,Godfather's Pizza,1500 Highway 13 N,WASECA,MN,56093,United States of America,5078358135.0,godfathers_pizza
1000815603,Pizza Hut,413 8th Ave SE,PIPESTONE,MN,56164-2047,United States of America,5078255886.0,pizza_hut
1000807131,Pizza Hut,129 7th Ave S,SAINT CLOUD,MN,56301-4258,United States of America,,pizza_hut
1000855698,Godfather's Pizza,305 30th Ave W,ALEXANDRIA,MN,56308-3429,United States of America,3207624000.0,godfathers_pizza
1000805388,Pizza Hut,105 Lemieur St,LITTLE FALLS,MN,56345-3320,United States of America,,pizza_hut
1000823797,Godfather's Pizza,1014 Hobart St,HAWLEY,MN,56549,United States of America,2184834770.0,godfathers_pizza
2000195596,Godfather's Pizza,420 Center Ave,MOORHEAD,MN,56560,United States of America,2184771333.0,godfathers_pizza
2000002294,Godfather's Pizza,401 2nd Street,OGEMA,MN,56569,United States of America,2189833233.0,godfathers_pizza
1000837197,Godfather's Pizza,1580 Highway 59 S,THIEF RIVER FALLS,MN,56701-3414,United States of America,2186815643.0,godfathers_pizza
1000846970,Little Caesars Pizza,2210 Broadway Ave,YANKTON,SD,57078-1706,United States of America,6056654140.0,little_caesars_pizza
1000846918,Pizza Inn,2208 E 10th St,SIOUX FALLS,SD,57103-1913,United States of America,6053362932.0,pizza_inn
2000383585,Villa Fresh Italian Kitchen,1400 E Benson Rd,SIOUX FALLS,SD,57104-0862,United States of America,,villa_fresh_italian_kitchen
1000821981,Pizza Hut,W Hwy 16,CUSTER,SD,57730,United States of America,,pizza_hut
1000861538,Godfather's Pizza,3810 E Rosser Ave,BISMARCK,ND,58501,United States of America,7012222300.0,godfathers_pizza
2000331911,Godfather's Pizza,3801 E Rosser Ave,BISMARCK,ND,58501-3308,United States of America,7012222300.0,godfathers_pizza
1000804787,Pizza Hut,100 128th Ave NW,MINOT,ND,58703,United States of America,7018371000.0,pizza_hut
2000030934,Pizza Hut,903 California Ave,LIBBY,MT,59923-1907,United States of America,4062937744.0,pizza_hut
2000172605,Little Caesars Pizza,1155 E Oakton St,DES PLAINES,IL,60018-2046,United States of America,8477680459.0,little_caesars_pizza
2000393562,Little Caesars Pizza,914 Route 22,FOX RIVER GROVE,IL,60021,United States of America,8474624028.0,little_caesars_pizza
2000183032,Papa John's Pizza,1157 S Milwaukee Ave,LIBERTYVILLE,IL,60048-3716,United States of America,8473670138.0,papa_johns_pizza
2000015554,Pizza Hut,2085 S Eastwood Dr,WOODSTOCK,IL,60098-4602,United States of America,8153387060.0,pizza_hut
1000914344,Domino's,1951 N Mannheim Rd,MELROSE PARK,IL,60160-1012,United States of America,7083383030.0,dominos
2000183011,Papa John's Pizza,6628 Cermak Rd,BERWYN,IL,60402-1999,United States of America,7084841999.0,papa_johns_pizza
1000907660,Villa Fresh Italian Kitchen,96 River Oaks Center,CALUMET CITY,IL,60409,United States of America,7088912596.0,villa_fresh_italian_kitchen
2000030532,Pizza Hut,18042 Halsted St,HOMEWOOD,IL,60430-2506,United States of America,7086478292.0,pizza_hut
2000183031,Papa John's Pizza,2410 W Jefferson St,JOLIET,IL,60435,United States of America,8152074040.0,papa_johns_pizza
1000914618,Domino's,2007 Essington Rd,JOLIET,IL,60435-1629,United States of America,8154368000.0,dominos
1000966359,Papa John's Pizza,9324 W 159th St,ORLAND PARK,IL,60462-5541,United States of America,7083497272.0,papa_johns_pizza
1000838163,Little Caesars Pizza,16300 Harlem Ave,TINLEY PARK,IL,60477-2576,United States of America,7086337313.0,little_caesars_pizza
2000183007,Papa John's Pizza,2150 W Galena Blvd,AURORA,IL,60506-3259,United States of America,6308967272.0,papa_johns_pizza
2000002263,Godfather's Pizza,8204 47th St,LYONS,IL,60534-1715,United States of America,7084470173.0,godfathers_pizza
1000913655,Domino's,1785 Marketview Dr,YORKVILLE,IL,60560-1872,United States of America,6305539595.0,dominos
2000015347,Pizza Hut,1144 E Walnut St,WATSEKA,IL,60970-1803,United States of America,8154322999.0,pizza_hut
2000183010,Papa John's Pizza,1939 N State St,BELVIDERE,IL,61008-1956,United States of America,8159759151.0,papa_johns_pizza
1000868922,Little Caesars Pizza,500 W Chrysler Dr,BELVIDERE,IL,61008-6034,United States of America,8155446685.0,little_caesars_pizza
1000861712,Little Caesars Pizza,3840 46th Ave,ROCK ISLAND,IL,61201-7137,United States of America,3097949777.0,little_caesars_pizza
2000195545,Godfather's Pizza,106 S Chicago St,GENESEO,IL,61254-1460,United States of America,3099445811.0,godfathers_pizza
2000195544,Godfather's Pizza,2433 S Oakwood Ave,GENESEO,IL,61254-1977,United States of America,3099446040.0,godfathers_pizza
2000030556,Pizza Hut,1917 S Main St,BLOOMINGTON,IL,61704-7501,United States of America,3098274646.0,pizza_hut
1000842016,Little Caesars Pizza,1901 Philo Rd,URBANA,IL,61802-6401,United States of America,2173289360.0,little_caesars_pizza
1000852559,Little Caesars Pizza,2721 N Vermilion St,DANVILLE,IL,61832-1493,United States of America,2174434768.0,little_caesars_pizza
2000012651,Little Caesars Pizza,2537 State St,EAST SAINT LOUIS,IL,62205-2322,United States of America,6182740654.0,little_caesars_pizza
2000393705,Little Caesars Pizza,St Rd 100 Km 3.6,CABO ROJO,PR,623,United States of America,7872655081.0,little_caesars_pizza
2000303509,Villa Fresh Italian Kitchen,18521 Outlet Blvd,CHESTERFIELD,MO,63005,United States of America,6367671426.0,villa_fresh_italian_kitchen
1000861999,Little Caesars Pizza,3901 Lemay Ferry Rd,SAINT LOUIS,MO,63125-4521,United States of America,3144873434.0,little_caesars_pizza
2000393604,Little Caesars Pizza,6953 Olive Blvd,UNIVERSITY CITY,MO,63130-2540,United States of America,3143357615.0,little_caesars_pizza
1000970022,Little Caesars Pizza,6700 Manchester Ave,SAINT LOUIS,MO,63139-3525,United States of America,3146454209.0,little_caesars_pizza
1000888288,Godfather's Pizza,901 S Franklin Street,KIRKSVILLE,MO,63501,United States of America,6607854198.0,godfathers_pizza
2000002300,Godfather's Pizza,2006 Main St,UNIONVILLE,MO,63565-1355,United States of America,6609472100.0,godfathers_pizza
1000822624,Little Caesars Pizza,100 Main St N,SOUTHBURY,CT,6488,United States of America,2032647009.0,little_caesars_pizza
1000804810,Pizza Hut,100 S Main St,GRAVOIS MILLS,MO,65037-6196,United States of America,5733746265.0,pizza_hut
1000968145,Sbarro,State Rd KK,OSAGE BEACH,MO,65065,United States of America,5733483131.0,sbarro
1000805882,Pizza Hut,111 Business Loop 70 E,COLUMBIA,MO,65203-3939,United States of America,5738866685.0,pizza_hut
1000825146,Pizza Inn,1051 Kingshighway St,ROLLA,MO,65401-2981,United States of America,5733644544.0,pizza_inn
2000030882,Pizza Hut,78 Highway P,CUBA,MO,65453-5226,United States of America,5738850011.0,pizza_hut
2000329591,Papa John's Pizza,459 W Aldersgate Dr,NIXA,MO,65714-7606,United States of America,4177259700.0,papa_johns_pizza
1000946500,Sbarro,2825 S Glenstone Ave,SPRINGFIELD,MO,65804-3766,United States of America,4178870443.0,sbarro
1000925989,Domino's,832 Lowa St,LAWRENCE,KS,66044,United States of America,7858418002.0,dominos
2000030900,Pizza Hut,819 S 4th St,LEAVENWORTH,KS,66048-2715,United States of America,9136820707.0,pizza_hut
2000030394,Pizza Hut,11449 Shawnee Mission Pkwy,SHAWNEE,KS,66203-3361,United States of America,,pizza_hut
1000841211,Godfather's Pizza,1835 NW Topeka Blvd,TOPEKA,KS,66608-1867,United States of America,7852333444.0,godfathers_pizza
1000859690,CiCi's Pizza,3501 SW Topeka Blvd,TOPEKA,KS,66611-2364,United States of America,7852673211.0,cicis_pizza
2000030540,Pizza Hut,1831 E Washington St,FREDONIA,KS,66736-2066,United States of America,6203784308.0,pizza_hut
1000818099,Pizza Hut,609 W Saint John St,GIRARD,KS,66743-2002,United States of America,6207246400.0,pizza_hut
1000806364,Pizza Hut,11747 E Kellogg Dr,WICHITA,KS,67207-1934,United States of America,3166861485.0,pizza_hut
2000015655,Pizza Hut,3001 US 24 Hwy,BELOIT,KS,67420,United States of America,7857385706.0,pizza_hut
2000340850,Pizzeria Locale,505 W 74Th St,WALDO,KS,67673,United States of America,,pizzeria_locale
1000808401,Pizza Hut,1513 W Wyatt Earp Blvd,DODGE CITY,KS,67801-3352,United States of America,6202250290.0,pizza_hut
1000928221,Sbarro,10000 California St,OMAHA,NE,68114-2363,United States of America,4023983055.0,sbarro
1000868954,Little Caesars Pizza,5000 L St,OMAHA,NE,68117-1329,United States of America,4027331040.0,little_caesars_pizza
1000848243,Godfather's Pizza,2310 N 90th St,OMAHA,NE,68134-6008,United States of America,4023918560.0,godfathers_pizza
1000825887,Godfather's Pizza,5402 S 108th St,OMAHA,NE,68137-3975,United States of America,4023312171.0,godfathers_pizza
1000830298,Godfather's Pizza,12275 W Center Rd,OMAHA,NE,68144-3957,United States of America,4023339400.0,godfathers_pizza
1000813686,Pizza Hut,311 N 13th St,GENEVA,NE,68361-1511,United States of America,4027594473.0,pizza_hut
2000199554,The Original Italian Pie,5406 Veterans Memorial Blvd,METAIRIE,LA,70003-1728,United States of America,5048879977.0,the_original_italian_pie
2000390386,Hungry Howie's Pizza & Subs,651 Terry Pkwy,GRETNA,LA,70056-4305,United States of America,5043624694.0,hungry_howies_pizza_&_subs
2000199560,The Original Italian Pie,405 Belle Terre Blvd,LA PLACE,LA,70068-2437,United States of America,9853591743.0,the_original_italian_pie
2000199558,The Original Italian Pie,3706 Prytania St,NEW ORLEANS,LA,70115-3733,United States of America,5042662523.0,the_original_italian_pie
1000943447,Papa John's Pizza,231 N Carrollton Ave,NEW ORLEANS,LA,70119,United States of America,5044838811.0,papa_johns_pizza
2000199555,The Original Italian Pie,125 N Carrollton Ave,NEW ORLEANS,LA,70119-5106,United States of America,5044839949.0,the_original_italian_pie
1000909116,Domino's,1050 E Admiral Doyle Dr,NEW IBERIA,LA,70560-6711,United States of America,3373643944.0,dominos
2000254291,Fox's Pizza Den,4720 Nelson Rd,LAKE CHARLES,LA,70605-5212,United States of America,3374771502.0,foxs_pizza_den
2000172708,Little Caesars Pizza,2565 Oneal Ln,BATON ROUGE,LA,70816,United States of America,2257536737.0,little_caesars_pizza
2000329615,Papa John's Pizza,528 Washington Ave,BELLEVILLE,NJ,7109,United States of America,9737514100.0,papa_johns_pizza
2000183066,Papa John's Pizza,3330 N Market St,SHREVEPORT,LA,71107-4009,United States of America,3182220060.0,papa_johns_pizza
1000863070,Fox's Pizza Den,4015 Hwy 165 N,MONROE,LA,71202,United States of America,3184109832.0,foxs_pizza_den
2000248149,Pizza Inn,2025 Melrose St,PINEVILLE,LA,71360,United States of America,3184439136.0,pizza_inn
2000342053,Fox's Pizza Den,180 San Antonio Ave,MANY,LA,71449-3009,United States of America,3182733697.0,foxs_pizza_den
1000870473,Pizza Inn,5200 N State Line Ave,TEXARKANA,AR,71854-1029,United States of America,8707742106.0,pizza_inn
1000861587,Pizza Inn,3816 Highway 367 N,BALD KNOB,AR,72010-9650,United States of America,5017242410.0,pizza_inn
2000216232,Domino's,207 S Whitehead Dr,DEWITT,AR,72042,United States of America,,dominos
1000968711,Little Caesars Pizza,14306 Highway 107,JACKSONVILLE,AR,72076-9350,United States of America,5018343900.0,little_caesars_pizza
1000813361,Pizza Hut,301 N Shackleford Rd,LITTLE ROCK,AR,72211-2887,United States of America,,pizza_hut
1000911288,Domino's,1314 S Division St,GUTHRIE,OK,73044-5017,United States of America,4052821014.0,dominos
2000015492,Pizza Hut,1808 W Lindsey St,NORMAN,OK,73069-4276,United States of America,4053213385.0,pizza_hut
1000862037,Little Caesars Pizza,3905 S Western Ave,OKLAHOMA CITY,OK,73109-3405,United States of America,4056325008.0,little_caesars_pizza
2000015977,Pizza Inn,200 S Midwest Blvd,MIDWEST CITY,OK,73110-4641,United States of America,4057331731.0,pizza_inn
1000854157,Pizza Inn,2916 SW 59th St,OKLAHOMA CITY,OK,73119-6402,United States of America,4056817581.0,pizza_inn
1000805213,Pizza Hut,1024 S 10th St,CLINTON,OK,73601-5237,United States of America,5803234771.0,pizza_hut
2000195498,Godfather's Pizza,55950 E Highway 85A,AFTON,OK,74331-2776,United States of America,9182578805.0,godfathers_pizza
1000912039,Domino's,1436 N Harrison Ave,SHAWNEE,OK,74801,United States of America,4058780880.0,dominos
2000030955,Pizza Hut,9550 Dallas Pkwy,FRISCO,TX,75033-4189,United States of America,,pizza_hut
1000921066,Domino's,4413 W Walnut St,GARLAND,TX,75042,United States of America,9724871100.0,dominos
2000251510,Peter Piper Pizza,5005 State Highway 121,THE COLONY,TX,75056-2605,United States of America,2144691602.0,peter_piper_pizza
2000129840,Pizza Inn,310 E Round Grove Rd,LEWISVILLE,TX,75067-4184,United States of America,9723152525.0,pizza_inn
1000832722,Pizza Inn,13321 State Highway 198,MABANK,TX,75156-5400,United States of America,9034519136.0,pizza_inn
1000828964,Pizza Inn,11924 Elam Rd,BALCH SPRINGS,TX,75180-2821,United States of America,9725575400.0,pizza_inn
1000886993,Little Caesars Pizza,9605 Clark Rd,DALLAS,TX,75249-1460,United States of America,9725728728.0,little_caesars_pizza
2000329501,Papa John's Pizza,220 E Main St,KILGORE,TX,75662-5844,United States of America,9039841800.0,papa_johns_pizza
2000259946,Hungry Howie's Pizza & Subs,3205 N University Dr,NACOGDOCHES,TX,75965,United States of America,9365643500.0,hungry_howies_pizza_&_subs
2000173122,Little Caesars Pizza,6109 S Cooper St,ARLINGTON,TX,76001,United States of America,8174683027.0,little_caesars_pizza
1000843741,CiCi's Pizza,2001 W Southlake Blvd,SOUTHLAKE,TX,76092-6749,United States of America,8172518730.0,cicis_pizza
1000821096,Pizza Hut,9124 Highway 80 W,FORT WORTH,TX,76116,United States of America,,pizza_hut
2000198826,Villa Fresh Italian Kitchen,4800 S Hulen St,FT WORTH,TX,76132,United States of America,8173467332.0,villa_fresh_italian_kitchen
2000173187,Little Caesars Pizza,8700 N Tarrant Pkwy,NORTH RICHLAND HILLS,TX,76182,United States of America,8176563200.0,little_caesars_pizza
2000186069,Pie Five Pizza,1120 W Hickory St,DENTON,TX,76201-0102,United States of America,9408081675.0,pie_five_pizza
2000344105,Sbarro,Garden State Parkway Mile Marker 173,MONTVALE,NJ,7645,United States of America,2013918509.0,sbarro
2000030533,Pizza Hut,1805 State Highway 16 S,GRAHAM,TX,76450-4609,United States of America,9405495401.0,pizza_hut
1000888576,Green Leaf's Grill,1 Garden State Plz,PARAMUS,NJ,7652,United States of America,2018436250.0,green_leafs_grill
1000888577,Everything Yogurt Salad Cafe,1 Garden State Plz,PARAMUS,NJ,7652,United States of America,2018436250.0,everything_yogurt_salad_cafe
2000003435,Sbarro,1 Garden State Plz,PARAMUS,NJ,7652,United States of America,2018434471.0,sbarro
2000303532,Bananas Ultimate Juice Bar,"Rt 4 & 17, Food Court, Sp F11",PARAMUS,NJ,7652,United States of America,2018436250.0,bananas_ultimate_juice_bar
2000027220,Little Caesars Pizza,100 Carlos Parker Blvd NW,TAYLOR,TX,76574-7059,United States of America,5123521000.0,little_caesars_pizza
2000345624,Pie Five Pizza,107 Yale St,HOUSTON,TX,77007,United States of America,7138617435.0,pie_five_pizza
2000347311,Jet's Pizza,3157 W Holcombe Blvd,HOUSTON,TX,77025-1533,United States of America,7135896900.0,jets_pizza
1000904599,Villa Fresh Italian Kitchen,6621 Fannin St,HOUSTON,TX,77030,United States of America,8328226368.0,villa_fresh_italian_kitchen
2000198783,The Market by Villa,3950 S Terminal Rd,HOUSTON,TX,77032,United States of America,2812337461.0,the_market_by_villa
2000383593,The Market by Villa,3950 South Terminal Road,HOUSTON,TX,77032,United States of America,2812337461.0,the_market_by_villa
2000334393,Villa Fresh Italian Kitchen,1182 Willowbrook Mall,HOUSTON,TX,77070-5789,United States of America,2818073510.0,villa_fresh_italian_kitchen
2000015553,Pizza Hut,206 S Loop 336 W,CONROE,TX,77304-3300,United States of America,9365394040.0,pizza_hut
2000196575,Pizza Inn,12250 Southwest Fwy,STAFFORD,TX,77477-3007,United States of America,2812407010.0,pizza_inn
2000199566,The Original Italian Pie,3915 Spencer Hwy,PASADENA,TX,77504-1200,United States of America,8323860000.0,the_original_italian_pie
1000871159,Pizza Inn,533 Sheldon Rd,CHANNELVIEW,TX,77530-3531,United States of America,2814520195.0,pizza_inn
1000825005,CiCi's Pizza,105 Highway 290 W,BRENHAM,TX,77833-6820,United States of America,9794212424.0,cicis_pizza
2000015631,Pizza Hut,2710 E Main St,MADISONVILLE,TX,77864-2230,United States of America,9363483705.0,pizza_hut
2000329547,Papa John's Pizza,3210 Jaime Zapata Memorial Hwy,LAREDO,TX,78043,United States of America,9567297230.0,papa_johns_pizza
2000015551,Pizza Hut,20630 State Highway 46 W,SPRING BRANCH,TX,78070-6915,United States of America,,pizza_hut
1000805817,Pizza Hut,1103 N Washington St,BEEVILLE,TX,78102-3307,United States of America,3613582970.0,pizza_hut
2000144482,Fox's Pizza Den,10025 FM 2673,CANYON LAKE,TX,78133-4600,United States of America,8308993697.0,foxs_pizza_den
1000849308,Godfather's Pizza,2409 Scott Rd Army Base,FORT SAM HOUSTON,TX,78234,United States of America,2102710211.0,godfathers_pizza
1000843075,Godfather's Pizza,1980 Kenly Ave,SAN ANTONIO,TX,78236-5169,United States of America,2106459836.0,godfathers_pizza
2000329380,Papa John's Pizza,1100 Front Street,ALICE,TX,78332,United States of America,3616643939.0,papa_johns_pizza
1000918133,Domino's,309 E Kleberg Ave,KINGSVILLE,TX,78363-4574,United States of America,3615955591.0,dominos
1000815526,Pizza Hut,4101 US Highway 77,CORPUS CHRISTI,TX,78410-4545,United States of America,,pizza_hut
1000895922,Villa Fresh Italian Kitchen,2200 S 10th St,MCALLEN,TX,78503-5413,United States of America,9566300229.0,villa_fresh_italian_kitchen
2000053032,Peter Piper Pizza,2204 W Palma Vista Dr,PALMVIEW,TX,78572,United States of America,9565192590.0,peter_piper_pizza
1000834067,Little Caesars Pizza,1405 E Expressway 83,MISSION,TX,78572-6612,United States of America,9565804513.0,little_caesars_pizza
2000301463,Jet's Pizza,1201 N Bell Blvd,CEDAR PARK,TX,78613-7018,United States of America,5122606333.0,jets_pizza
1000805835,Pizza Hut,1105 N Bell Blvd,CEDAR PARK,TX,78613-7087,United States of America,,pizza_hut
1000809009,Pizza Hut,16420 FM 620,AUSTIN,TX,78717,United States of America,,pizza_hut
2000015517,Pizza Hut,1902 S Main St,PERRYTON,TX,79070-5909,United States of America,8064354061.0,pizza_hut
1000845338,Little Caesars Pizza,210 SE Georgia Ave,SWEETWATER,TX,79556-8232,United States of America,3252354060.0,little_caesars_pizza
2000198771,George & Martha's American Grille,67 Morris St,MORRISTOWN,NJ,7960,United States of America,9732674700.0,george_&_marthas_american_grille
2000303531,Green Leaf's Grill & Bananas Ultimate Juice Bar,1 W Flatiron Crossing Dr,BROOMFIELD,CO,80021,United States of America,3034692280.0,green_leafs_grill_&_bananas_ultimate_juice_bar
1000917679,Domino's,297 N US Highway 287,LAFAYETTE,CO,80026-8953,United States of America,3036645111.0,dominos
1000860507,Little Caesars Pizza,363 S Broadway,DENVER,CO,80209-1522,United States of America,3037338818.0,little_caesars_pizza
2000003096,CiCi's Pizza,10048 Grant St,THORNTON,CO,80229-2018,United States of America,3036356928.0,cicis_pizza
1000833833,Little Caesars Pizza,1400 E 104th Ave,THORNTON,CO,80233-4306,United States of America,3032521884.0,little_caesars_pizza
1000927563,Domino's,207 Univ Colorado at Boulder Umc,BOULDER,CO,80309-0001,United States of America,3034481730.0,dominos
1000848092,Godfather's Pizza,2302 Cadet Dr,USAF ACADEMY,CO,80840,United States of America,7194720664.0,godfathers_pizza
1000893802,Green Leaf's Grill,1750 Deptford Center Rd,DEPTFORD,NJ,8096,United States of America,8566864889.0,green_leafs_grill
1000893816,Treat Street,1750 Deptford Center Rd,DEPTFORD,NJ,8096,United States of America,8566864889.0,treat_street
1000853787,Godfather's Pizza,1121 Wilkins Cir,CASPER,WY,82601-1332,United States of America,3072651221.0,godfathers_pizza
1000869154,Godfather's Pizza,501 W Lakeway Rd,GILLETTE,WY,82718-6146,United States of America,3076867777.0,godfathers_pizza
2000033483,Pizza Hut,110 E Hart St,BUFFALO,WY,82834,United States of America,3076842596.0,pizza_hut
2000183115,Papa John's Pizza,50 S Laurel St,BRIDGETON,NJ,8302,United States of America,8564537272.0,papa_johns_pizza
1000862272,Little Caesars Pizza,3945 Pole Line Rd,POCATELLO,ID,83201-5425,United States of America,2082381107.0,little_caesars_pizza
1000825217,Little Caesars Pizza,1055 E Draper Pkwy,DRAPER,UT,84020-9094,United States of America,8015711266.0,little_caesars_pizza
2000328094,Pie Five Pizza,1684 W Towne Center Dr,SOUTH JORDAN,UT,84095,United States of America,8016793241.0,pie_five_pizza
1000825863,Little Caesars Pizza,1040 S Highway 89,RICHFIELD,UT,84701,United States of America,4358969238.0,little_caesars_pizza
1000922799,Domino's,5532 E Thomas Rd,PHOENIX,AZ,85018-8157,United States of America,6029529300.0,dominos
1000814301,Pizza Hut,3375 E Shea Blvd,PHOENIX,AZ,85028-3357,United States of America,,pizza_hut
1000893268,Hungry Howie's Pizza & Subs,1635 E Baseline Rd,PHOENIX,AZ,85042,United States of America,6022766600.0,hungry_howies_pizza_&_subs
1000867918,Chuck E. Cheese's,4825 E Warner Rd,PHOENIX,AZ,85044-3307,United States of America,4805980800.0,chuck_e_cheeses
2000023403,Hungry Howie's Pizza & Subs,4645 E Chandler Blvd,PHOENIX,AZ,85048-0432,United States of America,4807851200.0,hungry_howies_pizza_&_subs
2000023409,Hungry Howie's Pizza & Subs,1863 N Stapley Dr,MESA,AZ,85203,United States of America,4808440900.0,hungry_howies_pizza_&_subs
1000883829,Chuck E. Cheese's,856 S Alma School Rd,MESA,AZ,85210-2001,United States of America,4808349322.0,chuck_e_cheeses
1000816818,Pizza Hut,501 W Van Buren St,AVONDALE,AZ,85323,United States of America,6239250595.0,pizza_hut
1000889531,Hungry Howie's Pizza & Subs,10740 W Lower Buckeye Rd,AVONDALE,AZ,85323,United States of America,6239070200.0,hungry_howies_pizza_&_subs
2000015372,Pizza Hut,1217 E US Highway 85,BUCKEYE,AZ,85326-2240,United States of America,6233867107.0,pizza_hut
2000053085,Peter Piper Pizza,7621 N Oracle Rd,ORO VALLEY,AZ,85704-6310,United States of America,5205750770.0,peter_piper_pizza
2000198837,Villa Fresh Italian Kitchen,5870 E Broadway Blvd,TUCSON,AZ,85711,United States of America,5207900390.0,villa_fresh_italian_kitchen
1000899014,Villa Pizza,3250 Gateway Blvd,PRESCOTT,AZ,86303-6850,United States of America,9284433298.0,villa_pizza
1000880266,Little Caesars Pizza,7550 E State Route 69,PRESCOTT VALLEY,AZ,86314-2214,United States of America,9287720919.0,little_caesars_pizza
2000009976,Domino's,1805 N Olden Avenue Ext,EWING,NJ,8638,United States of America,6098831000.0,dominos
2000172328,Little Caesars Pizza,3269 Maricopa Ave,LAKE HAVASU CITY,AZ,86406-5789,United States of America,9286809193.0,little_caesars_pizza
1000888758,Villa Fresh Italian Kitchen,10000 Coors Byp NW,ALBUQUERQUE,NM,87114,United States of America,5057929995.0,villa_fresh_italian_kitchen
1000881049,Little Caesars Pizza,7820 Enchanted Hills Blvd NE,RIO RANCHO,NM,87144-8641,United States of America,5058674343.0,little_caesars_pizza
1000900602,Bananas Ultimate Juice Bar,400 Commons Way,BRIDGEWATER,NJ,8807,United States of America,9085266072.0,bananas_ultimate_juice_bar
2000003420,Sbarro,McCarran International Airport,LAS VEGAS,NV,89111,United States of America,7022781478.0,sbarro
1000902191,Villa Pizza,4949 N Rancho Dr,LAS VEGAS,NV,89130-3505,United States of America,7023968517.0,villa_pizza
2000026978,CiCi's Pizza,6475 N Decatur Blvd,LAS VEGAS,NV,89131,United States of America,7022572424.0,cicis_pizza
2000053483,Pizza Factory,811 Short Ct,GARDNERVILLE,NV,89460,United States of America,7752656900.0,pizza_factory
1000918796,Domino's,3309 W Pico Blvd,LOS ANGELES,CA,90019-4530,United States of America,3237358008.0,dominos
1000872643,Little Caesars Pizza,5704 Whittier Blvd,COMMERCE,CA,90022-4223,United States of America,3237240463.0,little_caesars_pizza
1000806351,Pizza Hut,11710 Wilmington Ave,LOS ANGELES,CA,90059,United States of America,3235639100.0,pizza_hut
1000919206,Johnnie's New York Pizzeria,350 S Grand Ave,LOS ANGELES,CA,90071,United States of America,2136139972.0,johnnies_new_york_pizzeria
2000015722,Pizza Hut,400A N Sepulveda Blvd,MANHATTAN BEACH,CA,90266,United States of America,3103188549.0,pizza_hut
2000038091,Johnnie's New York Pizzeria,1444 3rd Street Promenade,SANTA MONICA,CA,90401-2322,United States of America,3103959062.0,johnnies_new_york_pizzeria
2000198849,Villa Fresh Italian Kitchen,500 Lakewood Center Mall,LAKEWOOD,CA,90712-2407,United States of America,5622724510.0,villa_fresh_italian_kitchen
2000015516,Pizza Hut,1901 Pacific Coast Hwy,LOMITA,CA,90717-2602,United States of America,3103252300.0,pizza_hut
1000814433,Pizza Hut,3437 Foothill Blvd,LA CRESCENTA,CA,91214-1827,United States of America,8189572600.0,pizza_hut
1000833273,Little Caesars Pizza,13661 Victory Blvd,VAN NUYS,CA,91401-1735,United States of America,8189892826.0,little_caesars_pizza
1000962054,Papa John's Pizza,7221 Van Nuys Blvd,VAN NUYS,CA,91405,United States of America,8189018484.0,papa_johns_pizza
2000087617,CiCi's Pizza,4200 Chino Hills Pkwy,CHINO HILLS,CA,91709-5831,United States of America,9096065173.0,cicis_pizza
1000894202,Hungry Howie's Pizza & Subs,1832 E Route 66,GLENDORA,CA,91740-3804,United States of America,6269146666.0,hungry_howies_pizza_&_subs
1000808573,Pizza Hut,15495 Valley Blvd,CITY OF INDUSTRY,CA,91746-3300,United States of America,6263330041.0,pizza_hut
1000884257,Little Caesars Pizza,875 E H St,CHULA VISTA,CA,91910-7807,United States of America,6194822114.0,little_caesars_pizza
1000813193,Pizza Hut,2959 Jamacha Rd,EL CAJON,CA,92019-6306,United States of America,6196609996.0,pizza_hut
1000838566,Little Caesars Pizza,1662 Garnet Ave,SAN DIEGO,CA,92109-3116,United States of America,8582707772.0,little_caesars_pizza
2000196668,CiCi's Pizza,5801 University Ave,SAN DIEGO,CA,92115-6251,United States of America,6192872424.0,cicis_pizza
2000394388,Mountain Mike's Pizza,Temecula,TEMECULA,CA,92592,United States of America,,mountain_mikes_pizza
1000917466,Domino's,28715 Los Alisos Blvd,MISSION VIEJO,CA,92692-4986,United States of America,9498552223.0,dominos
1000935809,Sbarro,1500 E Village Way,ORANGE,CA,92865-3644,United States of America,7146850905.0,sbarro
1000877397,Little Caesars Pizza,6865 Hollister Ave,GOLETA,CA,93117-3017,United States of America,8059681948.0,little_caesars_pizza
1000852984,Little Caesars Pizza,2785 Highway 46,WASCO,CA,93280-2912,United States of America,6617583583.0,little_caesars_pizza
2000030698,Pizza Hut,3351 Panama Ln,BAKERSFIELD,CA,93313-3745,United States of America,6618324500.0,pizza_hut
2000353162,Domino's,240 W Fitzgerald Blvd,EDWARDS AFB,CA,93524-6007,United States of America,6612584034.0,dominos
2000023966,Papa John's Pizza,1798 Ashlan Ave,CLOVIS,CA,93611-5191,United States of America,5592917272.0,papa_johns_pizza
1000858353,Little Caesars Pizza,333 Sierra St,KINGSBURG,CA,93631-1707,United States of America,5598970187.0,little_caesars_pizza
2000334954,Papa John's Pizza,3842 W Shaw Ave,FRESNO,CA,93711-3214,United States of America,5592765430.0,papa_johns_pizza
2000329437,Papa John's Pizza,1512 E Champlain Dr,FRESNO,CA,93720,United States of America,5594347272.0,papa_johns_pizza
1000892955,Villa Pizza,1574 Northridge Shopping Ctr,SALINAS,CA,93906-2022,United States of America,8314499843.0,villa_pizza
2000383592,Villa Fresh Italian Kitchen,3251 20Th Ave,SAN FRANCISCO,CA,94132,United States of America,,villa_fresh_italian_kitchen
2000394386,Mountain Mike's Pizza,10750 San Pablo Ave,EL CERRITO,CA,94530-2622,United States of America,,mountain_mikes_pizza
2000198775,Green Leaf's Grill & Bananas Ultimate Juice Bar,2774 Livermore Outlets Dr,LIVERMORE,CA,94551-4204,United States of America,9252927226.0,green_leafs_grill_&_bananas_ultimate_juice_bar
1000808708,Pizza Hut,15922 Hesperian Blvd,SAN LORENZO,CA,94580-1551,United States of America,5102787575.0,pizza_hut
1000939112,Papa John's Pizza,1824 Saratoga Ave,SAN JOSE,CA,95129-5211,United States of America,4083707272.0,papa_johns_pizza
2000329532,Papa John's Pizza,2830 Geer Rd,TURLOCK,CA,95382-1141,United States of America,2096567272.0,papa_johns_pizza
2000379705,Papa Murphy's Take 'N' Bake Pizza,686 F St,ARCATA,CA,95521,United States of America,7078229977.0,papa_murphys_take_n_bake_pizza
2000334955,Papa John's Pizza,8300 Sierra College Blvd,ROSEVILLE,CA,95661,United States of America,9167827272.0,papa_johns_pizza
1000876549,Little Caesars Pizza,6600 Clark Rd,PARADISE,CA,95969-3554,United States of America,5308773371.0,little_caesars_pizza
1000940552,Papa John's Pizza,200 Hamakua Dr,KAILUA,HI,96734-3985,United States of America,8082617272.0,papa_johns_pizza
1000868855,Little Caesars Pizza,500 N Nimitz Hwy,HONOLULU,HI,96817-5030,United States of America,8085284225.0,little_caesars_pizza
2000332789,Papa Murphy's Take 'N' Bake Pizza,11421 SW Beaverton Hillsdale Hwy,BEAVERTON,OR,97005-2929,United States of America,,papa_murphys_take_n_bake_pizza
2000047725,Pizza Schmizza,14559 Westlake Dr,LAKE OSWEGO,OR,97035-7729,United States of America,5039687777.0,pizza_schmizza
2000047700,Figaro's Pizza,52129 Columbia River Hwy,SCAPPOOSE,OR,97056,United States of America,5035436780.0,figaros_pizza
1000820466,Pizza Hut,8335 SW Tonka St,TUALATIN,OR,97062-9087,United States of America,5036910821.0,pizza_hut
1000961273,Sbarro,700 SW 5th Ave,PORTLAND,OR,97204-2040,United States of America,5032744698.0,sbarro
2000376759,Pizza Schmizza,7413 Sw Bridgeport Rd,TIGARD,OR,97224-7726,United States of America,5039926237.0,pizza_schmizza
2000047738,Figaro's Pizza,2770 S Santiam Hwy,LEBANON,OR,97355-3863,United States of America,5414511141.0,figaros_pizza
1000839397,Little Caesars Pizza,1711 Willamette St,EUGENE,OR,97401-4593,United States of America,5413433330.0,little_caesars_pizza
2000225208,Pizza Schmizza Pub & Grub,10522 Highway 62,EAGLE POINT,OR,97524-9433,United States of America,5418793000.0,pizza_schmizza_pub_&_grub
2000015502,Pizza Hut,1826 Austin St,KLAMATH FALLS,OR,97603-4643,United States of America,5418849070.0,pizza_hut
1000857331,Godfather's Pizza,321 Auburn Way N,AUBURN,WA,98002-5008,United States of America,2538331772.0,godfathers_pizza
1000812786,Pizza Hut,2743 E Madison St,SEATTLE,WA,98112-4775,United States of America,,pizza_hut
2000173242,Little Caesars Pizza,8014 Lake City Way NE,SEATTLE,WA,98115,United States of America,2062992243.0,little_caesars_pizza
2000173243,Little Caesars Pizza,3820 Rainier Ave S,SEATTLE,WA,98118,United States of America,2067222242.0,little_caesars_pizza
1000911495,Domino's,13450 1st Ave S,BURIEN,WA,98168-2625,United States of America,2062483030.0,dominos
1000839060,Godfather's Pizza,1700 SE Mile Hill Dr,PORT ORCHARD,WA,98366-3553,United States of America,3608769296.0,godfathers_pizza
1000845415,Godfather's Pizza,2100 SE 164th Ave,VANCOUVER,WA,98683,United States of America,3602560000.0,godfathers_pizza
2000047772,Figaro's Pizza,7007 Burden Blvd,PASCO,WA,99301,United States of America,5095451088.0,figaros_pizza
1000872256,Godfather's Pizza,560 D St,FORT RICHARDSON,AK,99505,United States of America,9074284005.0,godfathers_pizza
