Store Company ID,Company Name,Address 1,City,State,Zip,Country,Phone,company_name
2000407378,Papa John's Pizza,670 Broadway St,CHICOPEE,MA,01020-2415,United States of America,4133313965.0,papa_johns_pizza
2000242724,Little Caesars Pizza,459 E Main St,WESTFIELD,MA,01085-3312,United States of America,4135623333.0,little_caesars_pizza
2000329435,Papa John's Pizza,1490 Allen St,SPRINGFIELD,MA,01118-1817,United States of America,4133639616.0,papa_johns_pizza
2000329689,Papa John's Pizza,856 State Rd,NORTH ADAMS,MA,01247-3027,United States of America,4136637272.0,papa_johns_pizza
1000861045,Papa Gino's Pizzeria,372 Union St,ASHLAND,MA,01721-2154,United States of America,5088812112.0,papa_ginos_pizzeria
1000888071,Papa Gino's Pizzeria,94 Medway Rd,MILFORD,MA,01757-2906,United States of America,5084787706.0,papa_ginos_pizzeria
1000888328,Papa Gino's Pizzeria,117 Great Rd,STOW,MA,01775-1191,United States of America,9788979101.0,papa_ginos_pizzeria
1000860226,Papa Gino's Pizzeria,360 Cambridge Rd,WOBURN,MA,01801-6037,United States of America,7819355022.0,papa_ginos_pizzeria
1000822491,Chuck E. Cheese's,10 Wall St,BURLINGTON,MA,01803-4749,United States of America,7812292024.0,chuck_e_cheeses
1000854642,Papa Gino's Pizzeria,3 Ferry St,BRADFORD,MA,01835-7441,United States of America,9783725400.0,papa_ginos_pizzeria
2000183072,Papa John's Pizza,49 Jackson St,METHUEN,MA,01844-5044,United States of America,9786857272.0,papa_johns_pizza
1000872745,D'Angelo Grilled Sandwiches,573 High St,DEDHAM,MA,02026-1858,United States of America,7813296650.0,dangelo_grilled_sandwiches
2000329381,Papa John's Pizza,111 Lenox St,NORWOOD,MA,02062-4279,United States of America,7814400280.0,papa_johns_pizza
1000966924,Papa John's Pizza,971 Tremont St,BOSTON,MA,02120-2270,United States of America,6179047272.0,papa_johns_pizza
1000932421,Papa John's Pizza,1224 Dorchester Ave,DORCHESTER,MA,02125-1518,United States of America,6172880088.0,papa_johns_pizza
2000447216,Papa John's Pizza,522 River St,MATTAPAN,MA,02126-3014,United States of America,6173229698.0,papa_johns_pizza
2000182608,Sbarro,1 Harborside Dr,BOSTON,MA,02128-2907,United States of America,6175695409.0,sbarro
2000629827,PizzaRev,100 Cambridge St,CAMBRIDGE,MA,02141-1819,United States of America,8578293135.0,pizzarev
2000463202,Little Caesars Pizza,983 Broadway,EVERETT,MA,02149-3144,United States of America,6172948862.0,little_caesars_pizza
1000867735,Papa Gino's Pizzeria,100 Granite St,QUINCY,MA,02169-5043,United States of America,6177869088.0,papa_ginos_pizzeria
2000329651,Papa John's Pizza,657 Southern Artery,QUINCY,MA,02169-5645,United States of America,6174815373.0,papa_johns_pizza
2000002701,Papa Gino's Pizzeria,17 Airport Rd,WARWICK,RI,02889-1001,United States of America,4014902972.0,papa_ginos_pizzeria
1000851483,Papa Gino's Pizzeria,261 Daniel Webster Hwy,NASHUA,NH,03060-5740,United States of America,6038887662.0,papa_ginos_pizzeria
2000172874,Little Caesars Pizza,200 S Main St,WEST LEBANON,NH,03784-2014,United States of America,6032987386.0,little_caesars_pizza
1000854697,Chuck E. Cheese's,30 Fox Run Rd,NEWINGTON,NH,03801-2810,United States of America,6034311367.0,chuck_e_cheeses
2000464177,Pizza Hut,1855 Woodbury Ave,PORTSMOUTH,NH,03801-3228,United States of America,6034317577.0,pizza_hut
1000939603,Papa John's Pizza,190 Bath Rd,BRUNSWICK,ME,04011-2617,United States of America,2077219990.0,papa_johns_pizza
1000929476,Papa John's Pizza,1053 Forest Ave,PORTLAND,ME,04103-3380,United States of America,2078789100.0,papa_johns_pizza
2000463937,Pizza Hut,190 Waterman Dr,SOUTH PORTLAND,ME,04106-3633,United States of America,2077990455.0,pizza_hut
2000172757,Little Caesars Pizza,1 Chandler Dr,BATH,ME,04530-1522,United States of America,2073894323.0,little_caesars_pizza
1000808229,Pizza Hut,15 Belmont Ave,BELFAST,ME,04915-6864,United States of America,2079307272.0,pizza_hut
2000424801,Pizza Hut,166 Sycamore St,WILLISTON,VT,05495-8217,United States of America,8028575419.0,pizza_hut
2000424800,Pizza Hut,60 Commons Dr,NEWPORT,VT,05855-4534,United States of America,8023347272.0,pizza_hut
2000463573,Pizza Hut,1086 Silas Deane Hwy,WETHERSFIELD,CT,06109-4231,United States of America,8605630000.0,pizza_hut
2000463571,Pizza Hut,360 Queen St,SOUTHINGTON,CT,06489-1883,United States of America,8606288999.0,pizza_hut
2000242723,Little Caesars Pizza,454 Whalley Ave,NEW HAVEN,CT,06511-3012,United States of America,2037529797.0,little_caesars_pizza
1000909392,Domino's,1088 Boston Post Rd,WEST HAVEN,CT,06516-2248,United States of America,2039375355.0,dominos
2000334420,Villa Fresh Italian Kitchen,495 Union St,WATERBURY,CT,06706-1292,United States of America,2035284711.0,villa_fresh_italian_kitchen
2000041220,California Pizza Kitchen,230 Tresser Blvd,STAMFORD,CT,06901-3526,United States of America,2034060530.0,california_pizza_kitchen
1000808559,Pizza Hut,1545 US Highway 46,FORT LEE,NJ,07024-2117,United States of America,2015926611.0,pizza_hut
1000923971,Domino's,648 Bloomfield Ave,VERONA,NJ,07044-1804,United States of America,9738570600.0,dominos
2000464188,Pizza Hut,250 Central Ave,NEWARK,NJ,07103-4201,United States of America,9737327888.0,pizza_hut
1000821408,Pizza Hut,950 State Rt 17,RAMSEY,NJ,07446-1607,United States of America,2018184651.0,pizza_hut
2000334436,Bananas Ultimate Juice Bar,1 Premium Outlet Blvd,TINTON FALLS,NJ,07753-7469,United States of America,7324930501.0,bananas_ultimate_juice_bar
1000806912,Pizza Hut,124 Water St,NEWTON,NJ,07860-1415,United States of America,9735792261.0,pizza_hut
1000898257,Villa Fresh Italian Kitchen,301 Mount Hope Ave,ROCKAWAY,NJ,07866-2117,United States of America,9739894266.0,villa_fresh_italian_kitchen
2000464198,Pizza Hut,5361 Route 42,TURNERSVILLE,NJ,08012-1054,United States of America,,pizza_hut
1000815016,Pizza Hut,3820 Route 42,TURNERSVILLE,NJ,08012-1717,United States of America,8568758802.0,pizza_hut
1000941159,Papa John's Pizza,203 Scotch Rd,EWING,NJ,08628-2511,United States of America,6095300860.0,papa_johns_pizza
2000640255,Sbarro,885 8th Ave,NEW YORK,NY,10019-5761,United States of America,9173832110.0,sbarro
1000953198,Papa John's Pizza,4221 Broadway,WASHINGTON HEIGHTS,NY,10033,United States of America,2127957272.0,papa_johns_pizza
1000932997,Papa John's Pizza,1267 Forest Ave,STATEN ISLAND,NY,10302-2311,United States of America,7189817272.0,papa_johns_pizza
2000012668,Little Caesars Pizza,3044 3rd Ave,BRONX,NY,10451-4799,United States of America,6463935206.0,little_caesars_pizza
2000172904,Little Caesars Pizza,496 E 138th St,BRONX,NY,10454-3199,United States of America,9177377793.0,little_caesars_pizza
2000172900,Little Caesars Pizza,3572 White Plains Rd,BRONX,NY,10467-5711,United States of America,7187086381.0,little_caesars_pizza
2000393654,Little Caesars Pizza,3533 Boston Rd,BRONX,NY,10469-2523,United States of America,3474270878.0,little_caesars_pizza
2000183153,Papa John's Pizza,400 Route 211 E,MIDDLETOWN,NY,10940-2122,United States of America,8453437992.0,papa_johns_pizza
1000881515,Chuck E. Cheese's,8 Orange Plaza Ln,MIDDLETOWN,NY,10940-2247,United States of America,8453425781.0,chuck_e_cheeses
2000464260,Pizza Hut,816 State Route 17M,MONROE,NY,10950-2619,United States of America,8457827823.0,pizza_hut
2000464257,Pizza Hut,3302 21st St,LONG IS CITY,NY,11106-4239,United States of America,7187771070.0,pizza_hut
1000965815,Papa John's Pizza,9060 Fort Hamilton Pkwy,BROOKLYN,NY,11209-6409,United States of America,7184927272.0,papa_johns_pizza
2000172908,Little Caesars Pizza,9716 Seaview Ave,BROOKLYN,NY,11236-5516,United States of America,3477024226.0,little_caesars_pizza
2000575032,Papa John's Pizza,15039 14th Ave,WHITESTONE,NY,11357-1817,United States of America,7187467272.0,papa_johns_pizza
2000242792,Little Caesars Pizza,8404 Astoria Blvd,EAST ELMHURST,NY,11370-1643,United States of America,3476124840.0,little_caesars_pizza
2000242580,Little Caesars Pizza,129 W Sunrise Hwy,FREEPORT,NY,11520-3559,United States of America,5166082795.0,little_caesars_pizza
2000629809,PizzaRev,2034 W Circle Dr,VALLEY STREAM,NY,11581,United States of America,5165990555.0,pizzarev
2000575564,Little Caesars Pizza,1137 Deer Park Ave,NORTH BABYLON,NY,11703-3110,United States of America,6315221722.0,little_caesars_pizza
2000464248,Pizza Hut,435 Walt Whitman Rd,HUNTINGTN STA,NY,11747-2106,United States of America,6315494044.0,pizza_hut
2000464255,Pizza Hut,3743 Hempstead Tpke,LEVITTOWN,NY,11756,United States of America,5167359300.0,pizza_hut
2000629800,PizzaRev,408 Jericho Tpke,SYOSSET,NY,11791-4509,United States of America,5169211777.0,pizzarev
1000821650,Pizza Hut,999 Old Country Rd,RIVERHEAD,NY,11901-2113,United States of America,6317273083.0,pizza_hut
2000087610,CiCi's Pizza,145 Wolf Rd,ALBANY,NY,12205-1125,United States of America,5186508589.0,cicis_pizza
1000907903,Villa Fresh Italian Kitchen,737 Albany Shaker Rd,ALBANY,NY,12211-1000,United States of America,5182422422.0,villa_fresh_italian_kitchen
1000970357,Bananas Ultimate Juice Bar,737 Albany Shaker Rd,ALBANY,NY,12211-1000,United States of America,5182422423.0,bananas_ultimate_juice_bar
2000172941,Little Caesars Pizza,1715 Union St,SCHENECTADY,NY,12309-6221,United States of America,5189825300.0,little_caesars_pizza
2000616127,Little Caesars Pizza,553 Albany Ave,KINGSTON,NY,12401-2134,United States of America,8455142252.0,little_caesars_pizza
2000463130,Domino's,1582 Route 9,WAPPINGERS FALLS,NY,12590-2821,United States of America,,dominos
2000329463,Papa John's Pizza,187 Church St,POUGHKEEPSIE,NY,12601-4114,United States of America,8454737272.0,papa_johns_pizza
2000464291,Pizza Hut,28 Raymond Ave,POUGHKEEPSIE,NY,12603-2318,United States of America,8454851445.0,pizza_hut
1000866770,Little Caesars Pizza,459 State Route 3,PLATTSBURGH,NY,12901,United States of America,5185618678.0,little_caesars_pizza
2000464256,Pizza Hut,659 Old Liverpool Rd,LIVERPOOL,NY,13088-6032,United States of America,3154572100.0,pizza_hut
2000393814,Sbarro,311 Waverly Ave,SYRACUSE,NY,13210-2422,United States of America,3154433113.0,sbarro
1000955785,Papa John's Pizza,500 Westcott St,SYRACUSE,NY,13210-2549,United States of America,3154747272.0,papa_johns_pizza
2000464261,Pizza Hut,315 N Main St,N SYRACUSE,NY,13212-1643,United States of America,3154521122.0,pizza_hut
1000959177,Papa John's Pizza,609 S Main St,SYRACUSE,NY,13212-3614,United States of America,3152140670.0,papa_johns_pizza
2000182594,Sbarro,Brockway Food Ct,SYRACUSE,NY,13244-0001,United States of America,3154433060.0,sbarro
2000182596,Sbarro,Carrier Dome Kiosk,SYRACUSE,NY,13244-0001,United States of America,3154433113.0,sbarro
2000344107,Sbarro,Goldstein Student Center,SYRACUSE,NY,13244-0001,United States of America,3154434020.0,sbarro
2000464295,Pizza Hut,1917 Black River Blvd N,ROME,NY,13440-2429,United States of America,3153393151.0,pizza_hut
2000405691,Marco's Pizza,510 N James St,ROME,NY,13440-4216,United States of America,3153360001.0,marcos_pizza
2000591075,CiCi's Pizza,26185 US Route 11,EVANS MILLS,NY,13637-3257,United States of America,3156296242.0,cicis_pizza
2000172932,Little Caesars Pizza,637 State St,OGDENSBURG,NY,13669-2651,United States of America,3157134527.0,little_caesars_pizza
2000464240,Pizza Hut,168 Quaker Rd,EAST AURORA,NY,14052-2101,United States of America,7166551810.0,pizza_hut
2000405789,Marco's Pizza,8529 Niagara Falls Blvd,NIAGARA FALLS,NY,14304-2548,United States of America,7162971116.0,marcos_pizza
2000464227,Pizza Hut,310 West Ave,ALBION,NY,14411-1523,United States of America,5855895181.0,pizza_hut
1000963253,Papa John's Pizza,785 Fairport Rd,EAST ROCHESTER,NY,14445-1929,United States of America,5853836000.0,papa_johns_pizza
2000464243,Pizza Hut,46 Perinton Hills Mall,FAIRPORT,NY,14450-3621,United States of America,5852232280.0,pizza_hut
2000464269,Pizza Hut,123 N Main St,NEWARK,NY,14513,United States of America,3155551234.0,pizza_hut
2000464270,Pizza Hut,234 Main Street,NEWARK,NY,14513,United States of America,3156661234.0,pizza_hut
2000464271,Pizza Hut,345 Main Street,NEWARK,NY,14513,United States of America,3157771234.0,pizza_hut
2000464272,Pizza Hut,456 Main Street,NEWARK,NY,14513,United States of America,3158881234.0,pizza_hut
2000464273,Pizza Hut,567 Main Street,NEWARK,NY,14513,United States of America,3154441234.0,pizza_hut
2000464274,Pizza Hut,678 Main Street,NEWARK,NY,14513,United States of America,3153331234.0,pizza_hut
2000464275,Pizza Hut,765 Main Street,NEWARK,NY,14513,United States of America,3151234567.0,pizza_hut
2000464276,Pizza Hut,7654 Main Street,NEWARK,NY,14513,United States of America,3153214567.0,pizza_hut
2000464277,Pizza Hut,789 Main Street,NEWARK,NY,14513,United States of America,3152221234.0,pizza_hut
2000464278,Pizza Hut,8765 Main St,NEWARK,NY,14513,United States of America,3153213456.0,pizza_hut
2000464279,Pizza Hut,890 Main Street,NEWARK,NY,14513,United States of America,3151111234.0,pizza_hut
2000464280,Pizza Hut,9011 Main St,NEWARK,NY,14513,United States of America,3153211234.0,pizza_hut
2000464281,Pizza Hut,987 Main Street,NEWARK,NY,14513,United States of America,3151232345.0,pizza_hut
2000464282,Pizza Hut,9876 Main St,NEWARK,NY,14513,United States of America,3153212345.0,pizza_hut
1000887254,Little Caesars Pizza,975 Ridge Rd,WEBSTER,NY,14580-2972,United States of America,5852161215.0,little_caesars_pizza
1000937657,Papa John's Pizza,1673 E Main St,ROCHESTER,NY,14609-7009,United States of America,5852887272.0,papa_johns_pizza
1000962468,Papa John's Pizza,741 Maiden Ln,GREECE,NY,14615-1229,United States of America,5858657000.0,papa_johns_pizza
1000938526,Papa John's Pizza,1754 Mount Hope Ave,ROCHESTER,NY,14620-4546,United States of America,5854737000.0,papa_johns_pizza
2000464293,Pizza Hut,1703 Crittenden Rd,ROCHESTER,NY,14623-1411,United States of America,5852721880.0,pizza_hut
1000942394,Papa John's Pizza,2177 E Henrietta Rd,ROCHESTER,NY,14623-4517,United States of America,5853211100.0,papa_johns_pizza
2000241833,Marco's Pizza,607 N Main St,JAMESTOWN,NY,14701-5029,United States of America,7164880022.0,marcos_pizza
2000464285,Pizza Hut,3015 Nys Route 417,OLEAN,NY,14760-1832,United States of America,7163726969.0,pizza_hut
2000254297,Fox's Pizza Den,38 N Main St,ALFRED,NY,14802-1032,United States of America,6075878883.0,foxs_pizza_den
2000464287,Pizza Hut,96 Victory Hwy,PAINTED POST,NY,14870-1007,United States of America,6079620166.0,pizza_hut
1000812160,Pizza Hut,2493 Corning Rd,ELMIRA,NY,14903-1049,United States of America,6077390458.0,pizza_hut
2000329446,Papa John's Pizza,161 Prescott Ave,ELMIRA HEIGHTS,NY,14903-1738,United States of America,6078737272.0,papa_johns_pizza
1000857022,Fox's Pizza Den,3181 Washington Pike,BRIDGEVILLE,PA,15017-1423,United States of America,4122216040.0,foxs_pizza_den
1000824253,Little Caesars Pizza,1025 Washington Pike,BRIDGEVILLE,PA,15017-2702,United States of America,4122573372.0,little_caesars_pizza
2000463241,Little Caesars Pizza,1309 Pittsburgh St,CHESWICK,PA,15024-1461,United States of America,7244107928.0,little_caesars_pizza
2000012615,Little Caesars Pizza,1878 Union Ave,NATRONA HEIGHTS,PA,15065-2201,United States of America,7242261490.0,little_caesars_pizza
1000820197,Pizza Hut,810 Ohio River Blvd,ROCHESTER,PA,15074-1414,United States of America,7247754000.0,pizza_hut
2000027244,Little Caesars Pizza,1160 Washington Ave,CARNEGIE,PA,15106-3648,United States of America,4124291435.0,little_caesars_pizza
2000342056,Fox's Pizza Den,1746 William Flynn Hwy,GLENSHAW,PA,15116-1739,United States of America,4122133085.0,foxs_pizza_den
2000241842,Marco's Pizza,335 Plummer Ave,PITTSBURGH,PA,15202-1735,United States of America,8038347033.0,marcos_pizza
2000173047,Little Caesars Pizza,5430 Centre Ave,PITTSBURGH,PA,15232-1622,United States of America,4126888778.0,little_caesars_pizza
1000888926,Bananas Ultimate Juice Bar,301 S Hills Vlg,PITTSBURGH,PA,15241-1400,United States of America,4128541130.0,bananas_ultimate_juice_bar
2000001188,Fox's Pizza Den,777 McClellandtown Rd,UNIONTOWN,PA,15401-5053,United States of America,7244384110.0,foxs_pizza_den
1000822793,Fox's Pizza Den,106 Westpoint Dr,GREENSBURG,PA,15601-5965,United States of America,7246000160.0,foxs_pizza_den
2000498582,Fox's Pizza Den,10729 State Route 30,NORTH HUNTINGDON,PA,15642-2047,United States of America,7245905125.0,foxs_pizza_den
1000828695,D'Angelo Grilled Sandwiches,118 E Main St,WEBSTER,MA,1570,United States of America,5089431633.0,dangelo_grilled_sandwiches
1000824347,Fox's Pizza Den,103 E Market St,BLAIRSVILLE,PA,15717-1325,United States of America,7244590110.0,foxs_pizza_den
1000876854,Fox's Pizza Den,670 Franklin St,CLYMER,PA,15728-1184,United States of America,7242549500.0,foxs_pizza_den
1000864264,Fox's Pizza Den,957 5th Ave,BROCKWAY,PA,15824-1307,United States of America,8142658889.0,foxs_pizza_den
2000254301,Fox's Pizza Den,1838 Goucher St,JOHNSTOWN,PA,15905-9500,United States of America,8145391212.0,foxs_pizza_den
1000868253,Little Caesars Pizza,491 Allegheny Blvd,FRANKLIN,PA,16323-2975,United States of America,8144379221.0,little_caesars_pizza
2000001195,Fox's Pizza Den,1751 Market St,WARREN,PA,16365-1217,United States of America,8147236040.0,foxs_pizza_den
1000876848,Fox's Pizza Den,25 E High St,UNION CITY,PA,16438-1054,United States of America,8144383697.0,foxs_pizza_den
2000464440,Pizza Hut,925 State St,ERIE,PA,16501-1405,United States of America,8144553141.0,pizza_hut
1000950381,Papa John's Pizza,3546 W 12th St,ERIE,PA,16505-3654,United States of America,8148368282.0,papa_johns_pizza
1000861639,Little Caesars Pizza,3824 Liberty St,ERIE,PA,16509,United States of America,8148688611.0,little_caesars_pizza
2000640256,Sbarro,3620 Capital City Mall Dr,CAMP HILL,PA,17011-7017,United States of America,7177249547.0,sbarro
1000948853,Papa John's Pizza,322 E Penn Dr,ENOLA,PA,17025-2158,United States of America,7172147070.0,papa_johns_pizza
1000811613,Pizza Hut,2298 W Harrisburg Pike,MIDDLETOWN,PA,17057-4922,United States of America,7179441437.0,pizza_hut
2000614257,Pie Five Pizza,580 Walker Rd,CHAMBERSBURG,PA,17201-3541,United States of America,7177533446.0,pie_five_pizza
2000425608,Little Caesars Pizza,680 Shrewsbury Commons Ave,SHREWSBURY,PA,17361-1617,United States of America,7179425988.0,little_caesars_pizza
2000640257,Sbarro,2899 Whiteford Rd,YORK,PA,17402-8902,United States of America,7177555758.0,sbarro
2000614258,Pie Five Pizza,890 Loucks Rd,YORK,PA,17404-1928,United States of America,7174304198.0,pie_five_pizza
2000393682,Little Caesars Pizza,846 Lancaster Ave,COLUMBIA,PA,17512-2206,United States of America,7176812322.0,little_caesars_pizza
1000947207,Papa John's Pizza,3 Iron St,BLOOMSBURG,PA,17815,United States of America,5703871100.0,papa_johns_pizza
2000198778,South Philly Steaks & Fries,77 Sands Blvd,BETHLEHEM,PA,18015-7705,United States of America,9737752086.0,south_philly_steaks_&_fries
2000464427,Pizza Hut,2140 Stefko Blvd,BETHLEHEM,PA,18017-5447,United States of America,6108673200.0,pizza_hut
2000464439,Pizza Hut,1649 Washington Blvd,EASTON,PA,18042-5497,United States of America,6102531313.0,pizza_hut
2000424738,Pizza Hut,4041 Route 309,SCHNECKSVILLE,PA,18078-2578,United States of America,6107603210.0,pizza_hut
2000424734,Pizza Hut,1454 Pennsylvania Ave,ALLENTOWN,PA,18109-3109,United States of America,6103171692.0,pizza_hut
1000868682,Little Caesars Pizza,5 Laurel Mall,HAZLE TOWNSHIP,PA,18202-1201,United States of America,5704555803.0,little_caesars_pizza
2000425579,Little Caesars Pizza,Us Route 6,HONESDALE,PA,18431,United States of America,5702531362.0,little_caesars_pizza
2000464474,Pizza Hut,RR 6,SCRANTON,PA,18508,United States of America,5709690940.0,pizza_hut
2000464450,Pizza Hut,520 Market St,KINGSTON,PA,18704,United States of America,5702876302.0,pizza_hut
2000393700,Little Caesars Pizza,1331 Easton Rd,ABINGTON,PA,19001-2426,United States of America,2152771920.0,little_caesars_pizza
2000464431,Pizza Hut,300 Baltimore Pike,CLIFTON HEIGHTS,PA,19018,United States of America,6102599400.0,pizza_hut
2000464444,Pizza Hut,835 Bethlehem Pike,FLOURTOWN,PA,19031-1116,United States of America,2152335536.0,pizza_hut
1000932930,Papa John's Pizza,126 Morton Ave,FOLSOM,PA,19033-2510,United States of America,6105225500.0,papa_johns_pizza
2000393689,Little Caesars Pizza,291 E County Line Rd,HATBORO,PA,19040-1202,United States of America,2153234240.0,little_caesars_pizza
2000464442,Pizza Hut,7 Victor Plaza,FEASTERVILLE,PA,19053,United States of America,2153557477.0,pizza_hut
2000464484,Pizza Hut,424 Old York Rd,WILLOW GROVE,PA,19090,United States of America,2157849000.0,pizza_hut
2000393681,Little Caesars Pizza,1415 City Ave,WYNNEWOOD,PA,19096-3820,United States of America,4844176114.0,little_caesars_pizza
2000464465,Pizza Hut,716 Adams Ave,PHILADELPHIA,PA,19124-2318,United States of America,2155331110.0,pizza_hut
2000329562,Papa John's Pizza,3621 Aramingo Ave,PHILADELPHIA,PA,19134-4607,United States of America,2157447272.0,papa_johns_pizza
2000393687,Little Caesars Pizza,5816 Woodland Ave,PHILADELPHIA,PA,19143-5918,United States of America,2157299000.0,little_caesars_pizza
1000812727,Pizza Hut,2715 S Front St,PHILADELPHIA,PA,19148-4838,United States of America,2152713400.0,pizza_hut
2000198801,Villa Fresh Italian Kitchen,8500 Essington Ave,PHILADELPHIA,PA,19153-3755,United States of America,2153653992.0,villa_fresh_italian_kitchen
1000885530,Chuck E. Cheese's,911 E Lancaster Ave,DOWNINGTOWN,PA,19335-3328,United States of America,6108738824.0,chuck_e_cheeses
2000464481,Pizza Hut,907 S High St,WEST CHESTER,PA,19382-5416,United States of America,6104368202.0,pizza_hut
2000626177,Anthony's Coal Fired Pizza,990 Dekalb Pike,BLUE BELL,PA,19422-1810,United States of America,,anthonys_coal_fired_pizza
1000829756,Chuck E. Cheese's,1210 Bethlehem Pike,NORTH WALES,PA,19454-1323,United States of America,2156530616.0,chuck_e_cheeses
1000849047,Little Caesars Pizza,240 E Delaware Ave,NEWARK,DE,19711-4655,United States of America,3022243880.0,little_caesars_pizza
1000918776,Domino's,3301 Lancaster Pike,WILMINGTON,DE,19805-1436,United States of America,3028883030.0,dominos
2000632540,zpizza,806 H St NW,WASHINGTON,DC,20001-3708,United States of America,2023478472.0,zpizza
2000182990,Papa John's Pizza,3548 E Capitol St NE,WASHINGTON,DC,20019-1253,United States of America,2023967272.0,papa_johns_pizza
1000815115,Pizza Hut,3905 Dix St NE,WASHINGTON,DC,20019-1405,United States of America,2023885000.0,pizza_hut
1000919699,Domino's,3780 Minnesota Ave NE,WASHINGTON,DC,20019-2667,United States of America,2023969500.0,dominos
2000345615,Pie Five Pizza,429 Lenfant Plz SW,WASHINGTON,DC,20022,United States of America,2024843300.0,pie_five_pizza
2000632584,zpizza,12817 Galveston Ct,MANASSAS,VA,20112-8676,United States of America,7035808100.0,zpizza
2000443385,Domino's,Nissan Pavillion At Stoneridge,BRISTOW,VA,20136,United States of America,,dominos
2000626813,Boston's The Gourmet Pizza Restaurant & Sports Bar,42841 Creek View Plz,ASHBURN,VA,20147-4041,United States of America,7038589744.0,bostons_the_gourmet_pizza_restaurant_&_sports_bar
2000242588,Little Caesars Pizza,13963 Metrotech Dr,CHANTILLY,VA,20151-3240,United States of America,7036572977.0,little_caesars_pizza
2000632542,zpizza,7929 Heritage Village Plz,GAINESVILLE,VA,20155-3077,United States of America,7037537492.0,zpizza
2000060578,Vocelli Pizza,46005 Regal Plz,STERLING,VA,20165-6159,United States of America,7034061770.0,vocelli_pizza
2000060588,Vocelli Pizza,484 Blackwell Rd,WARRENTON,VA,20186-2656,United States of America,5403495031.0,vocelli_pizza
2000060565,Vocelli Pizza,12026 N Shore Dr,RESTON,VA,20190-4987,United States of America,7034718008.0,vocelli_pizza
1000821502,Pizza Hut,9700 Fort Meade Rd,LAUREL,MD,20707-4406,United States of America,3017760777.0,pizza_hut
2000393586,Little Caesars Pizza,5915 Martin Luther King Jr Hwy,CAPITOL HEIGHTS,MD,20743-1716,United States of America,3013330637.0,little_caesars_pizza
2000242755,Little Caesars Pizza,6069 Oxon Hill Rd,OXON HILL,MD,20745-3124,United States of America,3016860066.0,little_caesars_pizza
2000172740,Little Caesars Pizza,5850 Silver Hill Rd,DISTRICT HEIGHTS,MD,20747-1103,United States of America,3015681870.0,little_caesars_pizza
2000172753,Little Caesars Pizza,3907 Branch Ave,TEMPLE HILLS,MD,20748-1641,United States of America,3017020737.0,little_caesars_pizza
2000172754,Little Caesars Pizza,7061 Allentown Rd,TEMPLE HILLS,MD,20748-5301,United States of America,3014330847.0,little_caesars_pizza
2000443090,Domino's,2790 MacArthur Rd,FORT MEADE,MD,20755-7033,United States of America,4103058808.0,dominos
2000628630,Mellow Mushroom,33 Maryland Ave,ROCKVILLE,MD,20850-0315,United States of America,3012942222.0,mellow_mushroom
1000807693,Pizza Hut,13886 Old Columbia Pike,SILVER SPRING,MD,20904-4554,United States of America,3019890333.0,pizza_hut
1000833493,Chuck E. Cheese's,13807 Outlet Dr,SILVER SPRING,MD,20904-4971,United States of America,3018906767.0,chuck_e_cheeses
2000632539,zpizza,815 Ellsworth Dr,SILVER SPRING,MD,20910-4438,United States of America,3015885500.0,zpizza
2000626815,Boston's The Gourmet Pizza Restaurant & Sports Bar,3459 Merchants Blvd,ABINGDON,MD,21009-2020,United States of America,4105698094.0,bostons_the_gourmet_pizza_restaurant_&_sports_bar
2000463922,Pizza Hut,708 Baltimore Pike,BEL AIR,MD,21014-4222,United States of America,4108380393.0,pizza_hut
2000407377,Papa John's Pizza,3147 Solomons Island Rd,EDGEWATER,MD,21037-1707,United States of America,4109567499.0,papa_johns_pizza
2000393585,Little Caesars Pizza,1018 Pulaski Hwy,HAVRE DE GRACE,MD,21078-2604,United States of America,4109390500.0,little_caesars_pizza
2000242643,Little Caesars Pizza,2080 York Rd,TIMONIUM,MD,21093-4251,United States of America,4106289500.0,little_caesars_pizza
2000463933,Pizza Hut,140 Village Shpg Ctr,WESTMINSTER,MD,21157,United States of America,4108486063.0,pizza_hut
2000463934,Pizza Hut,590 Jermor Ln,WESTMINSTER,MD,21157-6126,United States of America,4108485252.0,pizza_hut
2000626806,Boston's The Gourmet Pizza Restaurant & Sports Bar,819 E Pratt St,BALTIMORE,MD,21202,United States of America,4434495559.0,bostons_the_gourmet_pizza_restaurant_&_sports_bar
1000951060,Papa John's Pizza,3735 Eastern Ave,BALTIMORE,MD,21224-4208,United States of America,4107327722.0,papa_johns_pizza
2000383604,Villa Fresh Italian Kitchen,Bwi T Marshal Int'L Airport,BALTIMORE,MD,21240,United States of America,4108504846.0,villa_fresh_italian_kitchen
1000829796,CiCi's Pizza,12101 Winchester Rd,CUMBERLAND,MD,21502-7613,United States of America,3017295262.0,cicis_pizza
2000329539,Papa John's Pizza,309 Sunburst Hwy,CAMBRIDGE,MD,21613-2051,United States of America,4102287272.0,papa_johns_pizza
2000328090,Pie Five Pizza,200 Shorebird St,FREDERICK,MD,21701-1960,United States of America,3016241100.0,pie_five_pizza
2000200007,Papa Murphy's Take 'N' Bake Pizza,911 W 7th St,FREDERICK,MD,21701-8527,United States of America,2405759200.0,papa_murphys_take_n_bake_pizza
1000817395,Pizza Hut,5420 Urbana Pike,FREDERICK,MD,21704-7332,United States of America,3016947888.0,pizza_hut
1000804818,Pizza Hut,100 Railway Ln,HAGERSTOWN,MD,21740-6912,United States of America,3017912100.0,pizza_hut
2000200008,Papa Murphy's Take 'N' Bake Pizza,18726 N Village,HAGERSTOWN,MD,21742-2454,United States of America,3017331670.0,papa_murphys_take_n_bake_pizza
2000463931,Pizza Hut,2413 N Salisbury Blvd,SALISBURY,MD,21801-2138,United States of America,4105725970.0,pizza_hut
2000242527,Little Caesars Pizza,4251 John Marr Dr,ANNANDALE,VA,22003-3205,United States of America,7039414073.0,little_caesars_pizza
2000632537,zpizza,8442 Lee Hwy,FAIRFAX,VA,22031-1503,United States of America,7032072380.0,zpizza
1000820716,Pizza Hut,8708 Little River Tpke,FAIRFAX,VA,22031-3311,United States of America,7035733300.0,pizza_hut
2000632593,zpizza,1051 W Broad St,FALLS CHURCH,VA,22046-4610,United States of America,7035366969.0,zpizza
2000632531,zpizza,9451 Lorton Market St,LORTON,VA,22079-1963,United States of America,7033721538.0,zpizza
2000632544,zpizza,6699B Frontier Dr,SPRINGFIELD,VA,22150-1420,United States of America,7033138181.0,zpizza
2000157449,Donatos Pizza,126 Branch Rd SE,VIENNA,VA,22180-4714,United States of America,7032812800.0,donatos_pizza
2000632569,zpizza,2710B Washington Blvd,ARLINGTON,VA,22201-1939,United States of America,7035282828.0,zpizza
2000009964,Domino's,1555 Wilson Blvd,ARLINGTON,VA,22209-2445,United States of America,7032761400.0,dominos
2000632566,zpizza,3217 Duke St,ALEXANDRIA,VA,22314-4533,United States of America,7036001193.0,zpizza
2000464724,Pizza Hut,2211 Plank Rd,FREDERICKSBURG,VA,22401-5226,United States of America,5403736769.0,pizza_hut
2000628560,Ledo Pizza,10000 Germanna Point Dr,FREDERICKSBURG,VA,22408-9543,United States of America,5408341009.0,ledo_pizza
1000963596,Sbarro,800 S Main St,HARRISONBURG,VA,22801-3104,United States of America,5405682944.0,sbarro
2000464729,Pizza Hut,78 S Carlton St,HARRISONBURG,VA,22801-4325,United States of America,5404340676.0,pizza_hut
1000872012,Godfather's Pizza,5534 Main St,MOUNT JACKSON,VA,22842-9508,United States of America,5404774000.0,godfathers_pizza
2000464716,Pizza Hut,1718 Seminole Trl,CHARLOTTESVILLE,VA,22901-1416,United States of America,4349731616.0,pizza_hut
2000464715,Pizza Hut,1551 E High St,CHARLOTTESVILLE,VA,22902-4950,United States of America,4349238090.0,pizza_hut
2000464717,Pizza Hut,2125 Ivy Rd,CHARLOTTESVILLE,VA,22903-1718,United States of America,4349795588.0,pizza_hut
2000310484,Pie Five Pizza,10921 W Broad St,GLEN ALLEN,VA,23060-5922,United States of America,8042707435.0,pie_five_pizza
2000464734,Pizza Hut,13166 Midlothian Tpke,MIDLOTHIAN,VA,23113-4245,United States of America,8043794466.0,pizza_hut
2000464759,Pizza Hut,14Th & Kirby St,WEST POINT,VA,23181,United States of America,8048433444.0,pizza_hut
2000464742,Pizza Hut,2903 Williamsburg Rd,RICHMOND,VA,23231-2125,United States of America,8042227000.0,pizza_hut
2000464745,Pizza Hut,8237 W Broad St,RICHMOND,VA,23294,United States of America,8042705942.0,pizza_hut
2000628485,Ledo Pizza,7052 Commons Plz,CHESTERFIELD,VA,23832-6453,United States of America,8044251003.0,ledo_pizza
1000878239,Little Caesars Pizza,703 Brandon Ave SW,ROANOKE,VA,24015-5005,United States of America,5403444411.0,little_caesars_pizza
2000464714,Pizza Hut,890 Kabrich St,BLACKSBURG,VA,24060-3343,United States of America,5405522970.0,pizza_hut
2000463258,Little Caesars Pizza,1200 S Main St,BLACKSBURG,VA,24060-5546,United States of America,5409511212.0,little_caesars_pizza
2000329361,Papa John's Pizza,10057 Franklin St,FERRUM,VA,24088-2605,United States of America,5403654500.0,papa_johns_pizza
2000464741,Pizza Hut,310 Norwood St,RADFORD,VA,24141,United States of America,7036391679.0,pizza_hut
2000033475,Pizza Hut,1060 by Pass Rd,VINTON,VA,24179-1807,United States of America,5409810059.0,pizza_hut
2000464738,Pizza Hut,999 Park Ave SW,NORTON,VA,24273-1820,United States of America,2766794818.0,pizza_hut
2000464753,Pizza Hut,704 N Coalter St,STAUNTON,VA,24401-3406,United States of America,5048858875.0,pizza_hut
2000464755,Pizza Hut,834 Greenville Ave,STAUNTON,VA,24401-4940,United States of America,5408858816.0,pizza_hut
1000880000,D'Angelo Grilled Sandwiches,75 3rd Ave,WALTHAM,MA,2451,United States of America,7812904740.0,dangelo_grilled_sandwiches
1000818936,Pizza Hut,691 W Main St,DANVILLE,VA,24541-4228,United States of America,4347996262.0,pizza_hut
1000887799,Fox's Pizza Den,10 Main St,OCEANA,WV,24870,United States of America,3046826600.0,foxs_pizza_den
2000464800,Pizza Hut,500 Maccorkle Ave,SAINT ALBANS,WV,25177,United States of America,3047224693.0,pizza_hut
2000610561,Fox's Pizza Den,709 Ruffner Ave,CHARLESTON,WV,25311-1923,United States of America,3043467992.0,foxs_pizza_den
1000831518,Little Caesars Pizza,1150 Winchester Ave,MARTINSBURG,WV,25401,United States of America,3042649040.0,little_caesars_pizza
2000195564,Godfather's Pizza,468 Stanaford Rd,BECKLEY,WV,25801-3158,United States of America,3042526034.0,godfathers_pizza
1000856493,Godfather's Pizza,35 Davis St,FAYETTEVILLE,WV,25840-1258,United States of America,3045746906.0,godfathers_pizza
1000863533,Fox's Pizza Den,408 Penco Rd,WEIRTON,WV,26062-3822,United States of America,3047233697.0,foxs_pizza_den
2000012696,Little Caesars Pizza,40 High St,MORGANTOWN,WV,26505-0172,United States of America,3043812338.0,little_caesars_pizza
1000888457,Fox's Pizza Den,Rte 28 S,FORT ASHBY,WV,26719,United States of America,3042984848.0,foxs_pizza_den
2000443121,Domino's,926 Brookstown Ave,WINSTON SALEM,NC,27101-3625,United States of America,3367689545.0,dominos
2000464155,Pizza Hut,4756 Country Club Rd,WINSTON SALEM,NC,27104-3522,United States of America,3367684093.0,pizza_hut
1000817864,Pizza Hut,5952 University Pkwy,WINSTON SALEM,NC,27105-1342,United States of America,3363772747.0,pizza_hut
2000591451,Marco's Pizza,984 S Main St,LEXINGTON,NC,27292-3132,United States of America,3362421354.0,marcos_pizza
2000464149,Pizza Hut,920 Randolph St,THOMASVILLE,NC,27360-5748,United States of America,9104728477.0,pizza_hut
2000464105,Pizza Hut,1473 E Cone Blvd,GREENSBORO,NC,27405-4533,United States of America,3366215873.0,pizza_hut
1000844448,Little Caesars Pizza,203 E Chatham St,CARY,NC,27511-3427,United States of America,9194688888.0,little_caesars_pizza
2000464100,Pizza Hut,914 Kildaire Farm Rd,CARY,NC,27511-3923,United States of America,9194675058.0,pizza_hut
2000631884,Toppers Pizza,306 W Franklin St,CHAPEL HILL,NC,27516-2541,United States of America,9199038880.0,toppers_pizza
2000136949,Marco's Pizza,1015 Davis Dr,APEX,NC,27523-8223,United States of America,9193878820.0,marcos_pizza
2000172849,Little Caesars Pizza,130 W Holly Springs Rd,HOLLY SPRINGS,NC,27540-7043,United States of America,9193461373.0,little_caesars_pizza
2000447237,Papa John's Pizza,333 S Bickett Blvd,LOUISBURG,NC,27549-2701,United States of America,9194961302.0,papa_johns_pizza
2000464144,Pizza Hut,720 Ricks Rd,SELMA,NC,27576-3214,United States of America,9199652446.0,pizza_hut
2000632557,zpizza,421 Fayetteville St,RALEIGH,NC,27601-1792,United States of America,9198380681.0,zpizza
2000155350,Jet's Pizza,6132 Falls of the Neuse Rd,RALEIGH,NC,27609,United States of America,9198722221.0,jets_pizza
2000631910,Toppers Pizza,1600 Ronald Dr,RALEIGH,NC,27609-6157,United States of America,,toppers_pizza
2000183614,Marco's Pizza,9101 Leesville Rd,RALEIGH,NC,27613-4091,United States of America,9198704446.0,marcos_pizza
1000903633,Villa Fresh Italian Kitchen,5959 Triangle Town Blvd,RALEIGH,NC,27616-3268,United States of America,9197922181.0,villa_fresh_italian_kitchen
2000041367,California Pizza Kitchen,5959 Triangle Town Blvd,RALEIGH,NC,27616-3303,United States of America,9197920333.0,california_pizza_kitchen
2000041086,California Pizza Kitchen,1025 Airside Dr,RALEIGH,NC,27623,United States of America,9198400506.0,california_pizza_kitchen
2000464102,Pizza Hut,1000 W Main St,DURHAM,NC,27701-2098,United States of America,9196833223.0,pizza_hut
1000870073,Little Caesars Pizza,5128 N Roxboro St,DURHAM,NC,27704-1496,United States of America,9194713300.0,little_caesars_pizza
2000626631,Blaze Pizza,5318 McFarland Rd,DURHAM,NC,27707-6862,United States of America,,blaze_pizza
2000027406,Little Caesars Pizza,3825 S Roxboro St,DURHAM,NC,27713-4701,United States of America,9193615280.0,little_caesars_pizza
1000824337,Pizza Inn,103 E Green St,MACCLESFIELD,NC,27852,United States of America,2528275587.0,pizza_inn
2000183098,Papa John's Pizza,1407 E Main St,CHERRYVILLE,NC,28021-8932,United States of America,7048024477.0,papa_johns_pizza
2000301452,Jet's Pizza,1229 Concord Pkwy N,CONCORD,NC,28025-4325,United States of America,7047215387.0,jets_pizza
2000633002,Papa Murphy's Take 'N' Bake Pizza,8301 Magnolia Estates Dr,CORNELIUS,NC,28031-8050,United States of America,7049978809.0,papa_murphys_take_n_bake_pizza
2000669465,Marco's Pizza,1802 S Cannon Blvd,KANNAPOLIS,NC,28083-6106,United States of America,7049253344.0,marcos_pizza
2000464122,Pizza Hut,204 Stanford Rd,LINCOLNTON,NC,28092-3997,United States of America,7047364850.0,pizza_hut
2000235994,Pie Five Pizza,1915 Matthews Township Pkwy,MATTHEWS,NC,28105-5049,United States of America,7048460422.0,pie_five_pizza
2000225023,Papa Murphy's Take 'N' Bake Pizza,654 River Hwy,MOORESVILLE,NC,28117-9213,United States of America,7047990051.0,papa_murphys_take_n_bake_pizza
1000878373,Little Caesars Pizza,706 E Dixon Blvd,SHELBY,NC,28152-6832,United States of America,7044870683.0,little_caesars_pizza
2000443110,Domino's,Charlotte Knights Stadium,CHARLOTTE,NC,28273,United States of America,,dominos
2000631924,Toppers Pizza,11318 N Community House Rd,CHARLOTTE,NC,28277-3421,United States of America,9802212266.0,toppers_pizza
2000634223,Brixx Wood Fired Pizza,310 Glensford Dr,FAYETTEVILLE,NC,28314-0943,United States of America,9103542226.0,brixx_wood_fired_pizza
2000023696,Papa John's Pizza,931 Sunset Ave,CLINTON,NC,28328-3815,United States of America,9105925151.0,papa_johns_pizza
2000195566,Godfather's Pizza,1010 E Broad Ave,ROCKINGHAM,NC,28379-4340,United States of America,9108955550.0,godfathers_pizza
1000850770,Little Caesars Pizza,2528 Castle Hayne Rd,WILMINGTON,NC,28401-2693,United States of America,9103431466.0,little_caesars_pizza
2000200028,Papa Murphy's Take 'N' Bake Pizza,1319 Military Cutoff Rd,WILMINGTON,NC,28405-3174,United States of America,9102567050.0,papa_murphys_take_n_bake_pizza
2000464117,Pizza Hut,578 11th St NW,HICKORY,NC,28601-3435,United States of America,8283221441.0,pizza_hut
2000200025,Papa Murphy's Take 'N' Bake Pizza,1509 29th Avenue Dr NE,HICKORY,NC,28601-7324,United States of America,8282563430.0,papa_murphys_take_n_bake_pizza
2000464115,Pizza Hut,216 Hwy 64-70 SW,HICKORY,NC,28602,United States of America,8283279788.0,pizza_hut
1000968653,Godfather's Pizza,1343 Rock Barn Rd NE,CONOVER,NC,28613-7565,United States of America,8284655256.0,godfathers_pizza
2000196569,Pizza Inn,2157 Old Mountain Rd,STATESVILLE,NC,28625-1631,United States of America,7048728899.0,pizza_inn
2000334465,Papa Murphy's Take 'N' Bake Pizza,1837 E Broad St,STATESVILLE,NC,28625-4344,United States of America,7048721050.0,papa_murphys_take_n_bake_pizza
1000854916,Little Caesars Pizza,300 Westgate Plz,FRANKLIN,NC,28734,United States of America,8283693617.0,little_caesars_pizza
1000812527,Pizza Hut,2619 Sweeten Creek Rd,ASHEVILLE,NC,28803-2033,United States of America,8282747177.0,pizza_hut
2000464499,Pizza Hut,2001 N Beltline Blvd,COLUMBIA,SC,29204-3975,United States of America,8037874444.0,pizza_hut
1000809447,Pizza Hut,1750 Remount Rd,CHARLESTON,SC,29406-3286,United States of America,8437441600.0,pizza_hut
2000464495,Pizza Hut,1738 Sam Rittenberg Blvd,CHARLESTON,SC,29407-4950,United States of America,8435566281.0,pizza_hut
2000464505,Pizza Hut,2701 W McLeod Blvd,FLORENCE,SC,29501,United States of America,8436792492.0,pizza_hut
2000259944,Hungry Howie's Pizza & Subs,1610 Business 17 S,SURFSIDE BEACH,SC,29575,United States of America,8434442000.0,hungry_howies_pizza_&_subs
1000821644,Pizza Hut,997 Highway 17 S,SURFSIDE BEACH,SC,29575-6050,United States of America,8432389923.0,pizza_hut
2000611668,Jet's Pizza,409 Mills Ave,GREENVILLE,SC,29605-4191,United States of America,8646057799.0,jets_pizza
2000304009,Papa Murphy's Take 'N' Bake Pizza,729 Stockbridge Dr,FORT MILL,SC,29708-7200,United States of America,8035471024.0,papa_murphys_take_n_bake_pizza
2000424822,Pizza Hut,1 Plaza Dr,HILTON HEAD ISLAND,SC,29926-3822,United States of America,8436818100.0,pizza_hut
1000814599,Pizza Hut,3523 Memorial Dr,DECATUR,GA,30032-2731,United States of America,4042889800.0,pizza_hut
1000812406,Pizza Hut,2581 Candler Rd,DECATUR,GA,30032-6502,United States of America,4042415506.0,pizza_hut
2000626717,Blaze Pizza,2125 N Decatur Rd,DECATUR,GA,30033-5307,United States of America,,blaze_pizza
2000301490,Jet's Pizza,3550 Centerville Hwy,SNELLVILLE,GA,30039-4133,United States of America,6783440288.0,jets_pizza
2000241859,Marco's Pizza,3375 Sugarloaf Pkwy,LAWRENCEVILLE,GA,30044-5498,United States of America,6784070007.0,marcos_pizza
2000628584,Mellow Mushroom,6135 Peachtree Pkwy,NORCROSS,GA,30092-3359,United States of America,7707291555.0,mellow_mushroom
2000241865,Marco's Pizza,3099 Breckinridge Blvd,DULUTH,GA,30096-1011,United States of America,6787015544.0,marcos_pizza
2000172535,Little Caesars Pizza,3455 Peachtree Industrial Blvd,DULUTH,GA,30096-6502,United States of America,7704764180.0,little_caesars_pizza
2000632588,zpizza,11720 Medlock Bridge Rd,DULUTH,GA,30097-1509,United States of America,7708170526.0,zpizza
2000012680,Little Caesars Pizza,3502 Sixes Rd,CANTON,GA,30114-9121,United States of America,7704799390.0,little_caesars_pizza
1000842635,Little Caesars Pizza,194 Hicks Dr SE,ROME,GA,30161-6064,United States of America,7062346600.0,little_caesars_pizza
1000886628,Godfather's Pizza,95 Liberty Rd,VILLA RICA,GA,30180-3257,United States of America,7704591518.0,godfathers_pizza
1000809531,Pizza Hut,1780 Panola Rd,ELLENWOOD,GA,30294-2856,United States of America,7708087500.0,pizza_hut
2000172564,Little Caesars Pizza,8351 Roswell Rd,SANDY SPRINGS,GA,30350-2810,United States of America,7706455700.0,little_caesars_pizza
2000463676,Pizza Hut,110 E Winthrope Ave,MILLEN,GA,30442-1636,United States of America,4789822251.0,pizza_hut
2000015975,Pizza Inn,1801 E 1st St,VIDALIA,GA,30474-8803,United States of America,9125371417.0,pizza_inn
2000025198,Domino's,159 S Elm St,COMMERCE,GA,30529-3274,United States of America,7063354166.0,dominos
2000575042,Papa John's Pizza,370 E Franklin St,HARTWELL,GA,30643-2297,United States of America,7063767272.0,papa_johns_pizza
2000463658,Pizza Hut,2309 Lafayette Rd,FT OGLETHORPE,GA,30742-3786,United States of America,7068666513.0,pizza_hut
1000887761,Godfather's Pizza,B Street Army Base,FORT GORDON,GA,30905,United States of America,7067908646.0,godfathers_pizza
2000463661,Pizza Hut,135 Broad St,HAWKINSVILLE,GA,31036-4886,United States of America,4787834668.0,pizza_hut
2000463668,Pizza Hut,3661 Eisenhower Pkwy,MACON,GA,31206-6100,United States of America,4784711098.0,pizza_hut
2000136227,Marco's Pizza,112 Vilseck Rd,FORT STEWART,GA,31314,United States of America,9123683302.0,marcos_pizza
2000301489,Jet's Pizza,7929 Abercorn St,SAVANNAH,GA,31406-3436,United States of America,9129615387.0,jets_pizza
2000329401,Papa John's Pizza,1204 Ward St E,DOUGLAS,GA,31533-1100,United States of America,9123830202.0,papa_johns_pizza
2000216115,Domino's,1216 USS Daniel Boone Ave,KINGS BAY,GA,31547,United States of America,9125105400.0,dominos
1000827004,Fox's Pizza Den,1110 Warm Springs Hwy,MANCHESTER,GA,31816-1166,United States of America,7068462300.0,foxs_pizza_den
1000905709,Hungry Howie's Pizza & Subs,7590 Schomburg Rd,COLUMBUS,GA,31909-1886,United States of America,7065072525.0,hungry_howies_pizza_&_subs
2000172473,Little Caesars Pizza,1722 S 8th St,FERNANDINA BEACH,FL,32034-3062,United States of America,9044918989.0,little_caesars_pizza
1000812066,Pizza Hut,1925 S 14th St,FERNANDINA BEACH,FL,32034-4432,United States of America,9042616661.0,pizza_hut
1000891918,Hungry Howie's Pizza & Subs,140 San Marco Ave,SAINT AUGUSTINE,FL,32084-3265,United States of America,9048290909.0,hungry_howies_pizza_&_subs
2000447200,Papa John's Pizza,105 Murabella Pkwy,ST AUGUSTINE,FL,32092-4539,United States of America,9049401300.0,papa_johns_pizza
2000172505,Little Caesars Pizza,3863 S Nova Rd,PORT ORANGE,FL,32127-4959,United States of America,3867569393.0,little_caesars_pizza
2000463183,Little Caesars Pizza,162 S Nova Rd,ORMOND BEACH,FL,32174-6115,United States of America,3862655652.0,little_caesars_pizza
2000634221,Brixx Wood Fired Pizza,220 Riverside Ave,JACKSONVILLE,FL,32202-4964,United States of America,9043003928.0,brixx_wood_fired_pizza
2000012755,Little Caesars Pizza,6426 Bowden Rd,JACKSONVILLE,FL,32216-0977,United States of America,9047378555.0,little_caesars_pizza
2000404685,Papa Murphy's Take 'N' Bake Pizza,485 State Road 13,SAINT JOHNS,FL,32259-2993,United States of America,9042304496.0,papa_murphys_take_n_bake_pizza
2000012624,Little Caesars Pizza,1989 Capital Cir NE,TALLAHASSEE,FL,32308-4476,United States of America,8506923701.0,little_caesars_pizza
2000196671,CiCi's Pizza,513 N Richard Jackson Blvd,PANAMA CITY BEACH,FL,32407-3616,United States of America,8502493040.0,cicis_pizza
2000588332,Papa Murphy's Take 'N' Bake Pizza,1741 E Nine Mile Rd,PENSACOLA,FL,32514-5477,United States of America,8504354544.0,papa_murphys_take_n_bake_pizza
2000463577,Pizza Hut,10410 US Highway 98 W,DESTIN,FL,32550-4191,United States of America,8508374755.0,pizza_hut
1000947325,Sbarro,300 Mary Esther Cut Off,MARY ESTHER,FL,32569-1699,United States of America,8506642334.0,sbarro
2000036739,Papa John's Pizza,1131 W University Ave,GAINESVILLE,FL,32601-5111,United States of America,3523767272.0,papa_johns_pizza
2000443028,Domino's,University Of Florida Ben Hill Griffin Stadium,GAINESVILLE,FL,32604,United States of America,,dominos
1000819574,Pizza Hut,7380 State Road 100,KEYSTONE HEIGHTS,FL,32656-8641,United States of America,3524735444.0,pizza_hut
2000259929,Hungry Howie's Pizza & Subs,3465 Garden St,TITUSVILLE,FL,32796-3008,United States of America,3212258928.0,hungry_howies_pizza_&_subs
1000817000,Pizza Hut,5110 North Ln,ORLANDO,FL,32808-1256,United States of America,4074585995.0,pizza_hut
1000903405,Hungry Howie's Pizza & Subs,5740 N Orange Blossom Trl,ORLANDO,FL,32810-1023,United States of America,4072997188.0,hungry_howies_pizza_&_subs
2000216196,Domino's,4000 Central Florida Blvd,ORLANDO,FL,32816-8005,United States of America,4078821010.0,dominos
2000216198,Domino's,12450 International Dr,ORLANDO,FL,32821-6936,United States of America,4072391122.0,dominos
1000835286,Godfather's Pizza,1475 E Buena Vista Dr,LAKE BUENA VISTA,FL,32830,United States of America,4079380161.0,godfathers_pizza
2000195568,Godfather's Pizza,1475 N Buena Vista Dr,LAKE BUENA VISTA,FL,32830,United States of America,4079380161.0,godfathers_pizza
1000822931,Godfather's Pizza,1000 Car Care Ln,LAKE BUENA VISTA,FL,32830-8473,United States of America,4079380334.0,godfathers_pizza
2000463589,Pizza Hut,7696 NW 186th St,HIALEAH,FL,33015-2925,United States of America,3058258322.0,pizza_hut
2000463590,Pizza Hut,1531 N Federal Hwy,HOLLYWOOD,FL,33020-2849,United States of America,9549218877.0,pizza_hut
1000967050,Papa John's Pizza,98070 Overseas Hwy,KEY LARGO,FL,33037-2356,United States of America,3058530999.0,papa_johns_pizza
2000463595,Pizza Hut,1980 N Roosevelt Blvd,KEY WEST,FL,33040-3632,United States of America,3052962431.0,pizza_hut
2000463599,Pizza Hut,1875 N State Road 7,MARGATE,FL,33063-5707,United States of America,9549683200.0,pizza_hut
1000895188,Hungry Howie's Pizza & Subs,2039 NE 36th St,LIGHTHOUSE POINT,FL,33064-7538,United States of America,9547880071.0,hungry_howies_pizza_&_subs
2000041456,California Pizza Kitchen,Miami International Airport,MIAMI,FL,33122,United States of America,3058760885.0,california_pizza_kitchen
2000628592,Mellow Mushroom,5775 Sunset Dr,SOUTH MIAMI,FL,33143-5344,United States of America,3056673274.0,mellow_mushroom
2000060554,Vocelli Pizza,3115 NE 163rd St,NORTH MIAMI BEACH,FL,33160-4463,United States of America,3059442228.0,vocelli_pizza
2000463578,Pizza Hut,7930 NW 36th St,DORAL,FL,33166-6677,United States of America,3055991166.0,pizza_hut
2000463601,Pizza Hut,10600 SW 8th St,MIAMI,FL,33174-2603,United States of America,3055547020.0,pizza_hut
1000940158,Sbarro,19575 Biscayne Blvd,MIAMI,FL,33180-2331,United States of America,3054662960.0,sbarro
1000834162,Little Caesars Pizza,14091 SW 88th St,MIAMI,FL,33186-4002,United States of America,3053877412.0,little_caesars_pizza
2000628599,Mellow Mushroom,525 N Federal Hwy,FT LAUDERDALE,FL,33301-2558,United States of America,9547129527.0,mellow_mushroom
2000463598,Pizza Hut,7580 W Commercial Blvd,LAUDERHILL,FL,33319-2132,United States of America,9547410077.0,pizza_hut
2000241875,Marco's Pizza,9210 W Commercial Blvd,SUNRISE,FL,33351-4318,United States of America,9546165118.0,marcos_pizza
2000463630,Pizza Hut,10079 W Oakland Park Blvd,SUNRISE,FL,33351-6919,United States of America,9547460991.0,pizza_hut
2000628579,Mellow Mushroom,700 S Rosemary Ave,WEST PALM BEACH,FL,33401-6313,United States of America,5613303040.0,mellow_mushroom
2000393524,Little Caesars Pizza,199 W Palmetto Park Rd,BOCA RATON,FL,33432-3849,United States of America,5612184427.0,little_caesars_pizza
2000463574,Pizza Hut,134 NE 2nd St,BOCA RATON,FL,33432-3908,United States of America,5613680600.0,pizza_hut
1000837627,Little Caesars Pizza,1602 W Brandon Blvd,BRANDON,FL,33511-4808,United States of America,8136610405.0,little_caesars_pizza
1000864924,CiCi's Pizza,4266 US Highway 98 N,LAKELAND,FL,33809-3820,United States of America,8638152000.0,cicis_pizza
2000198818,Villa Fresh Italian Kitchen,4125 Cleveland Ave,FORT MYERS,FL,33901-9058,United States of America,2392743158.0,villa_fresh_italian_kitchen
2000344098,Sbarro,11000 Terminal Access Rd,FORT MYERS,FL,33913-8209,United States of America,2394823507.0,sbarro
2000463585,Pizza Hut,250 San Carlos Blvd,FT MYERS,FL,33931,United States of America,2394630838.0,pizza_hut
1000895806,Hungry Howie's Pizza & Subs,2168 Santa Barbara Blvd,NAPLES,FL,34116-5441,United States of America,2393528888.0,hungry_howies_pizza_&_subs
2000632985,Papa John's Pizza,7 N 10th Ave,ARCADIA,FL,34266-8961,United States of America,8634947272.0,papa_johns_pizza
1000823782,Little Caesars Pizza,10135 SE US Highway 441,BELLEVIEW,FL,34420-2850,United States of America,3523474200.0,little_caesars_pizza
2000588335,Papa Murphy's Take 'N' Bake Pizza,6011 SE Abshier Blvd,BELLEVIEW,FL,34420-6014,United States of America,3526935754.0,papa_murphys_take_n_bake_pizza
1000811730,Pizza Hut,2327 S Pine Ave,OCALA,FL,34471-5100,United States of America,3526223714.0,pizza_hut
1000823130,Little Caesars Pizza,1002 E Highway 50,CLERMONT,FL,34711-3239,United States of America,3523947611.0,little_caesars_pizza
2000329578,Papa John's Pizza,400 W Gulf Atlantic Hwy,WILDWOOD,FL,34785-7301,United States of America,3524997272.0,papa_johns_pizza
2000147045,Hungry Howie's Pizza & Subs,215 Helena Market Pl,HELENA,AL,35080-3395,United States of America,2056215151.0,hungry_howies_pizza_&_subs
2000665148,Papa John's Pizza,222 Haynes St,TALLADEGA,AL,35160-2551,United States of America,2562688601.0,papa_johns_pizza
2000626719,Blaze Pizza,2101 7th Ave S,BIRMINGHAM,AL,35233-3105,United States of America,,blaze_pizza
2000340847,Pie Five Pizza,4741 Chace Landing Cir,HOOVER,AL,35244,United States of America,2059894964.0,pie_five_pizza
2000463407,Pizza Hut,410 Parks Ave,SCOTTSBORO,AL,35768-2437,United States of America,2562594887.0,pizza_hut
2000442944,Domino's,Von Braun Center,HUNTSVILLE,AL,35801,United States of America,,dominos
2000463398,Pizza Hut,700 Monroe St SW,HUNTSVILLE,AL,35801-5579,United States of America,2567220640.0,pizza_hut
1000890106,Hungry Howie's Pizza & Subs,113 N Burbank Dr,MONTGOMERY,AL,36117-2837,United States of America,3342722999.0,hungry_howies_pizza_&_subs
2000575855,Pizza Hut,3455 Ross Clark Cir,DOTHAN,AL,36303-2579,United States of America,3347929884.0,pizza_hut
2000463393,Pizza Hut,286 Highway 83,EVERGREEN,AL,36401-1412,United States of America,2515781411.0,pizza_hut
1000816428,Pizza Hut,4719 Andrew Jackson Pkwy,HERMITAGE,TN,37076-1301,United States of America,6158854488.0,pizza_hut
2000304013,Papa Murphy's Take 'N' Bake Pizza,2722 N Mount Juliet Rd,MOUNT JULIET,TN,37122-8018,United States of America,6152884675.0,papa_murphys_take_n_bake_pizza
2000334471,Papa Murphy's Take 'N' Bake Pizza,301 Richard Wilks Rd,WHITE HOUSE,TN,37188-9366,United States of America,6156726722.0,papa_murphys_take_n_bake_pizza
1000819342,Pizza Hut,718 Thompson Ln,NASHVILLE,TN,37204-3612,United States of America,6152985566.0,pizza_hut
2000423733,Papa Murphy's Take 'N' Bake Pizza,5101 Harding Pike,NASHVILLE,TN,37205-2802,United States of America,6156781485.0,papa_murphys_take_n_bake_pizza
2000301461,Jet's Pizza,850 Hillwood Blvd,NASHVILLE,TN,37209-4259,United States of America,6153532943.0,jets_pizza
2000198766,Bananas Ultimate Juice Bar,439 Opry Mills Dr,NASHVILLE,TN,37214-2440,United States of America,6156490433.0,bananas_ultimate_juice_bar
2000012675,Little Caesars Pizza,3306 Gallatin Pike,NASHVILLE,TN,37216-3012,United States of America,6152260445.0,little_caesars_pizza
2000027239,Little Caesars Pizza,1128 Murfreesboro Pike,NASHVILLE,TN,37217-2144,United States of America,6153617776.0,little_caesars_pizza
2000009996,Domino's,22090 Rhea County Hwy,SPRING CITY,TN,37381-5243,United States of America,4233650100.0,dominos
2000464532,Pizza Hut,2121 Gunbarrel Rd,CHATTANOOGA,TN,37421-2608,United States of America,4238948822.0,pizza_hut
1000913498,Domino's,1735 W State of Franklin Rd,JOHNSON CITY,TN,37604-6573,United States of America,4239291131.0,dominos
2000443349,Domino's,151 Speedway Blvd,BRISTOL,TN,37620-8932,United States of America,,dominos
2000464538,Pizza Hut,4500 University Blvd,KINGSPORT,TN,37660,United States of America,4232472791.0,pizza_hut
2000049239,Jet's Pizza,1722 W Broadway Ave,MARYVILLE,TN,37801-5510,United States of America,8659842004.0,jets_pizza
1000839472,Pizza Inn,1716 W Andrew Johnson Hwy,MORRISTOWN,TN,37814-3737,United States of America,4235871600.0,pizza_inn
2000389203,Jet's Pizza,1541 Oak Ridge Tpke,OAK RIDGE,TN,37830-6208,United States of America,8652723723.0,jets_pizza
2000347320,Jet's Pizza,625 E Emory Rd,POWELL,TN,37849-3522,United States of America,8659475388.0,jets_pizza
2000628664,Mellow Mushroom,250 Island Dr,PIGEON FORGE,TN,37863,United States of America,8659080388.0,mellow_mushroom
2000347316,Jet's Pizza,4943 Millertown Pike,KNOXVILLE,TN,37917-2115,United States of America,8652477695.0,jets_pizza
2000464540,Pizza Hut,3018 Tazewell Pike,KNOXVILLE,TN,37918-1868,United States of America,8656886291.0,pizza_hut
2000329385,Papa John's Pizza,11154 East Hwy 51,ATOKA,TN,38004,United States of America,9018407272.0,papa_johns_pizza
2000248145,Pizza Inn,1616 Highway 88 W,HALLS,TN,38040-6500,United States of America,7318369507.0,pizza_inn
2000329672,Papa John's Pizza,7742 Highway 64,OAKLAND,TN,38060-6061,United States of America,9014657111.0,papa_johns_pizza
1000815851,Pizza Hut,4290 Elvis Presley Blvd,MEMPHIS,TN,38116-6437,United States of America,9013321150.0,pizza_hut
2000464530,Pizza Hut,2948 N Stage Plz,BARTLETT,TN,38134-3705,United States of America,9013775007.0,pizza_hut
1000881051,Little Caesars Pizza,7820 Poplar Ave,GERMANTOWN,TN,38138-5056,United States of America,9017575626.0,little_caesars_pizza
2000329616,Papa John's Pizza,53 N Broad St,LEXINGTON,TN,38351-1512,United States of America,7319687272.0,papa_johns_pizza
2000235997,Pizza Inn,9647 Highway 22 N,MILLEDGEVILLE,TN,38359,United States of America,7316873391.0,pizza_inn
2000183191,Papa John's Pizza,200 Wayne Rd,SAVANNAH,TN,38372-1940,United States of America,7319267272.0,papa_johns_pizza
2000329478,Papa John's Pizza,2020 N Locust Ave,LAWRENCEBURG,TN,38464-2336,United States of America,9317667272.0,papa_johns_pizza
1000858807,Godfather's Pizza,340 W Main St,COOKEVILLE,TN,38506-2302,United States of America,9315376614.0,godfathers_pizza
1000821782,Pizza Hut,620 S State St,CLARKSDALE,MS,38614-6325,United States of America,6626272218.0,pizza_hut
2000628581,Mellow Mushroom,6542 Goodman Rd,OLIVE BRANCH,MS,38654-5559,United States of America,6628935500.0,mellow_mushroom
1000805814,Pizza Hut,1103 Jackson Ave W,OXFORD,MS,38655-2509,United States of America,6622363333.0,pizza_hut
2000443101,Domino's,Desoto County Civic Center,SOUTHAVEN,MS,38671,United States of America,,dominos
2000183091,Papa John's Pizza,1832 Highway 1 N,GREENVILLE,MS,38703,United States of America,6623327777.0,papa_johns_pizza
2000183089,Papa John's Pizza,2019 Highway 72 E,CORINTH,MS,38834-6710,United States of America,6622877272.0,papa_johns_pizza
1000828880,Pizza Inn,119 Colony Crossing Way,MADISON,MS,38930,United States of America,6016052122.0,pizza_inn
2000241887,Marco's Pizza,1139 Old Fannin Rd,BRANDON,MS,39047-9258,United States of America,6013989100.0,marcos_pizza
2000464072,Pizza Hut,506 Highway 35 Byp,KOSCIUSKO,MS,39090,United States of America,6012897115.0,pizza_hut
2000183095,Papa John's Pizza,3046 Indiana Ave,VICKSBURG,MS,39180-5252,United States of America,6016368282.0,papa_johns_pizza
2000196579,Pizza Inn,741 E Fifteenth St,YAZOO CITY,MS,39194-2705,United States of America,6627465700.0,pizza_inn
2000406754,Pie Five Pizza,96 Laurel Park Dr,FLOWOOD,MS,39232-3344,United States of America,7692436180.0,pie_five_pizza
2000628656,Mellow Mushroom,275 Dogwood Blvd,FLOWOOD,MS,39232-8605,United States of America,6019927499.0,mellow_mushroom
1000871691,CiCi's Pizza,547 Bonita Lakes Plz,MERIDIAN,MS,39301-7014,United States of America,6015812110.0,cicis_pizza
2000144471,Fox's Pizza Den,3049 Highway 49,COLLINS,MS,39428-4505,United States of America,6017650304.0,foxs_pizza_den
2000498575,Fox's Pizza Den,136 F E Sellers Hwy,MONTICELLO,MS,39654-9501,United States of America,6015872351.0,foxs_pizza_den
1000811377,Pizza Hut,2215 Highway 45 N,COLUMBUS,MS,39705-1742,United States of America,6623274472.0,pizza_hut
1000820011,Pizza Hut,7532 Highway 45 Alt N,WEST POINT,MS,39773-5418,United States of America,6624942404.0,pizza_hut
1000893150,Papa Murphy's Take 'N' Bake Pizza,1613 Midland Trl,SHELBYVILLE,KY,40065-1638,United States of America,5026335399.0,papa_murphys_take_n_bake_pizza
1000867491,Little Caesars Pizza,474 W Lincoln Trail Blvd,RADCLIFF,KY,40160-2047,United States of America,2703520202.0,little_caesars_pizza
2000595852,Papa Murphy's Take 'N' Bake Pizza,100 Lawrence Ln,SHEPHERDSVILLE,KY,40165,United States of America,5029210166.0,papa_murphys_take_n_bake_pizza
2000628750,Mellow Mushroom,1023 Bardstown Rd,LOUISVILLE,KY,40204-1317,United States of America,5027497690.0,mellow_mushroom
2000199998,Papa Murphy's Take 'N' Bake Pizza,2809 N Hurstbourne Pkwy,LOUISVILLE,KY,40223-1283,United States of America,5024258818.0,papa_murphys_take_n_bake_pizza
2000628574,Mellow Mushroom,805 Blankenbaker Pkwy,LOUISVILLE,KY,40243-1894,United States of America,5022446112.0,mellow_mushroom
2000500693,Godfather's Pizza,9700 Bluegrass Pkwy,LOUISVILLE,KY,40299-1904,United States of America,5024999719.0,godfathers_pizza
1000835296,Godfather's Pizza,1475 Richmond St,MOUNT VERNON,KY,40456,United States of America,6062565079.0,godfathers_pizza
2000610798,Godfather's Pizza,2420 Richmond Rd,LEXINGTON,KY,40502-1301,United States of America,8004568347.0,godfathers_pizza
2000610851,Godfather's Pizza,1998 Harrodsburg Rd,LEXINGTON,KY,40503-1256,United States of America,8592786802.0,godfathers_pizza
2000628696,Mellow Mushroom,200 Lexington Green Cir,LEXINGTON,KY,40503-3374,United States of America,8595549943.0,mellow_mushroom
2000610506,Godfather's Pizza,930 S Broadway,LEXINGTON,KY,40504-2603,United States of America,8592319021.0,godfathers_pizza
2000610852,Godfather's Pizza,1994 N Broadway,LEXINGTON,KY,40505,United States of America,8592940745.0,godfathers_pizza
2000003379,Sbarro,239 Student Center Ln,LEXINGTON,KY,40506-0001,United States of America,8595337353.0,sbarro
2000626672,Blaze Pizza,341 S Limestone,LEXINGTON,KY,40508-1895,United States of America,8595231232.0,blaze_pizza
2000640281,Pizza Inn,6400 Polo Club Ln,LEXINGTON,KY,40509-8647,United States of America,8594698853.0,pizza_inn
2000610617,Godfather's Pizza,5521 Athens Boonesboro Rd,LEXINGTON,KY,40509-9491,United States of America,8592630060.0,godfathers_pizza
2000610674,Godfather's Pizza,435 W New Circle Rd,LEXINGTON,KY,40511-1832,United States of America,8592990203.0,godfathers_pizza
2000015873,Pizza Hut,725 US Hwy 25 E,MIDDLESBORO,KY,40965,United States of America,6062487338.0,pizza_hut
2000628351,LaRosa's Pizzeria,8045 Alexandria Pike,ALEXANDRIA,KY,41001,United States of America,,larosas_pizzeria
2000628352,LaRosa's Pizzeria,8031 Alexandria Pike,ALEXANDRIA,KY,41001-1139,United States of America,,larosas_pizzeria
2000628384,LaRosa's Pizzeria,3923 Winston Ave,COVINGTON,KY,41015-1706,United States of America,,larosas_pizzeria
2000628372,LaRosa's Pizzeria,5120 Taylor Mill Rd,TAYLOR MILL,KY,41015-2397,United States of America,,larosas_pizzeria
2000463936,Pizza Hut,40 Auburn St,PORTLAND,ME,4103,United States of America,2078783003.0,pizza_hut
2000463860,Pizza Hut,7915 Dream St,FLORENCE,KY,41042-1801,United States of America,8593713370.0,pizza_hut
2000301437,Jet's Pizza,2111 N Bend Rd,HEBRON,KY,41048-9136,United States of America,8596899800.0,jets_pizza
2000463938,Pizza Hut,415 Maine Mall Rd,SOUTH PORTLAND,ME,4106,United States of America,2077731947.0,pizza_hut
1000955287,Papa John's Pizza,472 N Lake Dr,PRESTONSBURG,KY,41653-1230,United States of America,6068862800.0,papa_johns_pizza
2000385622,Gatti's Pizza Buffet,3001 Irvin Cobb Dr,PADUCAH,KY,42003-0332,United States of America,2705754505.0,gattis_pizza_buffet
2000301435,Jet's Pizza,1625 Campbell Ln,BOWLING GREEN,KY,42104-4194,United States of America,2704951075.0,jets_pizza
2000610904,Godfather's Pizza,16160 Fort Campbell Blvd,OAK GROVE,KY,42262-7226,United States of America,2706971111.0,godfathers_pizza
2000500696,Godfather's Pizza,130 N Wallace Wilkinson Blvd,LIBERTY,KY,42539-3012,United States of America,6067871225.0,godfathers_pizza
2000463858,Pizza Hut,3061 Ring Rd,ELIZABETHTOWN,KY,42701,United States of America,2707375535.0,pizza_hut
2000353329,Domino's,9685 Sawmill Rd,POWELL,OH,43065-6612,United States of America,6148836262.0,dominos
2000629817,PizzaRev,1607 N High St,COLUMBUS,OH,43201-1124,United States of America,6142990900.0,pizzarev
2000147053,Hungry Howie's Pizza & Subs,1428 N High St,COLUMBUS,OH,43201-2405,United States of America,6142970000.0,hungry_howies_pizza_&_subs
2000632532,zpizza,945 N High St,COLUMBUS,OH,43201-2406,United States of America,6142993289.0,zpizza
1000917432,Domino's,2845 W Broad St,COLUMBUS,OH,43204-2643,United States of America,6142790300.0,dominos
2000172972,Little Caesars Pizza,1242 W 5th Ave,GRANDVIEW HEIGHTS,OH,43212-2506,United States of America,6144888200.0,little_caesars_pizza
2000172961,Little Caesars Pizza,5548 N High St,COLUMBUS,OH,43214-1124,United States of America,6147856611.0,little_caesars_pizza
2000632553,zpizza,5060 N High St,COLUMBUS,OH,43214-1524,United States of America,6148850101.0,zpizza
2000393816,Sbarro,1328 Dublin Rd,COLUMBUS,OH,43215-1054,United States of America,6147699911.0,sbarro
2000242516,Sbarro,793 W State St,COLUMBUS,OH,43222-1551,United States of America,6142800734.0,sbarro
2000629797,PizzaRev,5010 N Hamilton Rd,GAHANNA,OH,43230-1312,United States of America,6148557002.0,pizzarev
1000946367,Papa John's Pizza,2804 S Hamilton Rd,COLUMBUS,OH,43232-4961,United States of America,6143220276.0,papa_johns_pizza
2000051377,Marco's Pizza,705 Ridge St,BOWLING GREEN,OH,43403-4301,United States of America,4193725555.0,marcos_pizza
1000895274,Papa Murphy's Take 'N' Bake Pizza,1228 W State St,FREMONT,OH,43420-2015,United States of America,4193327272.0,papa_murphys_take_n_bake_pizza
2000464366,Pizza Hut,101 Madison St,PORT CLINTON,OH,43452-1103,United States of America,4197346600.0,pizza_hut
2000464375,Pizza Hut,512 Main St,TOLEDO,OH,43605,United States of America,4196910392.0,pizza_hut
2000611864,Jet's Pizza,2903 Dorr St,TOLEDO,OH,43607-3002,United States of America,4197253400.0,jets_pizza
2000464376,Pizza Hut,5122 Heatherdowns Blvd,TOLEDO,OH,43614-2182,United States of America,4193855217.0,pizza_hut
1000960103,Papa John's Pizza,3150 Navarre Ave,OREGON,OH,43616-3394,United States of America,4196937272.0,papa_johns_pizza
1000920463,Domino's,4106 West Pike,ZANESVILLE,OH,43701-8161,United States of America,7404503115.0,dominos
1000860354,CiCi's Pizza,36050 Detroit Rd,AVON,OH,44011-1684,United States of America,4409343855.0,cicis_pizza
2000464332,Pizza Hut,559 Midway Blvd,ELYRIA,OH,44035-2452,United States of America,4403243337.0,pizza_hut
2000464382,Pizza Hut,34710 Vine St,WILLOWICK,OH,44095-5120,United States of America,4409464446.0,pizza_hut
2000464338,Pizza Hut,5100 Turney Rd,GARFIELD HEIGHTS,OH,44125,United States of America,2165244444.0,pizza_hut
2000464339,Pizza Hut,12540 Rockside Rd,GARFIELD HEIGHTS,OH,44125-6237,United States of America,2165244444.0,pizza_hut
2000464346,Pizza Hut,1314 S Water St,KENT,OH,44240,United States of America,3306788288.0,pizza_hut
2000183166,Papa John's Pizza,9336 State Route 43,STREETSBORO,OH,44241-5326,United States of America,3306265400.0,papa_johns_pizza
2000464384,Pizza Hut,1035 Boardman Poland Rd,YOUNGSTOWN,OH,44514-1929,United States of America,3307585771.0,pizza_hut
2000464303,Pizza Hut,708 S Union Ave,ALLIANCE,OH,44601-2933,United States of America,3308239444.0,pizza_hut
2000405707,Marco's Pizza,1937 W State St,ALLIANCE,OH,44601-3522,United States of America,3308238899.0,marcos_pizza
1000911450,Domino's,1337 Blachleyville Rd,WOOSTER,OH,44691-9705,United States of America,3302635411.0,dominos
2000464311,Pizza Hut,1600 Whipple Ave NW,CANTON,OH,44708-2835,United States of America,3304770088.0,pizza_hut
2000611351,Hungry Howie's Pizza & Subs,1691 N Main St,NORTH CANTON,OH,44720,United States of America,3305267123.0,hungry_howies_pizza_&_subs
2000463132,Domino's,1 Cedar Point Dr,SANDUSKY,OH,44870-5259,United States of America,4196092085.0,dominos
2000635665,Snappy Tomato Pizza,6647 S State Route 48,MAINEVILLE,OH,45039-9758,United States of America,5132681172.0,snappy_tomato_pizza
2000576236,Pizzeria Locale,9540 S Mason Montgomery Rd,MASON,OH,45040-7664,United States of America,5137548321.0,pizzeria_locale
2000613672,Pizzeria Locale,9540 S Mason Montgomery Rd,CINCINNATI,OH,45040-7664,United States of America,5133390063.0,pizzeria_locale
2000464380,Pizza Hut,7301 Kingsgate Way,WEST CHESTER,OH,45069-2453,United States of America,5137772700.0,pizza_hut
2000628362,LaRosa's Pizzeria,6875 Fountains Blvd,WEST CHESTER,OH,45069-5149,United States of America,,larosas_pizzeria
1000806441,Pizza Hut,1190 W Ohio Pike,AMELIA,OH,45102-1258,United States of America,5137521118.0,pizza_hut
2000464348,Pizza Hut,543 Loveland Madeira Rd,LOVELAND,OH,45140-2713,United States of America,5135830400.0,pizza_hut
2000046187,Donatos Pizza,721 Main St,CINCINNATI,OH,45202-2109,United States of America,5136654600.0,donatos_pizza
2000628623,Mellow Mushroom,3804 Paxton Ave,CINCINNATI,OH,45209-2399,United States of America,5133212555.0,mellow_mushroom
2000241896,Marco's Pizza,7231 Wooster Pike,CINCINNATI,OH,45227-3830,United States of America,5135615000.0,marcos_pizza
2000576235,Pizzeria Locale,7800 Montgomery Rd,CINCINNATI,OH,45236-4388,United States of America,5137450147.0,pizzeria_locale
1000819783,Pizza Hut,770 Eastgate Blvd,CINCINNATI,OH,45245,United States of America,5137522700.0,pizza_hut
2000464334,Pizza Hut,607 Taywood Rd,ENGLEWOOD,OH,45322-1819,United States of America,9378368100.0,pizza_hut
2000172979,Little Caesars Pizza,718 N Heincke Rd,MIAMISBURG,OH,45342-2742,United States of America,9378659955.0,little_caesars_pizza
1000954862,Papa John's Pizza,4711 N Main St,DAYTON,OH,45405-5022,United States of America,9372770073.0,papa_johns_pizza
2000464343,Pizza Hut,8290 Troy Pike,HUBER HEIGHTS,OH,45424-1056,United States of America,9372371137.0,pizza_hut
2000628359,LaRosa's Pizzeria,7375 Troy Pike,HUBER HEIGHTS,OH,45424-2664,United States of America,,larosas_pizzeria
2000628399,LaRosa's Pizzeria,2453 Esquire Dr,BEAVERCREEK,OH,45431-2769,United States of America,,larosas_pizzeria
1000890508,Papa Murphy's Take 'N' Bake Pizza,1195 N Fairfield Rd,BEAVERCREEK,OH,45432-2631,United States of America,9374277500.0,papa_murphys_take_n_bake_pizza
1000906545,Papa Murphy's Take 'N' Bake Pizza,832 S Main St,CENTERVILLE,OH,45458-5803,United States of America,9374357130.0,papa_murphys_take_n_bake_pizza
2000611865,Marco's Pizza,320 S Cable Rd,LIMA,OH,45805-3110,United States of America,4192223300.0,marcos_pizza
2000464337,Pizza Hut,2401 N Main St,FINDLAY,OH,45840-3909,United States of America,4194238181.0,pizza_hut
1000814318,Pizza Hut,339 S Blanchard St,FINDLAY,OH,45840-5955,United States of America,4194239292.0,pizza_hut
2000463806,Pizza Hut,1215 University Blvd,ANDERSON,IN,46012-3127,United States of America,3176443575.0,pizza_hut
2000172635,Little Caesars Pizza,7428 Fishers Station Dr,FISHERS,IN,46038-2323,United States of America,3179133333.0,little_caesars_pizza
2000404709,Pie Five Pizza,6704 Whitestown Pkwy,ZIONSVILLE,IN,46077,United States of America,3177692900.0,pie_five_pizza
2000172627,Little Caesars Pizza,315 W Northfield Dr,BROWNSBURG,IN,46112-7361,United States of America,3178588383.0,little_caesars_pizza
2000588339,Papa Murphy's Take 'N' Bake Pizza,997 E County Line Rd,GREENWOOD,IN,46143-1075,United States of America,3178817272.0,papa_murphys_take_n_bake_pizza
2000463825,Pizza Hut,23 N 2nd St,MARTINSVILLE,IN,46151-1705,United States of America,7653424444.0,pizza_hut
2000463823,Pizza Hut,1259 S Harriet St,MARTINSVILLE,IN,46151-2711,United States of America,7653422222.0,pizza_hut
2000389250,Pie Five Pizza,48 E Washington St,INDIANAPOLIS,IN,46204-3532,United States of America,3179554300.0,pie_five_pizza
2000172650,Little Caesars Pizza,4851 N College Ave,INDIANAPOLIS,IN,46205-1963,United States of America,3176608360.0,little_caesars_pizza
2000241898,Marco's Pizza,7301 W 10th St,INDIANAPOLIS,IN,46214-2573,United States of America,3172099158.0,marcos_pizza
2000242759,Little Caesars Pizza,6241 E Washington St,INDIANAPOLIS,IN,46219-6611,United States of America,3175275477.0,little_caesars_pizza
2000303984,Papa Murphy's Take 'N' Bake Pizza,5868 E 71st St,INDIANAPOLIS,IN,46220-4075,United States of America,3176367272.0,papa_murphys_take_n_bake_pizza
1000903777,Papa Murphy's Take 'N' Bake Pizza,6010 Madison Ave,INDIANAPOLIS,IN,46227-4790,United States of America,3177918000.0,papa_murphys_take_n_bake_pizza
2000225014,Papa Murphy's Take 'N' Bake Pizza,10121 E Washington St,INDIANAPOLIS,IN,46229-2625,United States of America,3178909500.0,papa_murphys_take_n_bake_pizza
2000199986,Papa Murphy's Take 'N' Bake Pizza,1340 E 86th St,INDIANAPOLIS,IN,46240-5921,United States of America,3178464646.0,papa_murphys_take_n_bake_pizza
1000907623,Hungry Howie's Pizza & Subs,9546 Allisonville Rd,INDIANAPOLIS,IN,46250-1223,United States of America,3175855800.0,hungry_howies_pizza_&_subs
2000591694,Pie Five Pizza,5320 E 82nd St,INDIANAPOLIS,IN,46250-4509,United States of America,3175788090.0,pie_five_pizza
2000463819,Pizza Hut,5510 Lafayette Rd,INDIANAPOLIS,IN,46254-1691,United States of America,3172973628.0,pizza_hut
2000614254,Pie Five Pizza,5111 N Main St,MISHAWAKA,IN,46545,United States of America,5742713660.0,pie_five_pizza
1000957283,Papa John's Pizza,5440 Coldwater Rd,FORT WAYNE,IN,46825-5447,United States of America,2604717272.0,papa_johns_pizza
2000405806,Marco's Pizza,508 E Southway Blvd,KOKOMO,IN,46902-3820,United States of America,7654507745.0,marcos_pizza
2000591430,Marco's Pizza,123 N Broadway,PERU,IN,46970-2235,United States of America,7654727576.0,marcos_pizza
2000635682,Snappy Tomato Pizza,2451 W Jonathan Moore Pike,COLUMBUS,IN,47201-9206,United States of America,8123729300.0,snappy_tomato_pizza
2000172643,Little Caesars Pizza,1703 N Lincoln St,GREENSBURG,IN,47240-1287,United States of America,8126626022.0,little_caesars_pizza
2000172626,Little Caesars Pizza,2504 E 3rd St,BLOOMINGTON,IN,47401-5338,United States of America,8123314500.0,little_caesars_pizza
1000856970,Little Caesars Pizza,3175 W 3rd St,BLOOMINGTON,IN,47404-4830,United States of America,8123331462.0,little_caesars_pizza
2000051748,Gatti's Pizza,974 E State Route 62,BOONVILLE,IN,47601,United States of America,8128975055.0,gattis_pizza
2000405826,Marco's Pizza,3100 N 1st Ave,EVANSVILLE,IN,47710-3102,United States of America,8124253333.0,marcos_pizza
2000015176,Papa Murphy's Take 'N' Bake Pizza,4202 N 1st Ave,EVANSVILLE,IN,47710-3618,United States of America,8124376767.0,papa_murphys_take_n_bake_pizza
1000896409,Papa Murphy's Take 'N' Bake Pizza,2324 Teal Rd,LAFAYETTE,IN,47905-2219,United States of America,7654711700.0,papa_murphys_take_n_bake_pizza
1000939403,Papa John's Pizza,22241 Kelly Rd,EASTPOINTE,MI,48021-2617,United States of America,5867777272.0,papa_johns_pizza
2000329585,Papa John's Pizza,41770 Hayes Rd,CLINTON TOWNSHIP,MI,48038-1875,United States of America,5862287272.0,papa_johns_pizza
2000463952,Pizza Hut,3822 Pine Grove Ave,FORT GRATIOT,MI,48059-4215,United States of America,8109843211.0,pizza_hut
2000463978,Pizza Hut,1708 Livernois Rd,TROY,MI,48083-1755,United States of America,2485240033.0,pizza_hut
1000951042,Papa John's Pizza,3728 Rochester Rd,TROY,MI,48083-5243,United States of America,2485244949.0,papa_johns_pizza
2000329533,Papa John's Pizza,28686 Dequindre Rd,WARREN,MI,48092-2467,United States of America,5863542470.0,papa_johns_pizza
2000024217,Hungry Howie's Pizza & Subs,3810 Oakwood Blvd,MELVINDALE,MI,48122-1504,United States of America,3133810642.0,hungry_howies_pizza_&_subs
2000463946,Pizza Hut,22024 Van Born Rd,DEARBORN HEIGHTS,MI,48125-2571,United States of America,3132780122.0,pizza_hut
2000329374,Papa John's Pizza,1052 Ann Arbor Rd W,PLYMOUTH,MI,48170-2129,United States of America,7344517272.0,papa_johns_pizza
1000907863,Hungry Howie's Pizza & Subs,9911 Greenfield Rd,DETROIT,MI,48227-2035,United States of America,3132735700.0,hungry_howies_pizza_&_subs
1000894395,Hungry Howie's Pizza & Subs,18940 W Warren Ave,DETROIT,MI,48228-3312,United States of America,3132718620.0,hungry_howies_pizza_&_subs
2000626720,Blaze Pizza,2065 N Squirrel Rd,AUBURN HILLS,MI,48326-2350,United States of America,,blaze_pizza
2000216218,Domino's,5684 Highland Rd,WATERFORD,MI,48327-1928,United States of America,2487421052.0,dominos
2000463965,Pizza Hut,247 S Telegraph Rd,PONTIAC,MI,48341-1936,United States of America,2483355854.0,pizza_hut
1000873428,Little Caesars Pizza,5922 S Main St,CLARKSTON,MI,48346-2357,United States of America,2486254001.0,little_caesars_pizza
1000879316,Little Caesars Pizza,7272 W Houghton Lake Dr,HOUGHTON LAKE,MI,48629,United States of America,9894225173.0,little_caesars_pizza
2000463949,Pizza Hut,1626 E US 23,EAST TAWAS,MI,48730-9351,United States of America,9893628639.0,pizza_hut
1000859852,Little Caesars Pizza,3520 Okemos Rd,OKEMOS,MI,48864-5943,United States of America,5173491600.0,little_caesars_pizza
2000463972,Pizza Hut,2153 S US Highway 27,SAINT JOHNS,MI,48879-9166,United States of America,9892248800.0,pizza_hut
1000818379,Pizza Hut,6300 S Westnedge Ave,PORTAGE,MI,49002-3581,United States of America,2693231115.0,pizza_hut
1000888557,Hungry Howie's Pizza & Subs,08337 M 140,SOUTH HAVEN,MI,49090-1990,United States of America,2696371155.0,hungry_howies_pizza_&_subs
1000819751,Pizza Hut,7628 Georgetown Center Dr,JENISON,MI,49428-8101,United States of America,6164579100.0,pizza_hut
2000347302,Jet's Pizza,1910 E Apple Ave,MUSKEGON,MI,49442-4281,United States of America,2317733737.0,jets_pizza
2000463977,Pizza Hut,525 W Front St,TRAVERSE CITY,MI,49684-2002,United States of America,2319419494.0,pizza_hut
2000463976,Pizza Hut,1730 N US Highway 31 N,TRAVERSE CITY,MI,49686,United States of America,2319381495.0,pizza_hut
2000463964,Pizza Hut,220 E State Highway M28,MUNISING,MI,49862-1079,United States of America,9063876500.0,pizza_hut
2000195575,Godfather's Pizza,2229 Lincoln Way,AMES,IA,50012,United States of America,5152943379.0,godfathers_pizza
1000881893,Godfather's Pizza,802 N Ankeny Blvd,ANKENY,IA,50023-1767,United States of America,5159645233.0,godfathers_pizza
1000900163,Villa Fresh Italian Kitchen,3800 Merle Hay Rd,DES MOINES,IA,50310-1337,United States of America,5152709955.0,villa_fresh_italian_kitchen
1000808024,Pizza Hut,1435 Army Post Rd,DES MOINES,IA,50315-5406,United States of America,5152852284.0,pizza_hut
2000463744,Pizza Hut,616 N 15th St,FORT DODGE,IA,50501-3322,United States of America,5155766999.0,pizza_hut
1000855235,Godfather's Pizza,301 W Broadway St,EAGLE GROVE,IA,50533-1711,United States of America,5154485381.0,godfathers_pizza
2000057268,The Pizza Ranch,102 Warner St,ROCKWELL CITY,IA,50579-1720,United States of America,7122975800.0,the_pizza_ranch
1000882561,Godfather's Pizza,817 2nd St,WEBSTER CITY,IA,50595-1345,United States of America,5158323625.0,godfathers_pizza
1000822645,Godfather's Pizza,600 7th Ave SW,TRIPOLI,IA,50676-9700,United States of America,3198823667.0,godfathers_pizza
2000632991,Papa Murphy's Take 'N' Bake Pizza,121 5th Ave SW,LE MARS,IA,51031-3456,United States of America,7125416011.0,papa_murphys_take_n_bake_pizza
2000002281,Godfather's Pizza,222 N Clark St,PAULLINA,IA,51046-7728,United States of America,7124482828.0,godfathers_pizza
1000869850,Godfather's Pizza,510 3rd Ave,SHELDON,IA,51201,United States of America,7123242507.0,godfathers_pizza
2000463758,Pizza Hut,1419 Main St,ROCK VALLEY,IA,51247-1223,United States of America,7124762773.0,pizza_hut
1000893537,Papa Murphy's Take 'N' Bake Pizza,1702 W Broadway,COUNCIL BLUFFS,IA,51501-3867,United States of America,7123287000.0,papa_murphys_take_n_bake_pizza
1000871058,Godfather's Pizza,531 S Highway 52,GUTTENBERG,IA,52052-9355,United States of America,5632523023.0,godfathers_pizza
2000002282,Godfather's Pizza,164 W Tilden St,POSTVILLE,IA,52162-7793,United States of America,5638643532.0,godfathers_pizza
2000195543,Godfather's Pizza,990 Robins Square Dr,ROBINS,IA,52328-9649,United States of America,3192944152.0,godfathers_pizza
1000811448,Pizza Hut,223 Collins Rd NE,CEDAR RAPIDS,IA,52402-3159,United States of America,3193957602.0,pizza_hut
1000853469,Godfather's Pizza,2201 16th Ave SW,CEDAR RAPIDS,IA,52404-1614,United States of America,3193648187.0,godfathers_pizza
1000809001,Pizza Hut,1640 Edgewood Rd SW,CEDAR RAPIDS,IA,52404-2319,United States of America,3193969360.0,pizza_hut
2000463756,Pizza Hut,2511 N Court St,OTTUMWA,IA,52501-1158,United States of America,5156828776.0,pizza_hut
2000329661,Papa John's Pizza,719 Richmond Ave,OTTUMWA,IA,52501-4135,United States of America,6416847272.0,papa_johns_pizza
2000463752,Pizza Hut,901 W Washington St,MOUNT PLEASANT,IA,52641-2104,United States of America,3193853500.0,pizza_hut
2000195537,Godfather's Pizza,301 W Main St,NEW LONDON,IA,52645-1309,United States of America,3193672666.0,godfathers_pizza
2000463754,Pizza Hut,710 Grandview Ave,MUSCATINE,IA,52761-1624,United States of America,5632633300.0,pizza_hut
1000907580,Villa Fresh Italian Kitchen,95 N Morland Rd,BROOKFIELD,WI,53005-6021,United States of America,2627868998.0,villa_fresh_italian_kitchen
2000407440,Papa John's Pizza,385 Falls Rd,GRAFTON,WI,53024,United States of America,2624741010.0,papa_johns_pizza
2000304044,Papa Murphy's Take 'N' Bake Pizza,2523 S Business Dr,SHEBOYGAN,WI,53081-6135,United States of America,9208032113.0,papa_murphys_take_n_bake_pizza
2000027364,Little Caesars Pizza,2825 N 15th St,SHEBOYGAN,WI,53083-3944,United States of America,9204525467.0,little_caesars_pizza
1000814256,Pizza Hut,334 E Capitol Dr,MILWAUKEE,WI,53212-1210,United States of America,4149630800.0,pizza_hut
2000304042,Papa Murphy's Take 'N' Bake Pizza,7708 W Good Hope Rd,MILWAUKEE,WI,53223-4516,United States of America,4143582200.0,papa_murphys_take_n_bake_pizza
2000640254,Villa Fresh Italian Kitchen,2500 N Mayfair Rd,WAUWATOSA,WI,53226-1409,United States of America,4142582380.0,villa_fresh_italian_kitchen
2000195593,Godfather's Pizza,428 River St,BELLEVILLE,WI,53508-9776,United States of America,6084246322.0,godfathers_pizza
1000897638,Papa Murphy's Take 'N' Bake Pizza,2787 Milwaukee Rd,BELOIT,WI,53511-6919,United States of America,6083622253.0,papa_murphys_take_n_bake_pizza
2000331921,Godfather's Pizza,420 N Iowa St,DODGEVILLE,WI,53533-1325,United States of America,6089351661.0,godfathers_pizza
2000015162,Papa Murphy's Take 'N' Bake Pizza,2200 W Court St,JANESVILLE,WI,53548-3336,United States of America,6083148730.0,papa_murphys_take_n_bake_pizza
2000464779,Pizza Hut,19 S Orchard St,JANESVILLE,WI,53548-4457,United States of America,6087564800.0,pizza_hut
2000195592,Godfather's Pizza,101 Wisconsin Highway 69,MONTICELLO,WI,53570,United States of America,6089382020.0,godfathers_pizza
2000464793,Pizza Hut,1303 W Main St,SUN PRAIRIE,WI,53590-1836,United States of America,6088373322.0,pizza_hut
2000195594,Godfather's Pizza,103 Prairie Oaks Dr,VERONA,WI,53593-2002,United States of America,6088488194.0,godfathers_pizza
2000379704,Papa Murphy's Take 'N' Bake Pizza,630 S Whitney Way,MADISON,WI,53711-1035,United States of America,6082306450.0,papa_murphys_take_n_bake_pizza
2000249442,Godfather's Pizza,2770 S Syene Rd,FITCHBURG,WI,53711-5732,United States of America,6082749662.0,godfathers_pizza
2000464784,Pizza Hut,6502 Grand Teton Plz,MADISON,WI,53719-1047,United States of America,6088332113.0,pizza_hut
2000591437,Marco's Pizza,3154 Maple Grove Dr,MADISON,WI,53719-5049,United States of America,6088455400.0,marcos_pizza
2000047748,Figaro's Pizza,2465 Lineville Rd,GREEN BAY,WI,54313-7198,United States of America,9204342222.0,figaros_pizza
2000015834,Pizza Hut,6207 Hwy 51 South,SCHOFIELD,WI,54476,United States of America,7153598873.0,pizza_hut
1000895910,Papa Murphy's Take 'N' Bake Pizza,220 W Murdock Ave,OSHKOSH,WI,54901-2287,United States of America,9202335656.0,papa_murphys_take_n_bake_pizza
1000894311,Papa Murphy's Take 'N' Bake Pizza,186 N Main St,FOND DU LAC,WI,54935-3462,United States of America,9209065050.0,papa_murphys_take_n_bake_pizza
2000334485,Papa Murphy's Take 'N' Bake Pizza,1110 Midway Rd,MENASHA,WI,54952-1118,United States of America,9208869000.0,papa_murphys_take_n_bake_pizza
2000464786,Pizza Hut,576 12th St,MENASHA,WI,54952-1841,United States of America,9207255100.0,pizza_hut
2000002311,Godfather's Pizza,102 S Pine St,WEYAUWEGA,WI,54983-9354,United States of America,9208672530.0,godfathers_pizza
2000393599,Little Caesars Pizza,130 Opportunity Blvd S,CAMBRIDGE,MN,55008-1238,United States of America,7636894030.0,little_caesars_pizza
1000804763,Pizza Hut,1 S Pine Dr,CIRCLE PINES,MN,55014-1771,United States of America,7637809540.0,pizza_hut
2000595850,Papa Murphy's Take 'N' Bake Pizza,17677 Kenwood Trl,LAKEVILLE,MN,55044-9455,United States of America,9528983332.0,papa_murphys_take_n_bake_pizza
2000591452,Marco's Pizza,205 N Oak Ave,OWATONNA,MN,55060-2312,United States of America,5074513303.0,marcos_pizza
1000936804,Sbarro,1595 Highway 36 W,ROSEVILLE,MN,55113-3260,United States of America,6516971159.0,sbarro
1000807439,Pizza Hut,1325 Town Centre Dr,EAGAN,MN,55123-2309,United States of America,6512871001.0,pizza_hut
2000393597,Little Caesars Pizza,7594 150th St W,APPLE VALLEY,MN,55124-4802,United States of America,9524310701.0,little_caesars_pizza
1000817239,Pizza Hut,530 W 79th St,CHANHASSEN,MN,55317-8372,United States of America,9522520637.0,pizza_hut
2000629795,PizzaRev,525 Blake Rd N,HOPKINS,MN,55343-8888,United States of America,9529382408.0,pizzarev
2000610530,Godfather's Pizza,8100 Flying Cloud Dr,EDEN PRAIRIE,MN,55344-5332,United States of America,9529441690.0,godfathers_pizza
2000225008,Papa Murphy's Take 'N' Bake Pizza,4707 County Road 101,MINNETONKA,MN,55345-2634,United States of America,9522244490.0,papa_murphys_take_n_bake_pizza
1000807218,Pizza Hut,1300 W Broadway Ave,MINNEAPOLIS,MN,55411-2535,United States of America,6125221778.0,pizza_hut
2000631858,Toppers Pizza,712 Washington Ave SE,MINNEAPOLIS,MN,55414-2917,United States of America,6122597556.0,toppers_pizza
2000631866,Toppers Pizza,5618 W 36th St,SAINT LOUIS PARK,MN,55416-2509,United States of America,9526575455.0,toppers_pizza
1000816776,Pizza Hut,5004 34th Ave S,MINNEAPOLIS,MN,55417-1543,United States of America,6127214191.0,pizza_hut
2000631868,Toppers Pizza,5447 Nicollet Ave,MINNEAPOLIS,MN,55419-1958,United States of America,6128246000.0,toppers_pizza
2000610609,Godfather's Pizza,5801 Nicollet Ave,MINNEAPOLIS,MN,55419-2403,United States of America,6128616133.0,godfathers_pizza
2000331900,Godfather's Pizza,3701 Central Ave NE,COLUMBIA HEIGHTS,MN,55421-3928,United States of America,7637881113.0,godfathers_pizza
1000819656,Pizza Hut,7500 Bass Lake Rd,NEW HOPE,MN,55428-3827,United States of America,7635333100.0,pizza_hut
1000806849,Pizza Hut,12295 Central Ave NE,BLAINE,MN,55434-3917,United States of America,7637554838.0,pizza_hut
2000629785,PizzaRev,7529 France Ave S,EDINA,MN,55435-4704,United States of America,9528310337.0,pizzarev
1000933547,Papa John's Pizza,13055 Riverdale Dr NW,COON RAPIDS,MN,55448-8403,United States of America,7634214190.0,papa_johns_pizza
2000632592,zpizza,111 S Broadway,ROCHESTER,MN,55904,United States of America,5074240440.0,zpizza
1000838310,Little Caesars Pizza,1641 Broadway Ave N,ROCHESTER,MN,55906-4148,United States of America,5072891008.0,little_caesars_pizza
2000463997,Pizza Hut,617 Huff St,WINONA,MN,55987,United States of America,5074545100.0,pizza_hut
1000854748,Godfather's Pizza,30 Walnut St,WINONA,MN,55987-3413,United States of America,5074544274.0,godfathers_pizza
1000930674,Papa John's Pizza,1113 E College Dr,MARSHALL,MN,56258-3904,United States of America,5075327272.0,papa_johns_pizza
2000329573,Papa John's Pizza,39409 County Hwy,MORTON,MN,56270,United States of America,5076978400.0,papa_johns_pizza
1000947878,Papa John's Pizza,308 3rd Ave E,ALEXANDRIA,MN,56308-1494,United States of America,3207638777.0,papa_johns_pizza
1000952074,Papa John's Pizza,400 Washington St,BRAINERD,MN,56401-3344,United States of America,2188257272.0,papa_johns_pizza
2000591536,Marco's Pizza,112 E Holly Blvd,BRANDON,SD,57005-1114,United States of America,6055827878.0,marcos_pizza
2000631917,Toppers Pizza,1304 6th St,BROOKINGS,SD,57006-2310,United States of America,6056975211.0,toppers_pizza
1000845449,Godfather's Pizza,2101 Broadway Ave,YANKTON,SD,57078-1605,United States of America,6056652525.0,godfathers_pizza
2000631880,Toppers Pizza,3607 E 10th St,SIOUX FALLS,SD,57103-2112,United States of America,6052718899.0,toppers_pizza
2000464526,Pizza Hut,523 W 10th St,SIOUX FALLS,SD,57104-3619,United States of America,6053353333.0,pizza_hut
2000626811,Boston's The Gourmet Pizza Restaurant & Sports Bar,620 E Disk Dr,RAPID CITY,SD,57701-7811,United States of America,6053487200.0,bostons_the_gourmet_pizza_restaurant_&_sports_bar
2000331907,Godfather's Pizza,16098 Highway 1416,NEW UNDERWOOD,SD,57761-6147,United States of America,6057546778.0,godfathers_pizza
2000464161,Pizza Hut,725 38th St S,FARGO,ND,58103,United States of America,7012827089.0,pizza_hut
1000865423,Godfather's Pizza,4340 13th Ave S,FARGO,ND,58103-3300,United States of America,7012771666.0,godfathers_pizza
2000443122,Domino's,3803 13th Ave S,FARGO,ND,58103-3301,United States of America,,dominos
1000849146,Little Caesars Pizza,2400 S Washington St,GRAND FORKS,ND,58201-6701,United States of America,7014020377.0,little_caesars_pizza
1000878026,Little Caesars Pizza,701 5th Ave SE,DEVILS LAKE,ND,58301-3600,United States of America,7016628500.0,little_caesars_pizza
1000819206,Pizza Hut,710 10th St SE,JAMESTOWN,ND,58401-5727,United States of America,7012525780.0,pizza_hut
2000464158,Pizza Hut,413 E Bismarck Expy,BISMARCK,ND,58504-6511,United States of America,7012241047.0,pizza_hut
2000464157,Pizza Hut,124 W Main St,BEULAH,ND,58523,United States of America,7018735040.0,pizza_hut
2000464159,Pizza Hut,522 12th St W,DICKINSON,ND,58601,United States of America,7012270360.0,pizza_hut
1000811644,Pizza Hut,2301 15th St SW,MINOT,ND,58701-6933,United States of America,7018520885.0,pizza_hut
2000464086,Pizza Hut,1126 N 27th St,BILLINGS,MT,59101,United States of America,4062525491.0,pizza_hut
2000632533,zpizza,901 10th Ave S,GREAT FALLS,MT,59405-4420,United States of America,4063158165.0,zpizza
2000464088,Pizza Hut,1133 Helena Ave,HELENA,MT,59601-3560,United States of America,4064424010.0,pizza_hut
2000463766,Pizza Hut,430 Orchard St,ANTIOCH,IL,60002-1237,United States of America,8478380866.0,pizza_hut
2000463773,Pizza Hut,93 Grant St,CRYSTAL LAKE,IL,60014-4315,United States of America,8153563900.0,pizza_hut
1000812949,Pizza Hut,282 W Virginia St,CRYSTAL LAKE,IL,60014-7299,United States of America,8154594404.0,pizza_hut
2000183029,Papa John's Pizza,3 S US Highway 12,FOX LAKE,IL,60020-1744,United States of America,8475877272.0,papa_johns_pizza
2000629360,MOD Pizza,1494 Waukegan Rd,GLENVIEW,IL,60025-2121,United States of America,8478325012.0,mod_pizza
2000631929,Toppers Pizza,1015 W Lincoln Hwy,DEKALB,IL,60115-3027,United States of America,8157567755.0,toppers_pizza
2000155318,Jet's Pizza,219 E Roosevelt Rd,LOMBARD,IL,60148-4555,United States of America,6304244777.0,jets_pizza
1000810924,Pizza Hut,2104 W Algonquin Rd,LAKE IN THE HILLS,IL,60156-1370,United States of America,8476586363.0,pizza_hut
1000820914,Pizza Hut,900 Winston Dr,MELROSE PARK,IL,60160,United States of America,7083435058.0,pizza_hut
1000862081,Little Caesars Pizza,3910 25th Ave,SCHILLER PARK,IL,60176-2153,United States of America,8476783500.0,little_caesars_pizza
1000807027,Pizza Hut,12601 Western Ave,BLUE ISLAND,IL,60406-1778,United States of America,7083853133.0,pizza_hut
1000813065,Pizza Hut,2901 Plainfield Rd,JOLIET,IL,60435-1171,United States of America,8154364166.0,pizza_hut
2000623429,Marco's Pizza,2410 Essington Rd,JOLIET,IL,60435-1216,United States of America,8156764994.0,marcos_pizza
2000575052,Papa John's Pizza,705 E Highway 30,NEW LENOX,IL,60451,United States of America,8154854000.0,papa_johns_pizza
2000183034,Papa John's Pizza,5500 159th St,OAK FOREST,IL,60452-3224,United States of America,7085357272.0,papa_johns_pizza
1000863241,Chuck E. Cheese's,4031 W 95th St,OAK LAWN,IL,60453-2611,United States of America,7084255800.0,chuck_e_cheeses
2000329367,Papa John's Pizza,10308 S Cicero Ave,OAK LAWN,IL,60453-4702,United States of America,7084237272.0,papa_johns_pizza
2000629358,MOD Pizza,15139 S La Grange Rd,ORLAND PARK,IL,60462-3708,United States of America,7087377359.0,mod_pizza
2000329502,Papa John's Pizza,22242 Governors Hwy,RICHTON PARK,IL,60471-1252,United States of America,7087487272.0,papa_johns_pizza
2000183037,Papa John's Pizza,1001 E 162nd St,SOUTH HOLLAND,IL,60473-2567,United States of America,7083337272.0,papa_johns_pizza
1000910966,Domino's,127 State St,BATAVIA,IL,60510-2668,United States of America,6308793030.0,dominos
1000817578,Pizza Hut,5621 S La Grange Rd,COUNTRYSIDE,IL,60525-7226,United States of America,7083528810.0,pizza_hut
1000929310,Papa John's Pizza,1044 Maple Ave,LISLE,IL,60532-2329,United States of America,6309637222.0,papa_johns_pizza
1000914857,Domino's,1983 Brookdale Rd,NAPERVILLE,IL,60563-2077,United States of America,6303053330.0,dominos
1000821227,Pizza Hut,924 W 75th St,NAPERVILLE,IL,60565-6197,United States of America,6303058200.0,pizza_hut
1000811759,Pizza Hut,2337 W Cermak Rd,CHICAGO,IL,60608-3811,United States of America,7733768858.0,pizza_hut
2000183021,Papa John's Pizza,3927 N Lincoln Ave,CHICAGO,IL,60613-2417,United States of America,7735257272.0,papa_johns_pizza
2000463769,Pizza Hut,1225 W Fullerton Ave,CHICAGO,IL,60614-2102,United States of America,7738681554.0,pizza_hut
2000407373,Papa John's Pizza,1755 W 87th St,CHICAGO,IL,60617,United States of America,7732331111.0,papa_johns_pizza
1000813979,Pizza Hut,3216 N Kimball Ave,CHICAGO,IL,60618-5515,United States of America,7734781918.0,pizza_hut
2000328011,Domino's,2306 W 95th St,CHICAGO,IL,60643-1004,United States of America,7739418537.0,dominos
2000575904,Pizza Hut,355 W Hubbard St,CHICAGO,IL,60654,United States of America,3122221600.0,pizza_hut
2000640260,Sbarro,1640 S Galena Ave,DIXON,IL,61021-9611,United States of America,8152881704.0,sbarro
1000815388,Pizza Hut,404 E Washington St,OREGON,IL,61061-9401,United States of America,8157324444.0,pizza_hut
2000425619,Little Caesars Pizza,Xtra Arecibo Shopping Ctr,ARECIBO,PR,612,United States of America,7878230546.0,little_caesars_pizza
2000423720,Papa Murphy's Take 'N' Bake Pizza,2933 18th Ave,ROCK ISLAND,IL,61201-4756,United States of America,3092837440.0,papa_murphys_take_n_bake_pizza
2000463776,Pizza Hut,4133 Kennedy Dr,EAST MOLINE,IL,61244,United States of America,3097552131.0,pizza_hut
2000003365,Sbarro,1 University Cir,MACOMB,IL,61455-1367,United States of America,3092981292.0,sbarro
1000956651,Papa John's Pizza,521 W Jackson St,MACOMB,IL,61455-2007,United States of America,3098377272.0,papa_johns_pizza
2000405688,Marco's Pizza,1712 Broadway St,PEKIN,IL,61554-3808,United States of America,3096209292.0,marcos_pizza
2000591525,Marco's Pizza,1420 Airport Rd,BLOOMINGTON,IL,61704-2566,United States of America,3098070546.0,marcos_pizza
1000934656,Sbarro,1401 W Green St,URBANA,IL,61801-2953,United States of America,2173370100.0,sbarro
2000634199,Brixx Wood Fired Pizza,2043 S Neil St,CHAMPAIGN,IL,61820-7219,United States of America,2176071605.0,brixx_wood_fired_pizza
2000591510,Marco's Pizza,909 Lincoln Ave,CHARLESTON,IL,61920-3005,United States of America,2173458800.0,marcos_pizza
2000591433,Marco's Pizza,3102 Nameoki Rd,GRANITE CITY,IL,62040-5013,United States of America,6182198262.0,marcos_pizza
2000425595,Little Caesars Pizza,933 N Illinois Route 3,WATERLOO,IL,62298-1074,United States of America,6189390084.0,little_caesars_pizza
2000463795,Pizza Hut,1933 Jefferson St,QUINCY,IL,62301-5652,United States of America,2172248777.0,pizza_hut
1000860852,Little Caesars Pizza,3701 Broadway St,QUINCY,IL,62305-2821,United States of America,2172240051.0,little_caesars_pizza
2000591499,Marco's Pizza,707 W Fayette Ave,EFFINGHAM,IL,62401-2455,United States of America,2173423424.0,marcos_pizza
1000968148,Sbarro,1702 W Evergreen Ave,EFFINGHAM,IL,62401-4425,United States of America,2173477183.0,sbarro
2000172612,Little Caesars Pizza,427 Keokuk St,LINCOLN,IL,62656-1726,United States of America,2177351451.0,little_caesars_pizza
1000814142,Pizza Hut,330 E Sangamon Ave,PETERSBURG,IL,62675-1248,United States of America,2176327707.0,pizza_hut
2000027315,Little Caesars Pizza,1933 W Iles Ave,SPRINGFIELD,IL,62704-4177,United States of America,2175465544.0,little_caesars_pizza
2000242553,Little Caesars Pizza,1123 W Broadway,CENTRALIA,IL,62801-5353,United States of America,6189182288.0,little_caesars_pizza
1000948193,Papa John's Pizza,3106 Broadway St,MOUNT VERNON,IL,62864-2339,United States of America,6182449494.0,papa_johns_pizza
2000172803,Little Caesars Pizza,431 Lafayette Ctr,MANCHESTER,MO,63011-3943,United States of America,6365272439.0,little_caesars_pizza
2000041252,California Pizza Kitchen,284 Chesterfield Mall,CHESTERFIELD,MO,63017-4811,United States of America,6365366910.0,california_pizza_kitchen
2000242657,Little Caesars Pizza,229 E 5th St,EUREKA,MO,63025-1223,United States of America,6365872599.0,little_caesars_pizza
1000957642,Sbarro,5555 St Louis Mills Blvd,HAZELWOOD,MO,63042-4453,United States of America,3142275303.0,sbarro
2000172804,Little Caesars Pizza,2039 Dorsett Vlg,MARYLAND HEIGHTS,MO,63043-2207,United States of America,3144342848.0,little_caesars_pizza
2000575291,Little Caesars Pizza,1022 E Main St,UNION,MO,63084-1492,United States of America,6367440011.0,little_caesars_pizza
2000241916,Marco's Pizza,6400 Gravois Ave,SAINT LOUIS,MO,63116-1124,United States of America,3143521887.0,marcos_pizza
2000423721,Papa Murphy's Take 'N' Bake Pizza,9538 Manchester Rd,SAINT LOUIS,MO,63119-1313,United States of America,3149637374.0,papa_murphys_take_n_bake_pizza
2000172795,Little Caesars Pizza,8013 MacKenzie Rd,AFFTON,MO,63123-3518,United States of America,3143517622.0,little_caesars_pizza
1000824754,Little Caesars Pizza,1040 Lemay Ferry Rd,SAINT LOUIS,MO,63125-1744,United States of America,3145442700.0,little_caesars_pizza
2000027256,Little Caesars Pizza,12404 Tesson Ferry Rd,SAINT LOUIS,MO,63128-2702,United States of America,3148431967.0,little_caesars_pizza
2000393605,Little Caesars Pizza,7329 Manchester Rd,MAPLEWOOD,MO,63143-3107,United States of America,3146442900.0,little_caesars_pizza
2000172806,Little Caesars Pizza,614 N Main St,O FALLON,MO,63366-1704,United States of America,6362811340.0,little_caesars_pizza
2000611767,Marco's Pizza,1820 Lake Saint Louis Blvd,LAKE ST LOUIS,MO,63367-1318,United States of America,6366253377.0,marcos_pizza
2000334463,Papa Murphy's Take 'N' Bake Pizza,6289 Ronald Reagan Dr,LAKE ST LOUIS,MO,63367-2664,United States of America,6366258800.0,papa_murphys_take_n_bake_pizza
1000898343,Papa Murphy's Take 'N' Bake Pizza,3027 Highway K,O FALLON,MO,63368-8696,United States of America,6363797272.0,papa_murphys_take_n_bake_pizza
2000172813,Little Caesars Pizza,518 Warren County Ctr,WARRENTON,MO,63383-3023,United States of America,6364562618.0,little_caesars_pizza
1000935992,Papa John's Pizza,1506 S Baltimore St,KIRKSVILLE,MO,63501-4535,United States of America,6606657272.0,papa_johns_pizza
1000968478,Domino's,114 W Main St,PARK HILLS,MO,63601-2540,United States of America,5734317372.0,dominos
2000379694,Papa Murphy's Take 'N' Bake Pizza,331 N Main St,SIKESTON,MO,63801-2170,United States of America,5734719992.0,papa_murphys_take_n_bake_pizza
2000464009,Pizza Hut,200 W Stoddard St,DEXTER,MO,63841-1655,United States of America,5736247442.0,pizza_hut
2000423732,Papa Murphy's Take 'N' Bake Pizza,1895 N Westwood Blvd,POPLAR BLUFF,MO,63901-2833,United States of America,5734132100.0,papa_murphys_take_n_bake_pizza
2000635672,Snappy Tomato Pizza,325 Leroux St,DONIPHAN,MO,63935-1035,United States of America,5739967627.0,snappy_tomato_pizza
2000172798,Little Caesars Pizza,1759 W Jesse James Rd,EXCELSIOR SPRINGS,MO,64024-1801,United States of America,8166379011.0,little_caesars_pizza
1000875036,Little Caesars Pizza,6203 Main St,GRANDVIEW,MO,64030-2694,United States of America,8167658778.0,little_caesars_pizza
2000610912,Godfather's Pizza,15800 E 23rd St S,INDEPENDENCE,MO,64055-1909,United States of America,6628875011.0,godfathers_pizza
2000610758,Godfather's Pizza,300 SE 29 Highway,LEES SUMMIT,MO,64063,United States of America,9165245437.0,godfathers_pizza
2000591429,Marco's Pizza,303 NE Todd George Rd,LEES SUMMIT,MO,64086-6664,United States of America,8165540406.0,marcos_pizza
2000464016,Pizza Hut,11 Deliver Pl,KANSAS CITY,MO,64111,United States of America,3164230000.0,pizza_hut
2000464017,Pizza Hut,123 Main St,KANSAS CITY,MO,64111,United States of America,3166660000.0,pizza_hut
2000464018,Pizza Hut,14 Deliverplus St,KANSAS CITY,MO,64111,United States of America,3164147777.0,pizza_hut
2000464020,Pizza Hut,17 Delplus Pl,KANSAS CITY,MO,64111,United States of America,3163161616.0,pizza_hut
2000464021,Pizza Hut,22 Delplus St,KANSAS CITY,MO,64111,United States of America,3164440000.0,pizza_hut
2000464022,Pizza Hut,35 Deliver Plus Ln,KANSAS CITY,MO,64111,United States of America,3161234567.0,pizza_hut
2000464023,Pizza Hut,37 Delplus Ct,KANSAS CITY,MO,64111,United States of America,3616411111.0,pizza_hut
2000464024,Pizza Hut,38 Deliver Plus Place,KANSAS CITY,MO,64111,United States of America,3619990000.0,pizza_hut
2000464025,Pizza Hut,4040 High Plains St,KANSAS CITY,MO,64111,United States of America,3162221010.0,pizza_hut
2000464026,Pizza Hut,4242 High Plains St,KANSAS CITY,MO,64111,United States of America,3162222020.0,pizza_hut
2000464027,Pizza Hut,4343 High Plains St,KANSAS CITY,MO,64111,United States of America,3162223030.0,pizza_hut
2000464028,Pizza Hut,4444 High Plains St,KANSAS CITY,MO,64111,United States of America,3162224040.0,pizza_hut
2000464029,Pizza Hut,6464 High Plains St,KANSAS CITY,MO,64111,United States of America,3162226464.0,pizza_hut
2000575728,Pizza Hut,4949 High Plains St,KANSAS CITY,MO,64111,United States of America,3162224949.0,pizza_hut
2000590520,Pizza Hut,5050 High Plains St,KANSAS CITY,MO,64111,United States of America,3162225050.0,pizza_hut
2000200018,Papa Murphy's Take 'N' Bake Pizza,3600 Broadway Blvd,KANSAS CITY,MO,64111-2552,United States of America,8165318100.0,papa_murphys_take_n_bake_pizza
2000576237,Pizzeria Locale,505 W 75th St,KANSAS CITY,MO,64114-1512,United States of America,8165231161.0,pizzeria_locale
2000610571,Godfather's Pizza,6897 E Front St,KANSAS CITY,MO,64120-1304,United States of America,8164831855.0,godfathers_pizza
2000610490,Godfather's Pizza,9917 E Bannister Rd,KANSAS CITY,MO,64134-2218,United States of America,8167617585.0,godfathers_pizza
1000884335,Little Caesars Pizza,8793 Blue Ridge Blvd,RAYTOWN,MO,64138-4115,United States of America,8167650005.0,little_caesars_pizza
1000846910,CiCi's Pizza,2207 N Belt Hwy,SAINT JOSEPH,MO,64506-2297,United States of America,8166762424.0,cicis_pizza
2000464036,Pizza Hut,1711 Mitchell Ave,SAINT JOSEPH,MO,64507-1252,United States of America,8162324453.0,pizza_hut
2000348219,CheeZies Pizza,1206 W MacArthur Dr,WEBB CITY,MO,64870,United States of America,4176737373.0,cheezies_pizza
2000464004,Pizza Hut,1175 N Highway 5,CAMDENTON,MO,65020,United States of America,5733465459.0,pizza_hut
2000195499,Godfather's Pizza,102 E 4th St,ELDON,MO,65026-1565,United States of America,5733925599.0,godfathers_pizza
1000810463,Pizza Hut,2005 Schotthill Woods Dr,JEFFERSON CITY,MO,65101-5509,United States of America,5736320245.0,pizza_hut
2000464031,Pizza Hut,161 S Benton Ave,MARSHALL,MO,65340-1836,United States of America,6608869603.0,pizza_hut
2000329633,Papa John's Pizza,591 E Elm St,REPUBLIC,MO,65738-1317,United States of America,4177350050.0,papa_johns_pizza
1000844624,Fox's Pizza Den,204 S State Highway 125,STRAFFORD,MO,65757-9461,United States of America,4177363697.0,foxs_pizza_den
1000927503,Domino's,Porter Wagoner & Gibson St,WEST PLAINS,MO,65775,United States of America,4172570055.0,dominos
2000464041,Pizza Hut,1324 W Kearney St,SPRINGFIELD,MO,65803-1350,United States of America,4178822300.0,pizza_hut
2000301448,Jet's Pizza,2040 S Glenstone Ave,SPRINGFIELD,MO,65804-2428,United States of America,4173191945.0,jets_pizza
2000464043,Pizza Hut,655 E Sunshine St,SPRINGFIELD,MO,65807,United States of America,4176551234.0,pizza_hut
2000464044,Pizza Hut,656 E Sunshine St,SPRINGFIELD,MO,65807,United States of America,4176561234.0,pizza_hut
2000464045,Pizza Hut,657 E Sunshine St,SPRINGFIELD,MO,65807,United States of America,4176571234.0,pizza_hut
2000464046,Pizza Hut,658 E Sunshine St,SPRINGFIELD,MO,65807,United States of America,4176581234.0,pizza_hut
2000464047,Pizza Hut,659 E Sunshine St,SPRINGFIELD,MO,65807,United States of America,4176591234.0,pizza_hut
2000464048,Pizza Hut,660 E Sunshine St,SPRINGFIELD,MO,65807,United States of America,4176601234.0,pizza_hut
2000464049,Pizza Hut,661 E Sunshine St,SPRINGFIELD,MO,65807,United States of America,4176611234.0,pizza_hut
2000464050,Pizza Hut,662 E Sunshine St,SPRINGFIELD,MO,65807,United States of America,4176621234.0,pizza_hut
2000464051,Pizza Hut,663 E Sunshine St,SPRINGFIELD,MO,65807,United States of America,4176631234.0,pizza_hut
2000464052,Pizza Hut,664 E Sunshine St,SPRINGFIELD,MO,65807,United States of America,4176641234.0,pizza_hut
2000464053,Pizza Hut,665 E Sunshine St,SPRINGFIELD,MO,65807,United States of America,4176651234.0,pizza_hut
2000464054,Pizza Hut,666 E Sunshine St,SPRINGFIELD,MO,65807,United States of America,4176661234.0,pizza_hut
2000464055,Pizza Hut,667 E Sunshine St,SPRINGFIELD,MO,65807,United States of America,4176671234.0,pizza_hut
2000464057,Pizza Hut,669 E Sunshine St,SPRINGFIELD,MO,65807,United States of America,4176691234.0,pizza_hut
2000464058,Pizza Hut,670 E Sunshine St,SPRINGFIELD,MO,65807,United States of America,4176701234.0,pizza_hut
2000464059,Pizza Hut,671 E Sunshine St,SPRINGFIELD,MO,65807,United States of America,4176711234.0,pizza_hut
2000464060,Pizza Hut,672 E Sunshine St,SPRINGFIELD,MO,65807,United States of America,4176721234.0,pizza_hut
2000464061,Pizza Hut,673 E Sunshine St,SPRINGFIELD,MO,65807,United States of America,4176731234.0,pizza_hut
2000590521,Pizza Hut,654 E Sunshine St,SPRINGFIELD,MO,65807,United States of America,4176541234.0,pizza_hut
1000857054,CiCi's Pizza,319 E Battlefield St,SPRINGFIELD,MO,65807-4999,United States of America,4178869696.0,cicis_pizza
2000631927,Toppers Pizza,1100 Indiana St,LAWRENCE,KS,66044-3213,United States of America,,toppers_pizza
1000834207,Little Caesars Pizza,4000 Monterey Way,LAWRENCE,KS,66049,United States of America,7858655400.0,little_caesars_pizza
2000424572,Pizza Hut,4310 Main St,BRIDGEPORT,CT,6606,United States of America,2033725555.0,pizza_hut
1000873713,Little Caesars Pizza,600 E Santa Fe St,OLATHE,KS,66061-3700,United States of America,9137805999.0,little_caesars_pizza
2000626772,Blaze Pizza,1191 S Black Bob Rd,OLATHE,KS,66062,United States of America,,blaze_pizza
2000610919,Godfather's Pizza,15115 W 119th St,OLATHE,KS,66062-5291,United States of America,9138295362.0,godfathers_pizza
2000407375,Papa John's Pizza,1621 S Main St,OTTAWA,KS,66067-3804,United States of America,7852427272.0,papa_johns_pizza
2000051101,Simple Simon's Pizza,901 Oak St,VALLEY FALLS,KS,66088-1224,United States of America,7859453315.0,simple_simons_pizza
1000905763,Papa Murphy's Take 'N' Bake Pizza,7630 State Ave,KANSAS CITY,KS,66112,United States of America,9132990707.0,papa_murphys_take_n_bake_pizza
2000242781,Little Caesars Pizza,7569 State Ave,KANSAS CITY,KS,66112-2815,United States of America,9137889334.0,little_caesars_pizza
1000878002,Godfather's Pizza,7002 Johnson Dr,SHAWNEE MISSION,KS,66202-2323,United States of America,9132369700.0,godfathers_pizza
2000241918,Marco's Pizza,6638 Nieman Rd,SHAWNEE,KS,66203-3330,United States of America,9132683322.0,marcos_pizza
2000610502,Godfather's Pizza,9500 W 67th St,SHAWNEE MISSION,KS,66203-3614,United States of America,9137221388.0,godfathers_pizza
2000224996,Papa Murphy's Take 'N' Bake Pizza,4986 Roe Blvd,ROELAND PARK,KS,66205-1110,United States of America,9132627272.0,papa_murphys_take_n_bake_pizza
2000404710,Pie Five Pizza,11725 Roe Ave,LEAWOOD,KS,66211-2605,United States of America,9139069003.0,pie_five_pizza
2000041112,California Pizza Kitchen,11655 Ash St,LEAWOOD,KS,66211-7801,United States of America,9133275290.0,california_pizza_kitchen
2000610554,Godfather's Pizza,7475 W 95th St,SHAWNEE MISSION,KS,66212-2208,United States of America,9133851280.0,godfathers_pizza
1000884661,Little Caesars Pizza,8930 W 95th St,OVERLAND PARK,KS,66212-4052,United States of America,9133812020.0,little_caesars_pizza
1000888862,Papa Murphy's Take 'N' Bake Pizza,10057 W 87th St,OVERLAND PARK,KS,66212-4671,United States of America,9138880400.0,papa_murphys_take_n_bake_pizza
2000303985,Papa Murphy's Take 'N' Bake Pizza,7414 W 119th St,OVERLAND PARK,KS,66213-1110,United States of America,9132327926.0,papa_murphys_take_n_bake_pizza
2000576238,Pizzeria Locale,11875 W 95th St,OVERLAND PARK,KS,66214,United States of America,9134389262.0,pizzeria_locale
2000576239,Pizzeria Locale,6455 W 135th St,OVERLAND PARK,KS,66223-7902,United States of America,9138515975.0,pizzeria_locale
2000012684,Little Caesars Pizza,3703 SW Burlingame Rd,TOPEKA,KS,66609-1242,United States of America,7852677468.0,little_caesars_pizza
2000463835,Pizza Hut,400 N Summit St,ARKANSAS CITY,KS,67005,United States of America,6204421925.0,pizza_hut
2000345620,Pie Five Pizza,2035 N Rock Rd,WICHITA,KS,67206-1276,United States of America,3162528400.0,pie_five_pizza
1000907744,Papa Murphy's Take 'N' Bake Pizza,9747 E 21st St N,WICHITA,KS,67206-3538,United States of America,3163150606.0,papa_murphys_take_n_bake_pizza
1000817460,Pizza Hut,550 S Ohio St,SALINA,KS,67401-3322,United States of America,7858235169.0,pizza_hut
2000242688,Little Caesars Pizza,319 S Main St,MCPHERSON,KS,67460-4831,United States of America,6205045000.0,little_caesars_pizza
2000463836,Pizza Hut,3104 10th St,GREAT BEND,KS,67530-4264,United States of America,6207927316.0,pizza_hut
2000464172,Pizza Hut,806 Tara Plz,PAPILLION,NE,68046,United States of America,4025924191.0,pizza_hut
1000844773,Godfather's Pizza,205 Railroad St,SCRIBNER,NE,68057-3208,United States of America,4026642728.0,godfathers_pizza
1000901114,Papa Murphy's Take 'N' Bake Pizza,5104 L St,OMAHA,NE,68117-1330,United States of America,4027317272.0,papa_murphys_take_n_bake_pizza
2000345622,Pie Five Pizza,1303 S 72nd St,OMAHA,NE,68124-1605,United States of America,4029329880.0,pie_five_pizza
1000807682,Pizza Hut,13838 R Plz,OMAHA,NE,68137-2963,United States of America,4028957177.0,pizza_hut
2000015142,Papa Murphy's Take 'N' Bake Pizza,12411 W Center Rd,OMAHA,NE,68144-4393,United States of America,4023330880.0,papa_murphys_take_n_bake_pizza
1000849105,Godfather's Pizza,2400 Cass St,OMAHA,NE,68178-0035,United States of America,4022802445.0,godfathers_pizza
1000839470,Godfather's Pizza,1716 N Lincoln St,WEST POINT,NE,68788-1015,United States of America,4023729119.0,godfathers_pizza
1000895076,Papa Murphy's Take 'N' Bake Pizza,206 Wilmar Ave,GRAND ISLAND,NE,68803-3559,United States of America,3083844533.0,papa_murphys_take_n_bake_pizza
1000855628,Godfather's Pizza,304 N Smith Ave,KENESAW,NE,68956,United States of America,4027523628.0,godfathers_pizza
1000809080,Pizza Hut,1675 10th St,GERING,NE,69341-2409,United States of America,3084362151.0,pizza_hut
1000963868,Papa John's Pizza,806 1/2 E 27th St,SCOTTSBLUFF,NE,69361-1754,United States of America,3086327474.0,papa_johns_pizza
2000628637,Mellow Mushroom,3131 Veterans Blvd,METAIRIE,LA,70002,United States of America,5046444155.0,mellow_mushroom
2000405741,Marco's Pizza,5029 Veterans Blvd,METAIRIE,LA,70006,United States of America,5042074992.0,marcos_pizza
2000390385,Hungry Howie's Pizza & Subs,7838 Earhart Blvd,NEW ORLEANS,LA,70125-2506,United States of America,5048664694.0,hungry_howies_pizza_&_subs
1000812878,Pizza Hut,2800 S Claiborne Ave,NEW ORLEANS,LA,70125-3932,United States of America,5048919301.0,pizza_hut
2000242810,Little Caesars Pizza,925 Veterans Blvd,DONALDSONVILLE,LA,70346-3143,United States of America,2254732122.0,little_caesars_pizza
1000842115,CiCi's Pizza,1905 W Thomas St,HAMMOND,LA,70401-2901,United States of America,9854192200.0,cicis_pizza
2000199562,The Original Italian Pie,70488 Highway 21,COVINGTON,LA,70435,United States of America,9858715252.0,the_original_italian_pie
2000136233,Marco's Pizza,534 Gause Blvd,SLIDELL,LA,70458-2036,United States of America,9856462680.0,marcos_pizza
2000183608,Marco's Pizza,4638 Highway 22,MANDEVILLE,LA,70471-2820,United States of America,9858454141.0,marcos_pizza
2000628635,Mellow Mushroom,3151 Johnston St,LAFAYETTE,LA,70503-3741,United States of America,3375340568.0,mellow_mushroom
2000172876,Little Caesars Pizza,2434 Barbour Ave,PASSAIC,NJ,7055,United States of America,9734732067.0,little_caesars_pizza
2000147056,Hungry Howie's Pizza & Subs,610 S Burnside Ave,GONZALES,LA,70737,United States of America,2256444694.0,hungry_howies_pizza_&_subs
2000463886,Pizza Hut,113 W Cornerview St,GONZALES,LA,70737-2839,United States of America,5046446799.0,pizza_hut
2000393574,Little Caesars Pizza,216 Lee Dr,BATON ROUGE,LA,70808-5097,United States of America,2254217772.0,little_caesars_pizza
2000003439,Sbarro,New Jersey Tpke S Mile Post 92 9,WOODBRIDGE,NJ,7095,United States of America,7327508779.0,sbarro
1000847470,Fox's Pizza Den,225 Industrial Blvd,OAK GROVE,LA,71263-9427,United States of America,3184289949.0,foxs_pizza_den
1000811306,Pizza Hut,2203 E Harding Ave,PINE BLUFF,AR,71601-6835,United States of America,8705354450.0,pizza_hut
2000051035,Simple Simon's Pizza,105 Highway 278 E,WICKES,AR,71973-9348,United States of America,8703857709.0,simple_simons_pizza
1000916535,Brick Oven Pizza Company,2501 E Main St,CABOT,AR,72023,United States of America,5016058333.0,brick_oven_pizza_company
2000631852,Toppers Pizza,895 Oak St,CONWAY,AR,72032-4413,United States of America,5013585005.0,toppers_pizza
2000329445,Papa John's Pizza,1601 Highway 270 W,MALVERN,AR,72104,United States of America,5013377272.0,papa_johns_pizza
2000199915,Papa Murphy's Take 'N' Bake Pizza,7412 N Hills Blvd,NORTH LITTLE ROCK,AR,72116-4525,United States of America,5018195190.0,papa_murphys_take_n_bake_pizza
2000463428,Pizza Hut,1513 W Pleasure Ave,SEARCY,AR,72143-5156,United States of America,5012684276.0,pizza_hut
2000341482,Pizza Inn,16251 State Highway 77,TURRELL,AR,72384-9135,United States of America,8703438748.0,pizza_inn
2000342052,Fox's Pizza Den,117 Cobean Blvd,LAKE CITY,AR,72437-8884,United States of America,8706160900.0,foxs_pizza_den
1000882491,Pizza Inn,815 Hogan Ln,CONWAY,AR,72521,United States of America,5013271900.0,pizza_inn
2000050919,Simple Simon's Pizza,719 E Stephenson Ave,HARRISON,AR,72601-4443,United States of America,8703650007.0,simple_simons_pizza
2000628600,Mellow Mushroom,5204 W Village Pkwy,ROGERS,AR,72758-8104,United States of America,4794648008.0,mellow_mushroom
1000895594,Papa Murphy's Take 'N' Bake Pizza,2111 S Old Missouri Rd,SPRINGDALE,AR,72764-8748,United States of America,4797517878.0,papa_murphys_take_n_bake_pizza
1000920175,Brick Oven Pizza Company,401 S Arkansas Ave,RUSSELLVILLE,AR,72801-5901,United States of America,4799677900.0,brick_oven_pizza_company
2000196581,Pizza Inn,550 S Walbaum Rd,CALUMET,OK,73014-8536,United States of America,4058842800.0,pizza_inn
2000464392,Pizza Hut,14551 SE 23rd St,CHOCTAW,OK,73020-6500,United States of America,4053902505.0,pizza_hut
2000334412,Villa Fresh Italian Kitchen,3301 W Main St,NORMAN,OK,73072-4806,United States of America,4053666116.0,villa_fresh_italian_kitchen
2000464409,Pizza Hut,420 E Main St,YUKON,OK,73099-2241,United States of America,4053546665.0,pizza_hut
2000425622,Little Caesars Pizza,Capitan Carrera,PONCE,PR,731,United States of America,8098438888.0,little_caesars_pizza
2000224989,Papa Murphy's Take 'N' Bake Pizza,9501 N May Ave,OKLAHOMA CITY,OK,73120-2709,United States of America,4052863232.0,papa_murphys_take_n_bake_pizza
1000880713,Pizza Inn,6801 SW 3rd St,OKLAHOMA CITY,OK,73127,United States of America,4057892626.0,pizza_inn
2000642459,Peter Piper Pizza,6320 SW 3rd St,OKLAHOMA CITY,OK,73128,United States of America,4056036130.0,peter_piper_pizza
2000464399,Pizza Hut,2122 W Gore Blvd,LAWTON,OK,73501-3620,United States of America,5803530487.0,pizza_hut
2000464396,Pizza Hut,6036 Bessinger St,FORT SILL,OK,73503-4406,United States of America,5805810718.0,pizza_hut
2000051077,Simple Simon's Pizza,210 W 1st St,GRANDFIELD,OK,73546,United States of America,5805013316.0,simple_simons_pizza
1000805318,Pizza Hut,104 E Highway 54,GUYMON,OK,73942,United States of America,5803383818.0,pizza_hut
2000405869,Marco's Pizza,3900 E Frank Phillips Blvd,BARTLESVILLE,OK,74006-8319,United States of America,9187710771.0,marcos_pizza
1000894923,Papa Murphy's Take 'N' Bake Pizza,2000 W Houston St,BROKEN ARROW,OK,74012-8303,United States of America,9182517272.0,papa_murphys_take_n_bake_pizza
2000224985,Papa Murphy's Take 'N' Bake Pizza,404 S Elm St,JENKS,OK,74037-3766,United States of America,9185286869.0,papa_murphys_take_n_bake_pizza
2000464403,Pizza Hut,11 N Adair St,PRYOR,OK,74361-2431,United States of America,9188254900.0,pizza_hut
2000348230,Simple Simon's Pizza,330533 E Highway 66,WELLSTON,OK,74881-4442,United States of America,4053562924.0,simple_simons_pizza
2000033336,Papa Murphy's Take 'N' Bake Pizza,612 E Sandy Lake Rd,COPPELL,TX,75019-2754,United States of America,9723937272.0,papa_murphys_take_n_bake_pizza
2000628668,Mellow Mushroom,2450 Cross Timbers Rd,FLOWER MOUND,TX,75028-2619,United States of America,2145138111.0,mellow_mushroom
2000012654,Little Caesars Pizza,2601 Flower Mound Rd,FLOWER MOUND,TX,75028-4202,United States of America,9728993686.0,little_caesars_pizza
2000628653,Mellow Mushroom,2809 Preston Rd,FRISCO,TX,75034-0601,United States of America,2144944355.0,mellow_mushroom
2000628595,Mellow Mushroom,550 E Interstate 30,ROCKWALL,TX,75087-5462,United States of America,9727224550.0,mellow_mushroom
2000242706,Little Caesars Pizza,3801 Lakeview Pkwy,ROWLETT,TX,75088-4079,United States of America,9724129114.0,little_caesars_pizza
1000920142,Domino's,4006 W Plano Pkwy,PLANO,TX,75093-5628,United States of America,9726128888.0,dominos
1000844148,CiCi's Pizza,2014 N Highway 78,WYLIE,TX,75098-6090,United States of America,9724619700.0,cicis_pizza
2000447275,Papa John's Pizza,2325 N Trade Days Blvd,CANTON,TX,75103-9633,United States of America,9035670525.0,papa_johns_pizza
1000904384,Papa Murphy's Take 'N' Bake Pizza,642 Uptown Blvd,CEDAR HILL,TX,75104-3520,United States of America,9722931717.0,papa_murphys_take_n_bake_pizza
2000304019,Papa Murphy's Take 'N' Bake Pizza,204 E Pleasant Run Rd,DESOTO,TX,75115-3957,United States of America,9725906766.0,papa_murphys_take_n_bake_pizza
2000334472,Papa Murphy's Take 'N' Bake Pizza,306 N Cedar Ridge Dr,DUNCANVILLE,TX,75116-3143,United States of America,9729963211.0,papa_murphys_take_n_bake_pizza
1000873949,Pizza Inn,601 Pioneer Rd,MESQUITE,TX,75149-5285,United States of America,9722885405.0,pizza_inn
2000588356,Papa Murphy's Take 'N' Bake Pizza,1620 N Highway 77,WAXAHACHIE,TX,75165-7887,United States of America,9722689207.0,papa_murphys_take_n_bake_pizza
2000628674,Mellow Mushroom,2326 N Henderson Ave,DALLAS,TX,75206-7024,United States of America,9728076288.0,mellow_mushroom
2000424837,Pizza Hut,938 W Van Alstyne Pkwy,VAN ALSTYNE,TX,75495,United States of America,9034826564.0,pizza_hut
2000464697,Pizza Hut,209 W Southwest Loop 323,TYLER,TX,75701-8704,United States of America,9035617774.0,pizza_hut
1000849614,Pizza Inn,Hwy 79 @ I-45 East,BUFFALO,TX,75831,United States of America,9033224817.0,pizza_inn
2000347305,Jet's Pizza,2248 Central Dr,BEDFORD,TX,76021-5820,United States of America,8172839400.0,jets_pizza
2000053020,Peter Piper Pizza,1551 SW Wilshire Blvd,BURLESON,TX,76028-8715,United States of America,8174842131.0,peter_piper_pizza
2000050911,Simple Simon's Pizza,810 NE Big Bend Trl,GLEN ROSE,TX,76043,United States of America,2548980022.0,simple_simons_pizza
1000813467,Pizza Hut,303 W Northwest Hwy,GRAPEVINE,TX,76051-8221,United States of America,8174889521.0,pizza_hut
2000463250,Little Caesars Pizza,2840 FM Road,MANSFIELD,TX,76063,United States of America,8174533027.0,little_caesars_pizza
2000628652,Mellow Mushroom,2820 E Southlake Blvd,SOUTHLAKE,TX,76092-6614,United States of America,8177491111.0,mellow_mushroom
2000239563,Pie Five Pizza,2645 E Southlake Blvd,SOUTHLAKE,TX,76092-6833,United States of America,8174882335.0,pie_five_pizza
2000626810,Boston's The Gourmet Pizza Restaurant & Sports Bar,6501 North Fwy,FORT WORTH,TX,76131-1311,United States of America,8172323400.0,bostons_the_gourmet_pizza_restaurant_&_sports_bar
1000858853,CiCi's Pizza,3401 Altamesa Blvd,FORT WORTH,TX,76133-5772,United States of America,8173706292.0,cicis_pizza
2000200092,Papa Murphy's Take 'N' Bake Pizza,3651 Sycamore School Rd,FORT WORTH,TX,76133-7804,United States of America,8172947272.0,papa_murphys_take_n_bake_pizza
2000393635,Little Caesars Pizza,7 Tenafly Rd,ENGLEWOOD,NJ,7631,United States of America,2015671513.0,little_caesars_pizza
2000050990,Simple Simon's Pizza,603 W Front Ave,ELECTRA,TX,76360-2313,United States of America,9404952228.0,simple_simons_pizza
2000329492,Papa John's Pizza,2111 W Washington St,STEPHENVILLE,TX,76401-3927,United States of America,2549181030.0,papa_johns_pizza
2000051835,Gatti's Pizza,2170 N Main St,BELTON,TX,76513-1919,United States of America,2549392200.0,gattis_pizza
2000030974,Pizza Inn,309 N Travis Ave,CAMERON,TX,76520-3340,United States of America,2546976405.0,pizza_inn
2000224971,Papa Murphy's Take 'N' Bake Pizza,3605 N Main St,TAYLOR,TX,76574-4983,United States of America,5123527300.0,papa_murphys_take_n_bake_pizza
1000968328,Pizza Inn,100 L R Campbell Rd,ITALY,TX,76651-4017,United States of America,9724837890.0,pizza_inn
1000872020,Chuck E. Cheese's,5535 Weslayan St,HOUSTON,TX,77005-1941,United States of America,7136669802.0,chuck_e_cheeses
1000809656,Pizza Hut,1805 W 18th St,HOUSTON,TX,77008-1203,United States of America,7138622100.0,pizza_hut
2000304025,Papa Murphy's Take 'N' Bake Pizza,1214 W 43rd St,HOUSTON,TX,77018-4235,United States of America,7136837272.0,papa_murphys_take_n_bake_pizza
2000041188,California Pizza Kitchen,1997 W Gray St,HOUSTON,TX,77019-4801,United States of America,7135260010.0,california_pizza_kitchen
2000405840,Marco's Pizza,536 E Tidwell Rd,HOUSTON,TX,77022-1818,United States of America,8328570888.0,marcos_pizza
1000965572,Sbarro,900 Gessner Rd,HOUSTON,TX,77024,United States of America,7134658922.0,sbarro
1000825399,CiCi's Pizza,10601 S Post Oak Rd,HOUSTON,TX,77035-3307,United States of America,7137210017.0,cicis_pizza
2000051852,Gatti's Pizza,12155 Jones Rd,HOUSTON,TX,77070-5282,United States of America,2818073333.0,gattis_pizza
2000341487,Pizza Inn,17126 Pine Forest Ln,HOUSTON,TX,77084-4065,United States of America,2818617777.0,pizza_inn
1000838051,Pizza Inn,16244 Highway 105 E,CONROE,TX,77306-5938,United States of America,9362642239.0,pizza_inn
2000640261,Sbarro,141 Interstate 45 S,HUNTSVILLE,TX,77340-4243,United States of America,9362953386.0,sbarro
2000345625,Pie Five Pizza,21460 Kuykendahl Rd,SPRING,TX,77379-2664,United States of America,2812887435.0,pie_five_pizza
2000304029,Papa Murphy's Take 'N' Bake Pizza,2150 FM 2920 Rd,SPRING,TX,77388-3680,United States of America,2812884500.0,papa_murphys_take_n_bake_pizza
2000224975,Papa Murphy's Take 'N' Bake Pizza,3717 Center St,DEER PARK,TX,77536-6580,United States of America,2815427272.0,papa_murphys_take_n_bake_pizza
1000845810,CiCi's Pizza,212 FM 518 Rd,KEMAH,TX,77565-3251,United States of America,2815382424.0,cicis_pizza
2000407426,Papa John's Pizza,800 Main St,LIBERTY,TX,77575-3735,United States of America,9363364000.0,papa_johns_pizza
1000919020,Domino's,9430 Broadway St,PEARLAND,TX,77584-8075,United States of America,2814123678.0,dominos
2000611744,Jet's Pizza,10228 Broadway St,PEARLAND,TX,77584-8087,United States of America,7134369000.0,jets_pizza
1000886991,CiCi's Pizza,9603 Broadway St,PEARLAND,TX,77584-9772,United States of America,7134361115.0,cicis_pizza
2000404713,Pie Five Pizza,19325 Gulf Fwy,WEBSTER,TX,77598,United States of America,2815543091.0,pie_five_pizza
2000464701,Pizza Hut,3105 Edgar Brown Dr,WEST ORANGE,TX,77630-5347,United States of America,4098867717.0,pizza_hut
2000464582,Pizza Hut,3001 Wildflower Dr,BRYAN,TX,77802-3061,United States of America,9797743222.0,pizza_hut
2000383830,CiCi's Pizza,4461 State Highway 6 S,COLLEGE STATION,TX,77845-4428,United States of America,9796908888.0,cicis_pizza
2000334479,Papa Murphy's Take 'N' Bake Pizza,6321 N Navarro St,VICTORIA,TX,77904-1720,United States of America,3615707272.0,papa_murphys_take_n_bake_pizza
2000464696,Pizza Hut,Three Rivers Trailer,THREE RIVERS,TX,78071,United States of America,8775338041.0,pizza_hut
1000836870,Fox's Pizza Den,1551 N Walnut Ave,NEW BRAUNFELS,TX,78130-6045,United States of America,8306273697.0,foxs_pizza_den
1000862189,Fox's Pizza Den,3900 FM 3009,SCHERTZ,TX,78154-1138,United States of America,2106583697.0,foxs_pizza_den
2000464678,Pizza Hut,5510 Interstate 10 E,SAN ANTONIO,TX,78219-4505,United States of America,2106619751.0,pizza_hut
2000331904,Godfather's Pizza,232 1/2 E Rice St,FALFURRIAS,TX,78355,United States of America,3613234234.0,godfathers_pizza
2000424880,Pizza Hut,Route 206 & Flanders Bartley Rd,FLANDERS,NJ,7836,United States of America,9735844109.0,pizza_hut
2000424655,Pizza Hut,2200 State Highway 361,PORT ARANSAS,TX,78373-4837,United States of America,3612264555.0,pizza_hut
2000464669,Pizza Hut,208 N Alamo St,REFUGIO,TX,78377-2441,United States of America,3615264601.0,pizza_hut
2000173198,Little Caesars Pizza,2321 Highway 35 N,ROCKPORT,TX,78382-5702,United States of America,3617294400.0,little_caesars_pizza
1000824233,CiCi's Pizza,1901 W Expressway 83,WESLACO,TX,78596-4348,United States of America,9564472266.0,cicis_pizza
2000464583,Pizza Hut,909 N Loop 4,BUDA,TX,78610,United States of America,5122959900.0,pizza_hut
2000503323,Pie Five Pizza,1201 W University Avenue,GEORGETOWN,TX,78628,United States of America,5129425960.0,pie_five_pizza
1000859010,Little Caesars Pizza,3415 Williams Dr,GEORGETOWN,TX,78628-2885,United States of America,5128689666.0,little_caesars_pizza
2000503322,Pie Five Pizza,2424 FM 685,PFLUGERVILLE,TX,78660,United States of America,5129420017.0,pie_five_pizza
2000632575,zpizza,200 University Blvd,ROUND ROCK,TX,78665-1001,United States of America,5128695777.0,zpizza
2000464682,Pizza Hut,403 N Guadalupe St,SAN MARCOS,TX,78666-5776,United States of America,5123925900.0,pizza_hut
2000304023,Papa Murphy's Take 'N' Bake Pizza,1404 Clarewood Dr,SAN MARCOS,TX,78666-8417,United States of America,5126676760.0,papa_murphys_take_n_bake_pizza
2000464569,Pizza Hut,2801 S Lamar Blvd,AUSTIN,TX,78704-4729,United States of America,5124454141.0,pizza_hut
2000239529,Papa Murphy's Take 'N' Bake Pizza,11404 Ranch Road 2222,AUSTIN,TX,78730-1000,United States of America,5129969399.0,papa_murphys_take_n_bake_pizza
2000051821,Gatti's Pizza,3720 Far West Blvd,AUSTIN,TX,78731-3083,United States of America,5125838092.0,gattis_pizza
2000464571,Pizza Hut,320 W William Cannon Dr,AUSTIN,TX,78745-5691,United States of America,5124621166.0,pizza_hut
2000632563,zpizza,3300 Bee Caves Rd,WEST LAKE HILLS,TX,78746-6600,United States of America,5125208051.0,zpizza
2000464563,Pizza Hut,10700 Anderson Mill Rd,AUSTIN,TX,78750-2401,United States of America,5123359444.0,pizza_hut
2000173125,Little Caesars Pizza,500 Canyon Ridge Dr,AUSTIN,TX,78753-1660,United States of America,5128373000.0,little_caesars_pizza
2000464567,Pizza Hut,1934 Rutland Dr,AUSTIN,TX,78758-5494,United States of America,5128339444.0,pizza_hut
2000610789,Peter Piper Pizza,2500 Veterans Blvd,DEL RIO,TX,78840-3106,United States of America,8307752123.0,peter_piper_pizza
1000820629,Pizza Hut,855 W Kingsmill Ave,PAMPA,TX,79065-6339,United States of America,8066655971.0,pizza_hut
2000464561,Pizza Hut,3506 SE 27th Ave,AMARILLO,TX,79103-5200,United States of America,8063725361.0,pizza_hut
2000464559,Pizza Hut,2650 Dumas Dr,AMARILLO,TX,79107-2070,United States of America,8063830849.0,pizza_hut
1000899128,Hungry Howie's Pizza & Subs,3300 S Washington St,AMARILLO,TX,79109-3634,United States of America,8063318989.0,hungry_howies_pizza_&_subs
2000616124,Little Caesars Pizza,4610 S Coulter St,AMARILLO,TX,79119-6403,United States of America,8064142456.0,little_caesars_pizza
2000182598,Sbarro,Doak Hall,LUBBOCK,TX,79409,United States of America,8067862925.0,sbarro
2000423722,Papa Murphy's Take 'N' Bake Pizza,1152 E North 10th St,ABILENE,TX,79601-4635,United States of America,3256777272.0,papa_murphys_take_n_bake_pizza
1000922031,Pizza Pro,504 N Erma,PRESIDIO,TX,79846,United States of America,4322293776.0,pizza_pro
2000464606,Pizza Hut,6940 Alameda Ave,EL PASO,TX,79915-3402,United States of America,9157782775.0,pizza_hut
2000464607,Pizza Hut,9757 Dyer St,EL PASO,TX,79924-4724,United States of America,9157570321.0,pizza_hut
1000886178,Chuck E. Cheese's,9301 W 58th Ave,ARVADA,CO,80002-2001,United States of America,3034255925.0,chuck_e_cheeses
1000843042,Little Caesars Pizza,5616 S Gibraltar Way,CENTENNIAL,CO,80015-5305,United States of America,3034008111.0,little_caesars_pizza
2000329362,Papa John's Pizza,10081 Wadsworth Pkwy,WESTMINSTER,CO,80021-3805,United States of America,3034387272.0,papa_johns_pizza
2000634216,Brixx Wood Fired Pizza,14375 Orchard Pkwy,WESTMINSTER,CO,80023-8929,United States of America,7204648300.0,brixx_wood_fired_pizza
2000224963,Papa Murphy's Take 'N' Bake Pizza,558 E Castle Pines Pkwy,CASTLE PINES,CO,80108-4608,United States of America,3036632220.0,papa_murphys_take_n_bake_pizza
1000962159,Papa John's Pizza,7280 Lagae Rd,CASTLE PINES,CO,80108-9454,United States of America,7207336766.0,papa_johns_pizza
1000902279,Papa Murphy's Take 'N' Bake Pizza,50 W Littleton Blvd,LITTLETON,CO,80120-2492,United States of America,3037388888.0,papa_murphys_take_n_bake_pizza
2000628683,Mellow Mushroom,2154 E Commons Ave,CENTENNIAL,CO,80122-3266,United States of America,7203534300.0,mellow_mushroom
2000628567,Mellow Mushroom,9271 Park Meadows Dr,LONE TREE,CO,80124-5426,United States of America,3037923700.0,mellow_mushroom
1000880308,Little Caesars Pizza,757 E 20th Ave,DENVER,CO,80205-3292,United States of America,7209740214.0,little_caesars_pizza
2000588375,Papa Murphy's Take 'N' Bake Pizza,383 S Broadway,DENVER,CO,80209-1522,United States of America,3038628588.0,papa_murphys_take_n_bake_pizza
2000634215,Brixx Wood Fired Pizza,8351 E Northfield Blvd,DENVER,CO,80238-3560,United States of America,7203724100.0,brixx_wood_fired_pizza
2000595855,Papa Murphy's Take 'N' Bake Pizza,1407 W 84th Ave,FEDERAL HEIGHTS,CO,80260-4781,United States of America,3034297272.0,papa_murphys_take_n_bake_pizza
2000631894,Toppers Pizza,2318 17th Ave,LONGMONT,CO,80501-9747,United States of America,,toppers_pizza
2000631912,Toppers Pizza,1501 W Elizabeth St,FORT COLLINS,CO,80521-5006,United States of America,,toppers_pizza
2000463554,Pizza Hut,2601 S Lemay Ave,FORT COLLINS,CO,80525-2295,United States of America,9702290111.0,pizza_hut
2000463558,Pizza Hut,2263 Greeley Mall,GREELEY,CO,80631-8544,United States of America,9703922500.0,pizza_hut
1000855403,Little Caesars Pizza,3020 N Nevada Ave,COLORADO SPRINGS,CO,80907-5323,United States of America,7194714250.0,little_caesars_pizza
2000463545,Pizza Hut,2925 Galley Rd,COLORADO SPRINGS,CO,80909-5032,United States of America,7195971100.0,pizza_hut
2000463544,Pizza Hut,2851 Dublin Blvd,COLORADO SPRINGS,CO,80918-1662,United States of America,7195908888.0,pizza_hut
2000463548,Pizza Hut,818 Village Center Dr,COLORADO SPRINGS,CO,80919-3603,United States of America,7195285588.0,pizza_hut
2000463542,Pizza Hut,1560 Briargate Blvd,COLORADO SPRINGS,CO,80920-3434,United States of America,7195937823.0,pizza_hut
1000819242,Pizza Hut,711 W Abriendo Ave,PUEBLO,CO,81004-1559,United States of America,7195431219.0,pizza_hut
2000463566,Pizza Hut,457 US Highway 85 87,WALSENBURG,CO,81089-9202,United States of America,7197382480.0,pizza_hut
2000463561,Pizza Hut,1825 Eagle Dr,PAGOSA SPRINGS,CO,81147,United States of America,9702645135.0,pizza_hut
2000463562,Pizza Hut,565 Village Dr,PAGOSA SPRINGS,CO,81147-8989,United States of America,9707318777.0,pizza_hut
1000805538,Pizza Hut,1070 E Rainbow Blvd,SALIDA,CO,81201-2912,United States of America,7195392537.0,pizza_hut
2000463551,Pizza Hut,2477 Main Ave,DURANGO,CO,81301-4641,United States of America,9702593200.0,pizza_hut
2000447190,Papa John's Pizza,305 S Camino Del Rio,DURANGO,CO,81303-6697,United States of America,9703855555.0,papa_johns_pizza
1000819129,Pizza Hut,705 Horizon Dr,GRAND JUNCTION,CO,81506-3906,United States of America,9702437331.0,pizza_hut
2000631874,Toppers Pizza,424 W Lincolnway,CHEYENNE,WY,82001-4324,United States of America,,toppers_pizza
1000966780,Papa John's Pizza,956 Blue Lakes Blvd N,TWIN FALLS,ID,83301-6629,United States of America,2087363333.0,papa_johns_pizza
1000968917,Little Caesars Pizza,1813 Caldwell Blvd,NAMPA,ID,83651-1505,United States of America,2084679797.0,little_caesars_pizza
1000812094,Pizza Hut,2450 S Vista Ave,BOISE,ID,83705-4151,United States of America,2083430199.0,pizza_hut
1000862598,Chuck E. Cheese's,40 W Center St,OREM,UT,84057-4606,United States of America,8012254554.0,chuck_e_cheeses
2000629803,PizzaRev,3603 S Constitution Blvd,WEST VALLEY CITY,UT,84119-6091,United States of America,3856955532.0,pizzarev
2000629806,PizzaRev,2927 S 5600 W,WEST VALLEY CITY,UT,84120-1307,United States of America,8019484378.0,pizzarev
2000183208,Papa John's Pizza,855 Turf Farm Rd,PAYSON,UT,84651-5696,United States of America,8014655656.0,papa_johns_pizza
2000632591,zpizza,111 W Monroe St,PHOENIX,AZ,85003-1742,United States of America,6022544145.0,zpizza
2000303948,Papa Murphy's Take 'N' Bake Pizza,3320 W Bethany Home Rd,PHOENIX,AZ,85017-1956,United States of America,6023363000.0,papa_murphys_take_n_bake_pizza
1000815766,Pizza Hut,422 E Thunderbird Rd,PHOENIX,AZ,85022-5229,United States of America,6029933041.0,pizza_hut
2000012714,Little Caesars Pizza,4550 E Bell Rd,PHOENIX,AZ,85032-9383,United States of America,6029920972.0,little_caesars_pizza
2000469833,Papa John's Pizza,5602 S Central Ave,PHOENIX,AZ,85040-3053,United States of America,6023135555.0,papa_johns_pizza
1000901192,Villa Pizza,4250 W Anthem Way,ANTHEM,AZ,85086-0422,United States of America,6234659910.0,villa_pizza
1000823713,CiCi's Pizza,1011 S Gilbert Rd,MESA,AZ,85204-5204,United States of America,4805452866.0,cicis_pizza
2000041182,California Pizza Kitchen,1850 S Val Vista Dr,MESA,AZ,85204-7306,United States of America,4805587505.0,california_pizza_kitchen
2000303951,Papa Murphy's Take 'N' Bake Pizza,3128 S Mill Ave,TEMPE,AZ,85282-3657,United States of America,4809667272.0,papa_murphys_take_n_bake_pizza
2000591502,Marco's Pizza,5350 W Bell Rd,GLENDALE,AZ,85308-3906,United States of America,6023753000.0,marcos_pizza
1000962444,Sbarro,7401 N La Cholla Blvd,TUCSON,AZ,85741-2308,United States of America,5205315369.0,sbarro
2000463446,Pizza Hut,1297 E Gurley St,PRESCOTT,AZ,86301-3311,United States of America,9287782820.0,pizza_hut
2000464214,Pizza Hut,6605 4th St NW,LOS RANCHOS,NM,87107-6112,United States of America,5053450107.0,pizza_hut
1000958205,Papa John's Pizza,5800 Gibson Blvd SE,ALBUQUERQUE,NM,87108-4834,United States of America,5052567272.0,papa_johns_pizza
1000812570,Pizza Hut,2640 Carlisle Blvd NE,ALBUQUERQUE,NM,87110-2802,United States of America,5058884707.0,pizza_hut
2000464202,Pizza Hut,12500 Montgomery Blvd NE,ALBUQUERQUE,NM,87111-4117,United States of America,5052949911.0,pizza_hut
1000808683,Pizza Hut,1580 Deborah Rd SE,RIO RANCHO,NM,87124-1002,United States of America,5058923811.0,pizza_hut
2000464194,Pizza Hut,502 Sea Ave,POINT PLEASANT BEACH,NJ,8742,United States of America,7328921268.0,pizza_hut
1000819372,Pizza Hut,720 Saint Michaels Dr,SANTA FE,NM,87505-7600,United States of America,5054711010.0,pizza_hut
2000464207,Pizza Hut,1301 Mabry Dr,CLOVIS,NM,88101-7826,United States of America,5057623843.0,pizza_hut
2000464183,Pizza Hut,247-249 Rte 22,GREEN BROOK,NJ,8812,United States of America,7327528111.0,pizza_hut
2000183132,Papa John's Pizza,2047 State Highway 35,SAYREVILLE,NJ,8872,United States of America,7325530099.0,papa_johns_pizza
1000928216,Sbarro,10000 Aha Macav Pkwy,LAUGHLIN,NV,89028,United States of America,7025354915.0,sbarro
1000945147,Papa John's Pizza,2591 Anthem Village Dr,HENDERSON,NV,89052-5509,United States of America,7027347272.0,papa_johns_pizza
1000951159,Sbarro,3770 Las Vegas Blvd S,LAS VEGAS,NV,89109-4337,United States of America,7027958820.0,sbarro
2000003414,Sbarro,3150 Paradise Rd,LAS VEGAS,NV,89109-9096,United States of America,7029436866.0,sbarro
2000053484,Pizza Factory,1085 Highway 95,HAWTHORNE,NV,89436,United States of America,7759459866.0,pizza_factory
1000824859,Round Table Pizza,1043 W 4th St,WINNEMUCCA,NV,89445-3645,United States of America,7756233674.0,round_table_pizza
2000012564,Little Caesars Pizza,1217 S Carson St,CARSON CITY,NV,89701-5225,United States of America,7758839300.0,little_caesars_pizza
2000629805,PizzaRev,3150 Wilshire Blvd,LOS ANGELES,CA,90010-1305,United States of America,2132515840.0,pizzarev
1000940876,Sbarro,252 S Broadway,LOS ANGELES,CA,90013,United States of America,2136131250.0,sbarro
1000812751,Pizza Hut,2724 Hyperion Ave,LOS ANGELES,CA,90027-3002,United States of America,3236631200.0,pizza_hut
2000172385,Little Caesars Pizza,5943 W Pico Blvd,LOS ANGELES,CA,90035-2653,United States of America,3239381338.0,little_caesars_pizza
1000913589,Domino's,1759 Colorado Blvd,LOS ANGELES,CA,90041-1348,United States of America,3232565991.0,dominos
2000087574,California Pizza Kitchen Express,3607 Trousdale Pkwy,LOS ANGELES,CA,90089-0016,United States of America,2138213481.0,california_pizza_kitchen_express
2000632538,zpizza,829 N Douglas St,EL SEGUNDO,CA,90245-2801,United States of America,3106487919.0,zpizza
1000942303,Sbarro,3525 W Carson St,TORRANCE,CA,90503-5738,United States of America,3103716021.0,sbarro
1000969382,Domino's,309 N Harbor Blvd,LA HABRA,CA,90631-4846,United States of America,7149903000.0,dominos
2000629812,PizzaRev,1841 W Imperial Hwy,LA HABRA,CA,90631-6974,United States of America,5626910190.0,pizzarev
2000423731,Papa Murphy's Take 'N' Bake Pizza,11296 Los Alamitos Blvd,LOS ALAMITOS,CA,90720-3958,United States of America,5624932900.0,papa_murphys_take_n_bake_pizza
2000632585,zpizza,12430 Seal Beach Blvd,SEAL BEACH,CA,90740-2791,United States of America,5624933440.0,zpizza
2000024514,Johnnie's New York Pizzeria,1000 E Victoria St,CARSON,CA,90747-0001,United States of America,3105162077.0,johnnies_new_york_pizzeria
1000963565,Papa John's Pizza,800 Fair Oaks Ave,SOUTH PASADENA,CA,91030-2606,United States of America,6264418484.0,papa_johns_pizza
2000632580,zpizza,1705 E Colorado Blvd,PASADENA,CA,91106-2114,United States of America,6267925500.0,zpizza
2000198348,Johnnie's New York Pizzeria,138 N Brand Blvd,GLENDALE,CA,91203,United States of America,8185461091.0,johnnies_new_york_pizzeria
1000937989,Papa John's Pizza,17028 Devonshire St,NORTHRIDGE,CA,91325-1617,United States of America,8183635757.0,papa_johns_pizza
2000172421,Little Caesars Pizza,26584 Bouquet Canyon Rd,SANTA CLARITA,CA,91350-2353,United States of America,6612636000.0,little_caesars_pizza
2000198350,Johnnie's New York Pizzeria,18531 Burbank Blvd,TARZANA,CA,91356-2601,United States of America,8183435263.0,johnnies_new_york_pizzeria
2000626664,Blaze Pizza,3982 E Thousand Oaks Blvd,WESTLAKE VILLAGE,CA,91362,United States of America,,blaze_pizza
1000940341,Papa John's Pizza,19907 Ventura Blvd,WOODLAND HILLS,CA,91364-2630,United States of America,8182269200.0,papa_johns_pizza
1000931033,Papa John's Pizza,11365 Riverside Dr,NORTH HOLLYWOOD,CA,91602-1268,United States of America,8189855555.0,papa_johns_pizza
1000965107,Papa John's Pizza,8710 19th St,ALTA LOMA,CA,91701-6219,United States of America,9099447272.0,papa_johns_pizza
1000949427,Papa John's Pizza,3330 Grand Ave,CHINO HILLS,CA,91709-5405,United States of America,9096278185.0,papa_johns_pizza
1000838638,Little Caesars Pizza,1670 E 4th St,ONTARIO,CA,91764-2638,United States of America,9099843879.0,little_caesars_pizza
2000665159,Papa John's Pizza,8790 Cuyamaca St,SANTEE,CA,92071-4295,United States of America,6194497272.0,papa_johns_pizza
2000027323,Little Caesars Pizza,2020 Hacienda Dr,VISTA,CA,92081-6005,United States of America,7608066463.0,little_caesars_pizza
1000886706,Round Table Pizza,9500 Gilman Dr,LA JOLLA,CA,92093-5004,United States of America,8584572060.0,round_table_pizza
1000936491,Papa John's Pizza,1550 Garnet Ave,SAN DIEGO,CA,92109-3016,United States of America,8582729100.0,papa_johns_pizza
2000632552,zpizza,5175 Linda Vista Rd,SAN DIEGO,CA,92110-2681,United States of America,6192720022.0,zpizza
2000632596,zpizza,10006 Scripps Ranch Blvd,SAN DIEGO,CA,92131-1265,United States of America,8586899449.0,zpizza
2000629826,PizzaRev,10393 Spring Canyon Rd,SAN DIEGO,CA,92131-3916,United States of America,7608037697.0,pizzarev
2000463521,Pizza Hut,635 Beyer Way,SAN DIEGO,CA,92154-1603,United States of America,6194297434.0,pizza_hut
1000908457,Domino's,900 W Birch St,CALEXICO,CA,92231-2379,United States of America,7607683030.0,dominos
2000027362,Little Caesars Pizza,27800 Landau Blvd,CATHEDRAL CITY,CA,92234-5888,United States of America,7603253238.0,little_caesars_pizza
2000614275,Pizza Factory,78772 Highway 111,LA QUINTA,CA,92253-2044,United States of America,7607779700.0,pizza_factory
2000632543,zpizza,73607 Highway 111,PALM DESERT,CA,92260-4006,United States of America,7605685405.0,zpizza
1000939140,Papa John's Pizza,18285 Collier Ave,LAKE ELSINORE,CA,92530-2786,United States of America,9512453999.0,papa_johns_pizza
2000632579,zpizza,17655 Harvard Ave,IRVINE,CA,92614-8548,United States of America,9497979044.0,zpizza
2000632578,zpizza,19035 Goldenwest St,HUNTINGTON BEACH,CA,92648-2153,United States of America,7145363444.0,zpizza
2000632570,zpizza,26921 Aliso Creek Rd,ALISO VIEJO,CA,92656-3395,United States of America,9494250102.0,zpizza
1000948909,Papa John's Pizza,32282 Camino Capistrano,SAN JUAN CAPISTRANO,CA,92675-3741,United States of America,9496617272.0,papa_johns_pizza
2000463511,Pizza Hut,22205 El Paseo,RANCHO STA MARG,CA,92688-5818,United States of America,9497662822.0,pizza_hut
1000945108,Papa John's Pizza,25800 Jeronimo Rd,MISSION VIEJO,CA,92691-7904,United States of America,9498597272.0,papa_johns_pizza
1000951163,Papa John's Pizza,3770 W McFadden Ave,SANTA ANA,CA,92704-1394,United States of America,7148391000.0,papa_johns_pizza
2000626652,Blaze Pizza,444 W Katella Ave,ANAHEIM,CA,92802,United States of America,,blaze_pizza
2000198774,Bananas Ultimate Juice Bar,740 Ventura Blvd,CAMARILLO,CA,93010-5842,United States of America,8053890500.0,bananas_ultimate_juice_bar
1000951730,Papa John's Pizza,5 W Los Angeles Ave,MOORPARK,CA,93021-1820,United States of America,8055315434.0,papa_johns_pizza
2000463504,Pizza Hut,369 W Esplanade Dr,OXNARD,CA,93036-1234,United States of America,,pizza_hut
2000329626,Papa John's Pizza,5756 Calle Real,GOLETA,CA,93117-2316,United States of America,8059672421.0,papa_johns_pizza
2000463531,Pizza Hut,814 Center St,TAFT,CA,93268-3129,United States of America,6617634261.0,pizza_hut
2000463535,Pizza Hut,575 W Bardsley Ave,TULARE,CA,93274-5100,United States of America,5596868600.0,pizza_hut
2000182588,Sbarro,9001 Stockdale Hwy,BAKERSFIELD,CA,93311-1022,United States of America,6616542254.0,sbarro
1000948825,Papa John's Pizza,977 E Foothill Blvd,SAN LUIS OBISPO,CA,93405-1739,United States of America,8055447222.0,papa_johns_pizza
1000919640,Domino's,3734 Constellation Rd,LOMPOC,CA,93436-0447,United States of America,8057334555.0,dominos
2000463506,Pizza Hut,1124 Black Oak Dr,PASO ROBLES,CA,93446-1319,United States of America,8052390100.0,pizza_hut
1000903952,Papa Murphy's Take 'N' Bake Pizza,611 Pacheco Blvd,LOS BANOS,CA,93635-4231,United States of America,2098262400.0,papa_murphys_take_n_bake_pizza
2000575420,Pizza Hut,1132 Academy Ave,SANGER,CA,93657-3195,United States of America,5598752619.0,pizza_hut
2000626787,Blaze Pizza,1089 E Shaw Ave,FRESNO,CA,93710-7836,United States of America,5592480450.0,blaze_pizza
1000904035,Papa Murphy's Take 'N' Bake Pizza,616 E Boronda Rd,SALINAS,CA,93906-3129,United States of America,8314447492.0,papa_murphys_take_n_bake_pizza
1000958572,Papa John's Pizza,598 Lighthouse Ave,MONTEREY,CA,93940-1423,United States of America,8313727499.0,papa_johns_pizza
1000896754,Papa Murphy's Take 'N' Bake Pizza,2440 Fremont St,MONTEREY,CA,93940-6850,United States of America,8313757272.0,papa_murphys_take_n_bake_pizza
1000912341,Domino's,1501 El Camino Real,BELMONT,CA,94002-3946,United States of America,6505922712.0,dominos
1000912993,Domino's,1621 El Camino Real,MILLBRAE,CA,94030-1214,United States of America,6508718780.0,dominos
1000907498,Papa Murphy's Take 'N' Bake Pizza,939 W El Camino Real,SUNNYVALE,CA,94087-1179,United States of America,4082450500.0,papa_murphys_take_n_bake_pizza
2000463509,Pizza Hut,35 Crescent Dr,PLEASANT HILL,CA,94523-5509,United States of America,,pizza_hut
2000632530,zpizza,95 Railroad Ave,DANVILLE,CA,94526-3852,United States of America,9253624010.0,zpizza
2000632554,zpizza,46703 Mission Blvd,FREMONT,CA,94539-7950,United States of America,5103609900.0,zpizza
2000329515,Papa John's Pizza,25125 Santa Clara St,HAYWARD,CA,94544-2165,United States of America,5107857272.0,papa_johns_pizza
2000463458,Pizza Hut,3571 Castro Valley Blvd,CASTRO VALLEY,CA,94546-4401,United States of America,5105811287.0,pizza_hut
1000812948,Pizza Hut,282 S L St,LIVERMORE,CA,94550-4410,United States of America,9254497373.0,pizza_hut
2000463510,Pizza Hut,927 Main St,PLEASANTON,CA,94566-6002,United States of America,9254171177.0,pizza_hut
2000632567,zpizza,3141 Crow Canyon Pl,SAN RAMON,CA,94583-1360,United States of America,9253280525.0,zpizza
1000812480,Pizza Hut,2603 Fruitvale Ave,OAKLAND,CA,94601-2023,United States of America,5105363600.0,pizza_hut
2000041457,California Pizza Kitchen,1 Airport Dr,OAKLAND,CA,94621,United States of America,5616830834.0,california_pizza_kitchen
1000915253,Domino's,2127 University Ave,BERKELEY,CA,94704-1025,United States of America,5108499000.0,dominos
2000224948,Papa Murphy's Take 'N' Bake Pizza,1200 41st Ave,CAPITOLA,CA,95010-3900,United States of America,8314797272.0,papa_murphys_take_n_bake_pizza
1000905794,Papa Murphy's Take 'N' Bake Pizza,767 1st St,GILROY,CA,95020-4918,United States of America,4088469300.0,papa_murphys_take_n_bake_pizza
2000303963,Papa Murphy's Take 'N' Bake Pizza,1437 Main St,WATSONVILLE,CA,95076-3758,United States of America,8317288800.0,papa_murphys_take_n_bake_pizza
2000626629,Blaze Pizza,549 Coleman Ave,SAN JOSE,CA,95110,United States of America,,blaze_pizza
2000303960,Papa Murphy's Take 'N' Bake Pizza,125 Bernal Rd,SAN JOSE,CA,95119-1397,United States of America,4082299900.0,papa_murphys_take_n_bake_pizza
2000329419,Papa John's Pizza,1320 Standiford Ave,MODESTO,CA,95350-0726,United States of America,2095217272.0,papa_johns_pizza
1000900337,Papa Murphy's Take 'N' Bake Pizza,3900 Pelandale Ave,MODESTO,CA,95356-9103,United States of America,2095452100.0,papa_murphys_take_n_bake_pizza
2000463500,Pizza Hut,1570 E F St,OAKDALE,CA,95361-9610,United States of America,2098458103.0,pizza_hut
2000199951,Papa Murphy's Take 'N' Bake Pizza,1010 W Las Palmas Ave,PATTERSON,CA,95363-8873,United States of America,2098920888.0,papa_murphys_take_n_bake_pizza
1000894774,Papa Murphy's Take 'N' Bake Pizza,1985 Mendocino Ave,SANTA ROSA,CA,95401-3630,United States of America,7075687272.0,papa_murphys_take_n_bake_pizza
2000463473,Pizza Hut,1710 6th St,EUREKA,CA,95501,United States of America,7074434141.0,pizza_hut
2000632980,Papa John's Pizza,417 Mace Blvd,DAVIS,CA,95618-6053,United States of America,5305644333.0,papa_johns_pizza
1000846225,Round Table Pizza,2151 Cowell Blvd,DAVIS,CA,95618-6391,United States of America,5307531883.0,round_table_pizza
2000405455,Round Table Pizza,5885 Santa Teresa Blvd,WEST SACRAMENTO,CA,95691,United States of America,4082278669.0,round_table_pizza
1000921078,Johnnie's New York Pizzeria,6051 Florin Rd,SACRAMENTO,CA,95823-2304,United States of America,9163937892.0,johnnies_new_york_pizzeria
2000182971,Papa John's Pizza,1340 Churn Creek Rd,REDDING,CA,96003-4098,United States of America,5302247272.0,papa_johns_pizza
2000244139,Pizza Factory,106 Ranch Ln,YREKA,CA,96097-3480,United States of America,5308427992.0,pizza_factory
2000463702,Pizza Hut,98-1005 Moanalua Rd,AIEA,HI,96701-4777,United States of America,8084876462.0,pizza_hut
1000868836,Little Caesars Pizza,500 Kamokila Blvd,KAPOLEI,HI,96707-2026,United States of America,8086938005.0,little_caesars_pizza
2000463720,Pizza Hut,74 Lono Ave,KAHULUI,HI,96732-1626,United States of America,8088719544.0,pizza_hut
2000463719,Pizza Hut,10 E Kamehameha Ave,KAHULUI,HI,96732-2415,United States of America,8088772402.0,pizza_hut
2000463722,Pizza Hut,26 Kaneohe Bay Dr,KAILUA,HI,96734,United States of America,8082546699.0,pizza_hut
1000879689,Little Caesars Pizza,74-5465 Kamakaeha Ave,KAILUA KONA,HI,96740-1648,United States of America,8083261420.0,little_caesars_pizza
2000463726,Pizza Hut,47-388 Hui Iwa St,KANEOHE,HI,96744-4428,United States of America,8082392211.0,pizza_hut
2000463727,Pizza Hut,4-711 Kuhio Hwy,KAPAA,HI,96746,United States of America,8088227434.0,pizza_hut
2000463730,Pizza Hut,3600 Lower Honoapiilani Rd,LAHAINA,HI,96761-9382,United States of America,8086696996.0,pizza_hut
1000865179,Little Caesars Pizza,4303 Nawiliwili Rd,LIHUE,HI,96766-9581,United States of America,8082455733.0,little_caesars_pizza
2000353226,Domino's,211 Hiwi Pl,WAHIAWA,HI,96786-1802,United States of America,8082002000.0,dominos
2000463733,Pizza Hut,94-780 Meheula Pkwy,MILILANI,HI,96789-2100,United States of America,8086235599.0,pizza_hut
2000463707,Pizza Hut,1102 Fort Street Mall,HONOLULU,HI,96813-2707,United States of America,8085323087.0,pizza_hut
2000463718,Pizza Hut,Ala Mona S/C Sears,HONOLULU,HI,96814,United States of America,8089413320.0,pizza_hut
2000632586,zpizza,1200 Ala Moana Blvd,HONOLULU,HI,96814-4271,United States of America,8085960066.0,zpizza
2000463710,Pizza Hut,2250 Kalakaua Ave,HONOLULU,HI,96815-2543,United States of America,8089714460.0,pizza_hut
2000463713,Pizza Hut,4211 Waialae Ave,HONOLULU,HI,96816-5319,United States of America,8087359788.0,pizza_hut
2000074411,California Pizza Kitchen,300 Rodgers Blvd,HONOLULU,HI,96819-1890,United States of America,8088362566.0,california_pizza_kitchen
2000443041,Domino's,2560 McCarthy Mall,HONOLULU,HI,96822-2233,United States of America,8089566265.0,dominos
2000443043,Domino's,Menoher Road Schofield Barracks Schofield,WAHIAWA,HI,96857,United States of America,8086223030.0,dominos
2000463695,Pizza Hut,Agana Shopping Center,AGANA,GU,96910,United States of America,6714777747.0,pizza_hut
2000463698,Pizza Hut,295 Route 4,CHALAN PAGO,GU,96910,United States of America,6717340294.0,pizza_hut
2000463699,Pizza Hut,Dededo Chus Plaza,DEDEDO,GU,96912,United States of America,6716324222.0,pizza_hut
2000463700,Pizza Hut,Dededo; Near Micronesia Mall,DEDEDO,GU,96912,United States of America,6716329327.0,pizza_hut
2000463697,Pizza Hut,Barrigada;Lot1/Blk10/Crnr San,BARRIGADA,GU,96913,United States of America,6717340001.0,pizza_hut
2000463701,Pizza Hut,Marine Dr/Camp Watki,TAMUNING,GU,96913,United States of America,6716469227.0,pizza_hut
2000463696,Pizza Hut,RR 1,AGAT,GU,96928,United States of America,6715659177.0,pizza_hut
1000835215,Godfather's Pizza,14682 SE Sunnyside Rd,CLACKAMAS,OR,97015-6400,United States of America,5036582200.0,godfathers_pizza
2000047717,Pizza Schmizza,14624 SE McLoughlin Blvd,MILWAUKIE,OR,97267-1415,United States of America,5034960873.0,pizza_schmizza
2000047711,Figaro's Pizza,5399 Commercial St SE,SALEM,OR,97306-1015,United States of America,5035889977.0,figaros_pizza
2000047782,Figaro's Pizza,244 Main St,DALLAS,OR,97338-3303,United States of America,5036238889.0,figaros_pizza
2000047756,Figaro's Pizza,2035 N Coast Hwy,NEWPORT,OR,97365-1706,United States of America,5412652061.0,figaros_pizza
2000047802,Figaro's Pizza,402 McClaine St,SILVERTON,OR,97381-1921,United States of America,5038738007.0,figaros_pizza
2000443323,Domino's,1535 Franklin Blvd,EUGENE,OR,97403-1981,United States of America,5415053083.0,dominos
2000047719,Figaro's Pizza,16261 Highway 101 S,BROOKINGS,OR,97415-9484,United States of America,5414698400.0,figaros_pizza
2000047736,Figaro's Pizza,29 W 1st St,COQUILLE,OR,97423-1201,United States of America,5413965277.0,figaros_pizza
2000047801,Figaro's Pizza,48005 Highway 58,OAKRIDGE,OR,97463-9523,United States of America,5417824559.0,figaros_pizza
2000660609,Figaro's Pizza,315 Main St,PHOENIX,OR,97535-0079,United States of America,5418974334.0,figaros_pizza
1000920217,Domino's,402 SE 13th St,ONTARIO,OR,97914-3021,United States of America,5418897766.0,dominos
1000848074,Godfather's Pizza,2301 SW 336th St,FEDERAL WAY,WA,98023-3823,United States of America,2538743313.0,godfathers_pizza
2000027274,Little Caesars Pizza,14312 124th Ave NE,KIRKLAND,WA,98034-1414,United States of America,4258219955.0,little_caesars_pizza
2000242663,Little Caesars Pizza,23852 SE Kent Kangley Rd,MAPLE VALLEY,WA,98038-6848,United States of America,4255847799.0,little_caesars_pizza
2000334416,Pizza Italia,400 Pine St,SEATTLE,WA,98101-3625,United States of America,2066240442.0,pizza_italia
2000588362,Papa Murphy's Take 'N' Bake Pizza,618 1st Ave N,SEATTLE,WA,98109-4001,United States of America,2062850928.0,papa_murphys_take_n_bake_pizza
1000965624,Papa John's Pizza,9000 Holman Rd NW,SEATTLE,WA,98117-3418,United States of America,2067815555.0,papa_johns_pizza
1000956784,Papa John's Pizza,5252 California Ave SW,SEATTLE,WA,98136-1210,United States of America,2069383000.0,papa_johns_pizza
2000041154,California Pizza Kitchen,150 Andover Park W,TUKWILA,WA,98188-2801,United States of America,2062422112.0,california_pizza_kitchen
1000839758,Little Caesars Pizza,1733 H St,BLAINE,WA,98230-5107,United States of America,3603321700.0,little_caesars_pizza
2000037577,Papa John's Pizza,19191 State Route 2,MONROE,WA,98272-1553,United States of America,3608055200.0,papa_johns_pizza
1000910691,Domino's,1225 Center Dr,DUPONT,WA,98327-7731,United States of America,2539643003.0,dominos
2000664062,Little Caesars Pizza,19405 Highway 305,POULSBO,WA,98370,United States of America,3609308214.0,little_caesars_pizza
2000326773,Round Table Pizza,20717 Mountain Hwy E,SPANAWAY,WA,98387,United States of America,2536553030.0,round_table_pizza
1000901632,Villa Pizza,4502 S Steele St,TACOMA,WA,98409-7276,United States of America,2534760940.0,villa_pizza
1000955933,Papa John's Pizza,4040 Orchard St W,FIRCREST,WA,98466-6606,United States of America,2536822020.0,papa_johns_pizza
2000242605,Little Caesars Pizza,1520 Cooper Point Rd SW,OLYMPIA,WA,98502-1050,United States of America,3604890041.0,little_caesars_pizza
2000242584,Little Caesars Pizza,1350 Marvin Rd NE,LACEY,WA,98516-3877,United States of America,3604891887.0,little_caesars_pizza
1000829404,Little Caesars Pizza,1201 NW Louisiana Ave,CHEHALIS,WA,98532-1816,United States of America,3607483309.0,little_caesars_pizza
2000464775,Pizza Hut,1450 N Wenatchee Ave,WENATCHEE,WA,98801-1155,United States of America,5096625511.0,pizza_hut
1000964699,Papa John's Pizza,845 S Mission St,WENATCHEE,WA,98801-3098,United States of America,5096620808.0,papa_johns_pizza
2000464764,Pizza Hut,120 NE Canning Dr,COLVILLE,WA,99114-2004,United States of America,5096840488.0,pizza_hut
2000334419,Villa Fresh Italian Kitchen,4750 N Division St,SPOKANE,WA,99207-1411,United States of America,5094847159.0,villa_fresh_italian_kitchen
2000464774,Pizza Hut,115 S 3rd Ave,WALLA WALLA,WA,99362-2848,United States of America,5095257676.0,pizza_hut
2000463381,Pizza Hut,118 E 6th Ave,ANCHORAGE,AK,99501-2524,United States of America,9073372323.0,pizza_hut
1000819481,Pizza Hut,729 E Dimond Blvd,ANCHORAGE,AK,99515-2004,United States of America,9073494694.0,pizza_hut
2000463382,Pizza Hut,210 Center Ct,ANCHORAGE,AK,99518-1621,United States of America,9075622205.0,pizza_hut
